; ============================================================
; Pressure Advance calibration pattern
; generated by Print Calibration Tool (Ellis-style chevron pattern)
; ============================================================
; bed = 250x220
; first_layer_height = 0.2
; layer_height = 0.2
; layers = 3
; anchor = frame
; print_numbers = 0
; pa_start = 0
; pa_end = 0.1
; pa_step = 0.01
; pa_values = 0,0.01,0.02,0.03,0.04,0.05,0.06,0.07,0.08,0.09,0.1
; relative_e = 1
; gcode_flavor = marlin2
; extrusion_width = 0.45
; anchor_width = 0.56
; filament_diameter = 1.75
; extrusion_multiplier = 0.975
; acceleration_print = 3000
; acceleration_first_layer = 500
; acceleration_restore = 7000
; pattern_size = 66.04x46.09 mm
; pattern_origin = 91.98,86.96
; speed_pattern = 150 mm/s
; speed_first_layer = 45 mm/s
; estimated_time_s = 115
; filament_mm = 232.22
; ------------------------------------------------------------
; generated by PrusaSlicer 2.9.6


; printer_model = COREONE
; filament_type = PLA
; filament_abrasive = 0
; nozzle_diameter = 0.4
; nozzle_high_flow = 1
; bed_temperature = 60
; brim_width = 0
; fill_density = 40%
; layer_height = 0.2
; temperature = 225
; ironing = 0
; support_material = 0
; extruder_colour = ""
; max_layer_z = 58.40
; objects_info = {"objects":[{"name":"avent_mount.stl","polygon":[[160.000,112.829],[159.905,114.653],[159.667,116.233],[159.329,117.649],[158.732,119.429],[157.954,121.166],[157.154,122.605],[156.217,124.020],[155.118,125.436],[153.839,126.852],[152.591,128.055],[150.934,129.448],[149.661,130.390],[147.862,131.568],[146.211,132.515],[144.446,133.406],[142.250,134.362],[139.966,135.201],[137.595,135.919],[133.503,136.836],[130.985,137.213],[128.429,137.458],[124.140,137.570],[121.571,137.458],[119.015,137.213],[114.839,136.511],[110.816,135.454],[108.502,134.655],[106.713,133.930],[103.789,132.515],[100.866,130.753],[98.497,128.993],[96.385,127.079],[94.548,125.028],[93.002,122.857],[91.766,120.591],[90.885,118.357],[90.263,115.859],[90.010,113.402],[90.000,82.423],[160.000,82.423]]}]}
; filament used [mm] = 232.22
; filament used [g] = 0.73
; filament cost = 0.01
; filament used [cm3] = 0.56
; total filament used for wipe tower [g] = 0.00
; estimated printing time (normal mode) = 1m 55s
; estimated printing time (silent mode) = 2m 22s

;
;

;
;

;
;

;
;

M73 P0 R2
M73 Q0 S2
M201 X10000 Y10000 Z400 E5000
M203 X350 Y350 Z12 E100
M204 P7000 R2500 T7000
M205 X10.00 Y10.00 Z2.00 E10.00
M205 S0 T0
M486 S0
M486 Aavent_mount.stl
M486 S-1
M17
M862.1 P0.4 A0 F1
M862.3 P "COREONE"
M862.5 P2
M862.6 P"Input shaper"
M115 U6.3.4+10511
M555 X91.97949 Y86.95556 W66.04103 H46.08888
G90
M83
M140 S61
M109 R170
M84 E
G28
M141 S20
G0 Z40 F10000
M104 T0 S170
M190 R61
M107
G29G
M109 R170
M302 S155
G1 E-2 F2400
M84 E
G0 X41 Y-13 Z1.5 F20000
G0 X78 Y-18 Z1.5 F20000
G0 X41 Y-13 Z1.5 F20000
G0 X78 Y-18 Z1.5 F20000
G0 X41 Y-13 Z1.5 F20000
G0 X78 Y-18 Z1.5 F20000
G0 X41 Y-13 Z1.5 F20000
G0 X78 Y-18 Z1.5 F20000
G0 X41 Y-13 Z1.5 F20000
G0 X78 Y-18 Z1.5 F20000
G29 P9 X208 Y-2.5 W32 H4
; MBL
M84 E
G29 P1
G29 P1 X150 Y0 W100 H20 C
G29 P3.2
G29 P3.13
G29 A
; prepare for purge
M104 S225
G0 X249 Y-2.5 Z15 F4800
M109 S225
G92 E0
M569 S0 E
; Extrude purge line
G92 E0
G1 E2 F2400
G0 E5 X235 Z0.2 F500
G0 X225 E4 F500
G0 X215 E4 F650
G0 X205 E4 F800
G0 X202 Z0.05 F8000
G0 X199 Z0.2 F8000
G92 E0
M221 S100
G21
G90
M83
M572 S0.03
M572 S0.45
M142 S36
M107
M73 P0 R2
M73 Q0 S3
; >>> print_calibration_tool pattern begin
G21 ; millimeters
G90 ; absolute positioning
M83 ; relative extrusion
G92 E0
M106 S0 ; fan
M204 P500 T7000 ; acceleration for the test
G1 E-0.7 F2700 ; retract
G0 Z5 F720
G0 X95.8107 Y88.7868 F21000
G0 Z0.2 F720
M572 S0 ; start value
;LAYER_CHANGE
;Z:0.2
;HEIGHT:0.2
; anchor frame
;TYPE:Perimeter
G0 Z0.4 F720
G0 X92.2595 Y87.2356 F21000
G0 Z0.2 F720
G1 E0.7 F1500 ; unretract
M73 P2 R2
M73 Q2 S3
G1 X157.7405 Y87.2356 E2.74499 F2700 ; anchor
G1 X157.7405 Y132.7644 E1.90859 F2700 ; anchor
M73 P4 R2
M73 Q4 S3
G1 X92.2595 Y132.7644 E2.74499 F2700 ; anchor
G1 X92.2595 Y87.2356 E1.90859 F2700 ; anchor
G0 X92.7766 Y87.7526 F21000
M73 P7 R2
M73 Q7 S3
G1 X157.2234 Y87.7526 E2.70164 F2700 ; anchor
G1 X157.2234 Y132.2474 E1.86524 F2700 ; anchor
M73 P9 R2
M73 Q9 S3
G1 X92.7766 Y132.2474 E2.70164 F2700 ; anchor
G1 X92.7766 Y87.7526 E1.86524 F2700 ; anchor
G0 X93.2936 Y88.2697 F21000
M73 P11 R2
M73 Q11 S3
G1 X156.7064 Y88.2697 E2.65829 F2700 ; anchor
G1 X156.7064 Y131.7303 E1.82189 F2700 ; anchor
M73 P13 R2
M73 Q13 S3
G1 X93.2936 Y131.7303 E2.65829 F2700 ; anchor
G1 X93.2936 Y88.2697 E1.82189 F2700 ; anchor
G0 X93.8107 Y88.7868 F21000
M73 P16 R2
M73 Q16 S3
G1 X156.1893 Y88.7868 E2.61494 F2700 ; anchor
G1 X156.1893 Y131.2132 E1.77853 F2700 ; anchor
M73 P18 R2
M73 Q18 S3
G1 X93.8107 Y131.2132 E2.61494 F2700 ; anchor
G1 X93.8107 Y88.7868 E1.77853 F2700 ; anchor
;TYPE:External perimeter
M572 S0 ; pattern 1/11
G0 X95.8107 Y88.7868 F21000
G1 X117.0239 Y110 E0.99008 F2700 ; pattern
M73 P20 R2
M73 Q20 S3
G1 X95.8107 Y131.2132 E0.99008 F2700 ; pattern
G0 X96.3864 Y131.2132 F21000
G1 X117.5996 Y110 E0.99008 F2700 ; pattern
G1 X96.3864 Y88.7868 E0.99008 F2700 ; pattern
G0 X96.9621 Y88.7868 F21000
M73 P22 R2
M73 Q22 S3
G1 X118.1753 Y110 E0.99008 F2700 ; pattern
G1 X96.9621 Y131.2132 E0.99008 F2700 ; pattern
M572 S0.01 ; pattern 2/11
G1 E-0.7 F2700 ; retract
G0 Z0.4 F720
G0 X99.4121 Y88.7868 F21000
G0 Z0.2 F720
G1 E0.7 F1500 ; unretract
M73 P24 R2
M73 Q24 S3
G1 X120.6253 Y110 E0.99008 F2700 ; pattern
G1 X99.4121 Y131.2132 E0.99008 F2700 ; pattern
G0 X99.9878 Y131.2132 F21000
G1 X121.201 Y110 E0.99008 F2700 ; pattern
M73 P26 R2
M73 Q26 S3
G1 X99.9878 Y88.7868 E0.99008 F2700 ; pattern
G0 X100.5635 Y88.7868 F21000
G1 X121.7767 Y110 E0.99008 F2700 ; pattern
G1 X100.5635 Y131.2132 E0.99008 F2700 ; pattern
M572 S0.02 ; pattern 3/11
G1 E-0.7 F2700 ; retract
G0 Z0.4 F720
G0 X103.0135 Y88.7868 F21000
G0 Z0.2 F720
G1 E0.7 F1500 ; unretract
M73 P28 R2
M73 Q28 S3
G1 X124.2267 Y110 E0.99008 F2700 ; pattern
G1 X103.0135 Y131.2132 E0.99008 F2700 ; pattern
G0 X103.5892 Y131.2132 F21000
G1 X124.8024 Y110 E0.99008 F2700 ; pattern
M73 P30 R2
M73 Q30 S3
G1 X103.5892 Y88.7868 E0.99008 F2700 ; pattern
G0 X104.1649 Y88.7868 F21000
G1 X125.3781 Y110 E0.99008 F2700 ; pattern
G1 X104.1649 Y131.2132 E0.99008 F2700 ; pattern
M572 S0.03 ; pattern 4/11
G1 E-0.7 F2700 ; retract
G0 Z0.4 F720
G0 X106.6149 Y88.7868 F21000
G0 Z0.2 F720
G1 E0.7 F1500 ; unretract
M73 P32 R2
M73 Q32 S3
G1 X127.8281 Y110 E0.99008 F2700 ; pattern
G1 X106.6149 Y131.2132 E0.99008 F2700 ; pattern
G0 X107.1906 Y131.2132 F21000
G1 X128.4038 Y110 E0.99008 F2700 ; pattern
M73 P34 R2
M73 Q34 S3
G1 X107.1906 Y88.7868 E0.99008 F2700 ; pattern
G0 X107.7663 Y88.7868 F21000
G1 X128.9795 Y110 E0.99008 F2700 ; pattern
G1 X107.7663 Y131.2132 E0.99008 F2700 ; pattern
M572 S0.04 ; pattern 5/11
G1 E-0.7 F2700 ; retract
G0 Z0.4 F720
M73 P36 R2
M73 Q36 S3
G0 X110.2163 Y88.7868 F21000
G0 Z0.2 F720
G1 E0.7 F1500 ; unretract
G1 X131.4295 Y110 E0.99008 F2700 ; pattern
G1 X110.2163 Y131.2132 E0.99008 F2700 ; pattern
G0 X110.792 Y131.2132 F21000
M73 P38 R2
M73 Q38 S3
G1 X132.0052 Y110 E0.99008 F2700 ; pattern
G1 X110.792 Y88.7868 E0.99008 F2700 ; pattern
G0 X111.3677 Y88.7868 F21000
G1 X132.5809 Y110 E0.99008 F2700 ; pattern
M73 P40 R2
M73 Q40 S3
G1 X111.3677 Y131.2132 E0.99008 F2700 ; pattern
M572 S0.05 ; pattern 6/11
G1 E-0.7 F2700 ; retract
G0 Z0.4 F720
G0 X113.8177 Y88.7868 F21000
G0 Z0.2 F720
G1 E0.7 F1500 ; unretract
G1 X135.0309 Y110 E0.99008 F2700 ; pattern
G1 X113.8177 Y131.2132 E0.99008 F2700 ; pattern
G0 X114.3934 Y131.2132 F21000
M73 P42 R2
M73 Q42 S3
G1 X135.6066 Y110 E0.99008 F2700 ; pattern
G1 X114.3934 Y88.7868 E0.99008 F2700 ; pattern
G0 X114.9691 Y88.7868 F21000
G1 X136.1823 Y110 E0.99008 F2700 ; pattern
M73 P44 R2
M73 Q44 S3
G1 X114.9691 Y131.2132 E0.99008 F2700 ; pattern
M572 S0.06 ; pattern 7/11
G1 E-0.7 F2700 ; retract
G0 Z0.4 F720
G0 X117.4191 Y88.7868 F21000
G0 Z0.2 F720
G1 E0.7 F1500 ; unretract
G1 X138.6323 Y110 E0.99008 F2700 ; pattern
G1 X117.4191 Y131.2132 E0.99008 F2700 ; pattern
G0 X117.9948 Y131.2132 F21000
M73 P46 R2
M73 Q46 S3
G1 X139.208 Y110 E0.99008 F2700 ; pattern
G1 X117.9948 Y88.7868 E0.99008 F2700 ; pattern
G0 X118.5705 Y88.7868 F21000
G1 X139.7837 Y110 E0.99008 F2700 ; pattern
M73 P48 R1
M73 Q48 S2
G1 X118.5705 Y131.2132 E0.99008 F2700 ; pattern
M572 S0.07 ; pattern 8/11
G1 E-0.7 F2700 ; retract
G0 Z0.4 F720
G0 X121.0205 Y88.7868 F21000
G0 Z0.2 F720
G1 E0.7 F1500 ; unretract
G1 X142.2337 Y110 E0.99008 F2700 ; pattern
M73 P50 R1
M73 Q50 S2
G1 X121.0205 Y131.2132 E0.99008 F2700 ; pattern
G0 X121.5962 Y131.2132 F21000
G1 X142.8094 Y110 E0.99008 F2700 ; pattern
G1 X121.5962 Y88.7868 E0.99008 F2700 ; pattern
G0 X122.1719 Y88.7868 F21000
M73 P52 R1
M73 Q52 S2
G1 X143.3851 Y110 E0.99008 F2700 ; pattern
G1 X122.1719 Y131.2132 E0.99008 F2700 ; pattern
M572 S0.08 ; pattern 9/11
G1 E-0.7 F2700 ; retract
G0 Z0.4 F720
G0 X124.6219 Y88.7868 F21000
G0 Z0.2 F720
G1 E0.7 F1500 ; unretract
G1 X145.8351 Y110 E0.99008 F2700 ; pattern
M73 P54 R1
M73 Q54 S2
G1 X124.6219 Y131.2132 E0.99008 F2700 ; pattern
G0 X125.1976 Y131.2132 F21000
G1 X146.4108 Y110 E0.99008 F2700 ; pattern
G1 X125.1976 Y88.7868 E0.99008 F2700 ; pattern
G0 X125.7733 Y88.7868 F21000
M73 P56 R1
M73 Q56 S2
G1 X146.9865 Y110 E0.99008 F2700 ; pattern
G1 X125.7733 Y131.2132 E0.99008 F2700 ; pattern
M572 S0.09 ; pattern 10/11
G1 E-0.7 F2700 ; retract
G0 Z0.4 F720
G0 X128.2233 Y88.7868 F21000
G0 Z0.2 F720
G1 E0.7 F1500 ; unretract
G1 X149.4365 Y110 E0.99008 F2700 ; pattern
M73 P58 R1
M73 Q58 S2
G1 X128.2233 Y131.2132 E0.99008 F2700 ; pattern
G0 X128.799 Y131.2132 F21000
G1 X150.0122 Y110 E0.99008 F2700 ; pattern
G1 X128.799 Y88.7868 E0.99008 F2700 ; pattern
G0 X129.3747 Y88.7868 F21000
M73 P60 R1
M73 Q60 S2
G1 X150.5879 Y110 E0.99008 F2700 ; pattern
G1 X129.3747 Y131.2132 E0.99008 F2700 ; pattern
M572 S0.1 ; pattern 11/11
G1 E-0.7 F2700 ; retract
G0 Z0.4 F720
G0 X131.8247 Y88.7868 F21000
G0 Z0.2 F720
G1 E0.7 F1500 ; unretract
M73 P62 R1
M73 Q62 S2
G1 X153.0379 Y110 E0.99008 F2700 ; pattern
G1 X131.8247 Y131.2132 E0.99008 F2700 ; pattern
G0 X132.4004 Y131.2132 F21000
G1 X153.6136 Y110 E0.99008 F2700 ; pattern
M73 P64 R1
M73 Q64 S2
G1 X132.4004 Y88.7868 E0.99008 F2700 ; pattern
G0 X132.9761 Y88.7868 F21000
G1 X154.1893 Y110 E0.99008 F2700 ; pattern
G1 X132.9761 Y131.2132 E0.99008 F2700 ; pattern
;LAYER_CHANGE
;Z:0.4
;HEIGHT:0.2
G0 Z0.4 F720
M106 S217 ; fan
M204 P3000 T7000 ; print acceleration
;TYPE:External perimeter
M572 S0 ; pattern 1/11
G1 E-0.7 F2700 ; retract
G0 Z0.6 F720
G0 X95.8107 Y88.7868 F21000
G0 Z0.4 F720
G1 E0.7 F1500 ; unretract
G1 X117.0239 Y110 E0.99008 F9000 ; pattern
M73 P66 R1
M73 Q66 S2
G1 X95.8107 Y131.2132 E0.99008 F9000 ; pattern
G0 X96.3864 Y131.2132 F21000
G1 X117.5996 Y110 E0.99008 F9000 ; pattern
G1 X96.3864 Y88.7868 E0.99008 F9000 ; pattern
G0 X96.9621 Y88.7868 F21000
G1 X118.1753 Y110 E0.99008 F9000 ; pattern
G1 X96.9621 Y131.2132 E0.99008 F9000 ; pattern
M572 S0.01 ; pattern 2/11
G1 E-0.7 F2700 ; retract
G0 Z0.6 F720
G0 X99.4121 Y88.7868 F21000
G0 Z0.4 F720
G1 E0.7 F1500 ; unretract
G1 X120.6253 Y110 E0.99008 F9000 ; pattern
G1 X99.4121 Y131.2132 E0.99008 F9000 ; pattern
G0 X99.9878 Y131.2132 F21000
G1 X121.201 Y110 E0.99008 F9000 ; pattern
M73 P68 R1
M73 Q68 S2
G1 X99.9878 Y88.7868 E0.99008 F9000 ; pattern
G0 X100.5635 Y88.7868 F21000
G1 X121.7767 Y110 E0.99008 F9000 ; pattern
G1 X100.5635 Y131.2132 E0.99008 F9000 ; pattern
M572 S0.02 ; pattern 3/11
G1 E-0.7 F2700 ; retract
G0 Z0.6 F720
G0 X103.0135 Y88.7868 F21000
G0 Z0.4 F720
G1 E0.7 F1500 ; unretract
G1 X124.2267 Y110 E0.99008 F9000 ; pattern
G1 X103.0135 Y131.2132 E0.99008 F9000 ; pattern
G0 X103.5892 Y131.2132 F21000
G1 X124.8024 Y110 E0.99008 F9000 ; pattern
G1 X103.5892 Y88.7868 E0.99008 F9000 ; pattern
G0 X104.1649 Y88.7868 F21000
G1 X125.3781 Y110 E0.99008 F9000 ; pattern
M73 P70 R1
M73 Q70 S2
G1 X104.1649 Y131.2132 E0.99008 F9000 ; pattern
M572 S0.03 ; pattern 4/11
G1 E-0.7 F2700 ; retract
G0 Z0.6 F720
G0 X106.6149 Y88.7868 F21000
G0 Z0.4 F720
G1 E0.7 F1500 ; unretract
G1 X127.8281 Y110 E0.99008 F9000 ; pattern
G1 X106.6149 Y131.2132 E0.99008 F9000 ; pattern
G0 X107.1906 Y131.2132 F21000
G1 X128.4038 Y110 E0.99008 F9000 ; pattern
G1 X107.1906 Y88.7868 E0.99008 F9000 ; pattern
G0 X107.7663 Y88.7868 F21000
G1 X128.9795 Y110 E0.99008 F9000 ; pattern
G1 X107.7663 Y131.2132 E0.99008 F9000 ; pattern
M572 S0.04 ; pattern 5/11
G1 E-0.7 F2700 ; retract
G0 Z0.6 F720
G0 X110.2163 Y88.7868 F21000
G0 Z0.4 F720
G1 E0.7 F1500 ; unretract
M73 P72 R1
M73 Q72 S2
G1 X131.4295 Y110 E0.99008 F9000 ; pattern
G1 X110.2163 Y131.2132 E0.99008 F9000 ; pattern
G0 X110.792 Y131.2132 F21000
G1 X132.0052 Y110 E0.99008 F9000 ; pattern
G1 X110.792 Y88.7868 E0.99008 F9000 ; pattern
G0 X111.3677 Y88.7868 F21000
G1 X132.5809 Y110 E0.99008 F9000 ; pattern
G1 X111.3677 Y131.2132 E0.99008 F9000 ; pattern
M572 S0.05 ; pattern 6/11
G1 E-0.7 F2700 ; retract
G0 Z0.6 F720
G0 X113.8177 Y88.7868 F21000
G0 Z0.4 F720
G1 E0.7 F1500 ; unretract
G1 X135.0309 Y110 E0.99008 F9000 ; pattern
G1 X113.8177 Y131.2132 E0.99008 F9000 ; pattern
G0 X114.3934 Y131.2132 F21000
M73 P74 R1
M73 Q74 S2
G1 X135.6066 Y110 E0.99008 F9000 ; pattern
G1 X114.3934 Y88.7868 E0.99008 F9000 ; pattern
G0 X114.9691 Y88.7868 F21000
G1 X136.1823 Y110 E0.99008 F9000 ; pattern
G1 X114.9691 Y131.2132 E0.99008 F9000 ; pattern
M572 S0.06 ; pattern 7/11
G1 E-0.7 F2700 ; retract
G0 Z0.6 F720
G0 X117.4191 Y88.7868 F21000
G0 Z0.4 F720
G1 E0.7 F1500 ; unretract
G1 X138.6323 Y110 E0.99008 F9000 ; pattern
G1 X117.4191 Y131.2132 E0.99008 F9000 ; pattern
G0 X117.9948 Y131.2132 F21000
G1 X139.208 Y110 E0.99008 F9000 ; pattern
G1 X117.9948 Y88.7868 E0.99008 F9000 ; pattern
G0 X118.5705 Y88.7868 F21000
M73 P76 R1
M73 Q76 S2
G1 X139.7837 Y110 E0.99008 F9000 ; pattern
G1 X118.5705 Y131.2132 E0.99008 F9000 ; pattern
M572 S0.07 ; pattern 8/11
G1 E-0.7 F2700 ; retract
G0 Z0.6 F720
G0 X121.0205 Y88.7868 F21000
G0 Z0.4 F720
G1 E0.7 F1500 ; unretract
G1 X142.2337 Y110 E0.99008 F9000 ; pattern
G1 X121.0205 Y131.2132 E0.99008 F9000 ; pattern
G0 X121.5962 Y131.2132 F21000
G1 X142.8094 Y110 E0.99008 F9000 ; pattern
G1 X121.5962 Y88.7868 E0.99008 F9000 ; pattern
G0 X122.1719 Y88.7868 F21000
G1 X143.3851 Y110 E0.99008 F9000 ; pattern
G1 X122.1719 Y131.2132 E0.99008 F9000 ; pattern
M572 S0.08 ; pattern 9/11
G1 E-0.7 F2700 ; retract
G0 Z0.6 F720
M73 P78 R1
M73 Q78 S2
G0 X124.6219 Y88.7868 F21000
G0 Z0.4 F720
G1 E0.7 F1500 ; unretract
G1 X145.8351 Y110 E0.99008 F9000 ; pattern
G1 X124.6219 Y131.2132 E0.99008 F9000 ; pattern
G0 X125.1976 Y131.2132 F21000
G1 X146.4108 Y110 E0.99008 F9000 ; pattern
G1 X125.1976 Y88.7868 E0.99008 F9000 ; pattern
G0 X125.7733 Y88.7868 F21000
G1 X146.9865 Y110 E0.99008 F9000 ; pattern
G1 X125.7733 Y131.2132 E0.99008 F9000 ; pattern
M572 S0.09 ; pattern 10/11
G1 E-0.7 F2700 ; retract
G0 Z0.6 F720
G0 X128.2233 Y88.7868 F21000
G0 Z0.4 F720
G1 E0.7 F1500 ; unretract
G1 X149.4365 Y110 E0.99008 F9000 ; pattern
M73 P80 R1
M73 Q80 S2
G1 X128.2233 Y131.2132 E0.99008 F9000 ; pattern
G0 X128.799 Y131.2132 F21000
G1 X150.0122 Y110 E0.99008 F9000 ; pattern
G1 X128.799 Y88.7868 E0.99008 F9000 ; pattern
G0 X129.3747 Y88.7868 F21000
G1 X150.5879 Y110 E0.99008 F9000 ; pattern
G1 X129.3747 Y131.2132 E0.99008 F9000 ; pattern
M572 S0.1 ; pattern 11/11
G1 E-0.7 F2700 ; retract
G0 Z0.6 F720
G0 X131.8247 Y88.7868 F21000
G0 Z0.4 F720
G1 E0.7 F1500 ; unretract
G1 X153.0379 Y110 E0.99008 F9000 ; pattern
G1 X131.8247 Y131.2132 E0.99008 F9000 ; pattern
G0 X132.4004 Y131.2132 F21000
G1 X153.6136 Y110 E0.99008 F9000 ; pattern
M73 P82 R1
M73 Q82 S2
G1 X132.4004 Y88.7868 E0.99008 F9000 ; pattern
G0 X132.9761 Y88.7868 F21000
G1 X154.1893 Y110 E0.99008 F9000 ; pattern
G1 X132.9761 Y131.2132 E0.99008 F9000 ; pattern
;LAYER_CHANGE
;Z:0.6
;HEIGHT:0.2
G0 Z0.6 F720
;TYPE:External perimeter
M572 S0 ; pattern 1/11
G1 E-0.7 F2700 ; retract
G0 Z0.8 F720
G0 X95.8107 Y88.7868 F21000
G0 Z0.6 F720
G1 E0.7 F1500 ; unretract
G1 X117.0239 Y110 E0.99008 F9000 ; pattern
G1 X95.8107 Y131.2132 E0.99008 F9000 ; pattern
G0 X96.3864 Y131.2132 F21000
G1 X117.5996 Y110 E0.99008 F9000 ; pattern
G1 X96.3864 Y88.7868 E0.99008 F9000 ; pattern
G0 X96.9621 Y88.7868 F21000
G1 X118.1753 Y110 E0.99008 F9000 ; pattern
M73 P84 R1
M73 Q84 S2
G1 X96.9621 Y131.2132 E0.99008 F9000 ; pattern
M572 S0.01 ; pattern 2/11
G1 E-0.7 F2700 ; retract
G0 Z0.8 F720
G0 X99.4121 Y88.7868 F21000
G0 Z0.6 F720
G1 E0.7 F1500 ; unretract
G1 X120.6253 Y110 E0.99008 F9000 ; pattern
G1 X99.4121 Y131.2132 E0.99008 F9000 ; pattern
G0 X99.9878 Y131.2132 F21000
G1 X121.201 Y110 E0.99008 F9000 ; pattern
G1 X99.9878 Y88.7868 E0.99008 F9000 ; pattern
G0 X100.5635 Y88.7868 F21000
G1 X121.7767 Y110 E0.99008 F9000 ; pattern
G1 X100.5635 Y131.2132 E0.99008 F9000 ; pattern
M572 S0.02 ; pattern 3/11
G1 E-0.7 F2700 ; retract
G0 Z0.8 F720
G0 X103.0135 Y88.7868 F21000
G0 Z0.6 F720
G1 E0.7 F1500 ; unretract
M73 P86 R1
M73 Q86 S2
G1 X124.2267 Y110 E0.99008 F9000 ; pattern
G1 X103.0135 Y131.2132 E0.99008 F9000 ; pattern
G0 X103.5892 Y131.2132 F21000
G1 X124.8024 Y110 E0.99008 F9000 ; pattern
G1 X103.5892 Y88.7868 E0.99008 F9000 ; pattern
G0 X104.1649 Y88.7868 F21000
G1 X125.3781 Y110 E0.99008 F9000 ; pattern
G1 X104.1649 Y131.2132 E0.99008 F9000 ; pattern
M572 S0.03 ; pattern 4/11
G1 E-0.7 F2700 ; retract
G0 Z0.8 F720
G0 X106.6149 Y88.7868 F21000
G0 Z0.6 F720
G1 E0.7 F1500 ; unretract
G1 X127.8281 Y110 E0.99008 F9000 ; pattern
G1 X106.6149 Y131.2132 E0.99008 F9000 ; pattern
G0 X107.1906 Y131.2132 F21000
M73 P88 R1
M73 Q88 S2
G1 X128.4038 Y110 E0.99008 F9000 ; pattern
G1 X107.1906 Y88.7868 E0.99008 F9000 ; pattern
G0 X107.7663 Y88.7868 F21000
G1 X128.9795 Y110 E0.99008 F9000 ; pattern
G1 X107.7663 Y131.2132 E0.99008 F9000 ; pattern
M572 S0.04 ; pattern 5/11
G1 E-0.7 F2700 ; retract
G0 Z0.8 F720
G0 X110.2163 Y88.7868 F21000
G0 Z0.6 F720
G1 E0.7 F1500 ; unretract
G1 X131.4295 Y110 E0.99008 F9000 ; pattern
G1 X110.2163 Y131.2132 E0.99008 F9000 ; pattern
G0 X110.792 Y131.2132 F21000
G1 X132.0052 Y110 E0.99008 F9000 ; pattern
G1 X110.792 Y88.7868 E0.99008 F9000 ; pattern
G0 X111.3677 Y88.7868 F21000
M73 P90 R1
M73 Q90 S2
G1 X132.5809 Y110 E0.99008 F9000 ; pattern
G1 X111.3677 Y131.2132 E0.99008 F9000 ; pattern
M572 S0.05 ; pattern 6/11
G1 E-0.7 F2700 ; retract
G0 Z0.8 F720
G0 X113.8177 Y88.7868 F21000
G0 Z0.6 F720
G1 E0.7 F1500 ; unretract
G1 X135.0309 Y110 E0.99008 F9000 ; pattern
G1 X113.8177 Y131.2132 E0.99008 F9000 ; pattern
G0 X114.3934 Y131.2132 F21000
G1 X135.6066 Y110 E0.99008 F9000 ; pattern
G1 X114.3934 Y88.7868 E0.99008 F9000 ; pattern
G0 X114.9691 Y88.7868 F21000
G1 X136.1823 Y110 E0.99008 F9000 ; pattern
G1 X114.9691 Y131.2132 E0.99008 F9000 ; pattern
M572 S0.06 ; pattern 7/11
G1 E-0.7 F2700 ; retract
G0 Z0.8 F720
M73 P92 R1
M73 Q92 S2
G0 X117.4191 Y88.7868 F21000
G0 Z0.6 F720
G1 E0.7 F1500 ; unretract
G1 X138.6323 Y110 E0.99008 F9000 ; pattern
G1 X117.4191 Y131.2132 E0.99008 F9000 ; pattern
G0 X117.9948 Y131.2132 F21000
G1 X139.208 Y110 E0.99008 F9000 ; pattern
G1 X117.9948 Y88.7868 E0.99008 F9000 ; pattern
G0 X118.5705 Y88.7868 F21000
G1 X139.7837 Y110 E0.99008 F9000 ; pattern
G1 X118.5705 Y131.2132 E0.99008 F9000 ; pattern
M572 S0.07 ; pattern 8/11
G1 E-0.7 F2700 ; retract
G0 Z0.8 F720
G0 X121.0205 Y88.7868 F21000
G0 Z0.6 F720
G1 E0.7 F1500 ; unretract
G1 X142.2337 Y110 E0.99008 F9000 ; pattern
M73 P94 R1
M73 Q94 S2
G1 X121.0205 Y131.2132 E0.99008 F9000 ; pattern
G0 X121.5962 Y131.2132 F21000
G1 X142.8094 Y110 E0.99008 F9000 ; pattern
G1 X121.5962 Y88.7868 E0.99008 F9000 ; pattern
G0 X122.1719 Y88.7868 F21000
G1 X143.3851 Y110 E0.99008 F9000 ; pattern
G1 X122.1719 Y131.2132 E0.99008 F9000 ; pattern
M572 S0.08 ; pattern 9/11
G1 E-0.7 F2700 ; retract
G0 Z0.8 F720
G0 X124.6219 Y88.7868 F21000
G0 Z0.6 F720
G1 E0.7 F1500 ; unretract
G1 X145.8351 Y110 E0.99008 F9000 ; pattern
G1 X124.6219 Y131.2132 E0.99008 F9000 ; pattern
G0 X125.1976 Y131.2132 F21000
G1 X146.4108 Y110 E0.99008 F9000 ; pattern
M73 P96 R1
M73 Q96 S2
G1 X125.1976 Y88.7868 E0.99008 F9000 ; pattern
G0 X125.7733 Y88.7868 F21000
G1 X146.9865 Y110 E0.99008 F9000 ; pattern
G1 X125.7733 Y131.2132 E0.99008 F9000 ; pattern
M572 S0.09 ; pattern 10/11
G1 E-0.7 F2700 ; retract
G0 Z0.8 F720
G0 X128.2233 Y88.7868 F21000
G0 Z0.6 F720
G1 E0.7 F1500 ; unretract
G1 X149.4365 Y110 E0.99008 F9000 ; pattern
G1 X128.2233 Y131.2132 E0.99008 F9000 ; pattern
G0 X128.799 Y131.2132 F21000
G1 X150.0122 Y110 E0.99008 F9000 ; pattern
G1 X128.799 Y88.7868 E0.99008 F9000 ; pattern
G0 X129.3747 Y88.7868 F21000
G1 X150.5879 Y110 E0.99008 F9000 ; pattern
M73 P98 R1
M73 Q98 S2
G1 X129.3747 Y131.2132 E0.99008 F9000 ; pattern
M572 S0.1 ; pattern 11/11
G1 E-0.7 F2700 ; retract
G0 Z0.8 F720
G0 X131.8247 Y88.7868 F21000
G0 Z0.6 F720
G1 E0.7 F1500 ; unretract
G1 X153.0379 Y110 E0.99008 F9000 ; pattern
G1 X131.8247 Y131.2132 E0.99008 F9000 ; pattern
G0 X132.4004 Y131.2132 F21000
G1 X153.6136 Y110 E0.99008 F9000 ; pattern
G1 X132.4004 Y88.7868 E0.99008 F9000 ; pattern
G0 X132.9761 Y88.7868 F21000
G1 X154.1893 Y110 E0.99008 F9000 ; pattern
G1 X132.9761 Y131.2132 E0.99008 F9000 ; pattern
M572 S0 ; back to start value
G1 E-0.7 F2700 ; retract
M73 P100 R0
M73 Q100 S0
G0 Z5.6 F720
M107 ; part fan off
M204 P7000 T7000 ; restore machine acceleration
M83 ; restore relative extrusion
G92 E0
; <<< print_calibration_tool pattern end
; Filament-specific end gcode
G1 Z59.4 F720
M104 S0
M140 S0
M141 S0
M107
G1 X242 Y211 F10200
G4
M572 S0
M84 X Y E
; max_layer_z = 58.4
M73 P100 R0
M73 Q100 S0

; filament used [mm] = 232.22
; filament used [cm3] = 0.56
; filament used [g] = 0.73
; filament cost = 0.01
; total filament used [g] = 0.73
; total filament cost = 0.01
; total filament used for wipe tower [g] = 0.00
; estimated printing time (normal mode) = 1m 55s
; estimated first layer printing time (normal mode) = 1m 15s
; estimated printing time (silent mode) = 2m 22s
; estimated first layer printing time (silent mode) = 1m 51s

; prusaslicer_config = begin
; arc_fitting = emit_center
; autoemit_temperature_commands = 1
; automatic_extrusion_widths = 0
; automatic_infill_combination = 0
; automatic_infill_combination_max_layer_height = 100%
; avoid_crossing_curled_overhangs = 0
; avoid_crossing_perimeters = 0
; avoid_crossing_perimeters_max_detour = 0
; bed_custom_model = 
; bed_custom_texture = 
; bed_shape = 0x0,250x0,250x220,0x220
; bed_temperature = 60
; bed_temperature_extruder = 0
; before_layer_gcode = ;BEFORE_LAYER_CHANGE\nG92 E0.0\n;[layer_z]\n{if layer_z > 150}\nM201 X{interpolate_table(layer_z, (0,7000), (150,7000), (200,4000), (270,2000))} Y{interpolate_table(layer_z, (0,7000), (150,7000), (200,4000), (270,2000))}\n{endif}\n
; between_objects_gcode = 
; binary_gcode = 1
; bottom_fill_pattern = monotonic
; bottom_solid_layers = 3
; bottom_solid_min_thickness = 0.5
; bridge_acceleration = 1500
; bridge_angle = 0
; bridge_fan_speed = 100
; bridge_flow_ratio = 1
; bridge_speed = 50
; brim_separation = 0.1
; brim_type = outer_only
; brim_width = 0
; chamber_minimal_temperature = 0
; chamber_temperature = 20
; color_change_gcode = M600\nG1 E0.3 F1500 ; prime after color change
; colorprint_heights = 
; compatible_printers_condition_cummulative = "printer_model=~/(COREONE|COREONEOAK|COREONEMMU3)/ and nozzle_diameter[0]==0.4 and nozzle_high_flow[0]";"printer_model=~/(COREONE|COREONEOAK|COREONEMMU3|COREONEL|COREONELMMU3)/ and nozzle_diameter[0]!=0.8 and nozzle_diameter[0]!=0.6 and nozzle_diameter[0]!=0.5 and nozzle_high_flow[0]"
; complete_objects = 0
; cooling = 1
; cooling_perimeter_transition_distance = 10
; cooling_slowdown_logic = consistent_surface
; cooling_tube_length = 20
; cooling_tube_retraction = 45
; custom_parameters_filament = ""
; custom_parameters_print = 
; custom_parameters_printer = 
; default_acceleration = 3000
; default_filament_profile = "Prusament PLA @COREONE HF0.4"
; default_print_profile = 0.20mm BALANCED @COREONE HF0.4
; deretract_speed = 25
; disable_fan_first_layers = 1
; dont_support_bridges = 0
; draft_shield = disabled
; duplicate_distance = 6
; elefant_foot_compensation = 0.2
; enable_dynamic_fan_speeds = 1
; enable_dynamic_overhang_speeds = 1
; end_filament_gcode = "; Filament-specific end gcode"
; end_gcode = {if layer_z < max_print_height}G1 Z{z_offset+min(max_layer_z+1, max_print_height)} F720 ; Move print head up{endif}\nM104 S0 ; turn off temperature\nM140 S0 ; turn off heatbed\nM141 S0 ; disable chamber control\nM107 ; turn off fan\nG1 X242 Y211 F10200 ; park\nG4 ; wait\nM572 S0 ; reset PA\nM84 X Y E ; disable motors\n; max_layer_z = [max_layer_z]
; ensure_vertical_shell_thickness = enabled
; external_perimeter_acceleration = 2500
; external_perimeter_extrusion_width = 0.45
; external_perimeter_speed = 200
; external_perimeters_first = 0
; extra_loading_move = -52
; extra_perimeters = 0
; extra_perimeters_on_overhangs = 0
; extruder_clearance_height = 33
; extruder_clearance_radius = 75
; extruder_colour = ""
; extruder_offset = 0x0
; extrusion_axis = E
; extrusion_multiplier = 0.975
; extrusion_width = 0.45
; fan_always_on = 1
; fan_below_layer_time = 40
; filament_abrasive = 0
; filament_colour = #FFFFFF
; filament_cooling_final_speed = 3.5
; filament_cooling_initial_speed = 10
; filament_cooling_moves = 2
; filament_cost = 19.56
; filament_density = 1.3
; filament_deretract_speed = nil
; filament_diameter = 1.75
; filament_flush_speed = 0
; filament_flush_volume = 0
; filament_infill_max_crossing_speed = 200
; filament_infill_max_speed = 0
; filament_load_time = 10.9
; filament_loading_speed = 10
; filament_loading_speed_start = 50
; filament_max_volumetric_speed = 22
; filament_minimal_purge_on_wipe_tower = 15
; filament_multitool_ramming = 0
; filament_multitool_ramming_flow = 10
; filament_multitool_ramming_volume = 10
; filament_notes = ""
; filament_purge_multiplier = 81.25%
; filament_ramming_parameters = "250 100 39.871 39.871| 0.05 39.9547 0.45 39.9547 0.95 39.9547 1.45 39.9547 1.95 39.9547 2.45 39.9547 2.95 39.9547 3.45 39.9547 3.95 39.9547 4.45 39.9547 4.95 39.9547"
; filament_retract_before_travel = nil
; filament_retract_before_wipe = nil
; filament_retract_layer_change = nil
; filament_retract_length = nil
; filament_retract_length_toolchange = nil
; filament_retract_lift = nil
; filament_retract_lift_above = nil
; filament_retract_lift_below = nil
; filament_retract_restart_extra = nil
; filament_retract_restart_extra_toolchange = nil
; filament_retract_speed = nil
; filament_seam_gap_distance = nil
; filament_settings_id = "PLA p - 3DJake - matte white - CHT 0.4"
; filament_shrinkage_compensation_xy = 0%
; filament_shrinkage_compensation_z = 0%
; filament_soluble = 0
; filament_spool_weight = 605
; filament_stamping_distance = 45
; filament_stamping_loading_speed = 29
; filament_toolchange_delay = 0
; filament_travel_lift_before_obstacle = nil
; filament_travel_max_lift = 0.6
; filament_travel_ramping_lift = 1
; filament_travel_slope = 1
; filament_type = PLA
; filament_unload_time = 8.9
; filament_unloading_speed = 40
; filament_unloading_speed_start = 30
; filament_vendor = Generic
; filament_wipe = nil
; fill_angle = 45
; fill_density = 40%
; fill_pattern = cubic
; first_layer_acceleration = 500
; first_layer_acceleration_over_raft = 0
; first_layer_bed_temperature = 61
; first_layer_extrusion_width = 0.5
; first_layer_height = 0.2
; first_layer_infill_speed = 100
; first_layer_speed = 45
; first_layer_speed_over_raft = 30
; first_layer_temperature = 225
; full_fan_speed_layer = 3
; fuzzy_skin = none
; fuzzy_skin_point_dist = 0.8
; fuzzy_skin_thickness = 0.3
; gap_fill_enabled = 1
; gap_fill_speed = 120
; gcode_comments = 0
; gcode_flavor = marlin2
; gcode_label_objects = firmware
; gcode_resolution = 0.008
; gcode_substitutions = 
; high_current_on_filament_swap = 0
; host_type = prusalink
; idle_temperature = 170
; infill_acceleration = 5000
; infill_anchor = 2
; infill_anchor_max = 12
; infill_every_layers = 1
; infill_extruder = 1
; infill_extrusion_width = 0.45
; infill_first = 0
; infill_overlap = 15%
; infill_speed = 150
; inherits_cummulative = "0.20mm BALANCED @COREONE HF0.4";"Generic PLA @COREONE HF0.4";"Prusa CORE One HF0.4 nozzle"
; interface_shells = 0
; interlocking_beam = 0
; interlocking_beam_layer_count = 2
; interlocking_beam_width = 0.8
; interlocking_boundary_avoidance = 2
; interlocking_depth = 2
; interlocking_orientation = 22.5
; ironing = 0
; ironing_flowrate = 15%
; ironing_spacing = 0.1
; ironing_speed = 15
; ironing_type = top
; layer_gcode = ;AFTER_LAYER_CHANGE\n;[layer_z]
; layer_height = 0.2
; machine_limits_usage = emit_to_gcode
; machine_max_acceleration_e = 5000,2500
; machine_max_acceleration_extruding = 7000,2500
; machine_max_acceleration_retracting = 2500,2500
; machine_max_acceleration_travel = 7000,2500
; machine_max_acceleration_x = 10000,2500
; machine_max_acceleration_y = 10000,2500
; machine_max_acceleration_z = 400,200
; machine_max_feedrate_e = 100,100
; machine_max_feedrate_x = 350,160
; machine_max_feedrate_y = 350,160
; machine_max_feedrate_z = 12,12
; machine_max_jerk_e = 10,10
; machine_max_jerk_x = 10,8
; machine_max_jerk_y = 10,8
; machine_max_jerk_z = 2,2
; machine_max_junction_deviation = 0,0
; machine_min_extruding_rate = 0,0
; machine_min_travel_rate = 0,0
; max_fan_speed = 100
; max_layer_height = 0.3
; max_print_height = 270
; max_print_speed = 300
; max_volumetric_extrusion_rate_slope_negative = 0
; max_volumetric_extrusion_rate_slope_positive = 0
; max_volumetric_speed = 0
; min_bead_width = 85%
; min_fan_speed = 85
; min_feature_size = 25%
; min_layer_height = 0.07
; min_print_speed = 20
; min_skirt_length = 4
; mmu_segmented_region_interlocking_depth = 0
; mmu_segmented_region_max_width = 0
; multimaterial_purging = 140
; notes = 
; nozzle_diameter = 0.4
; nozzle_high_flow = 1
; only_one_perimeter_first_layer = 0
; only_retract_when_crossing_perimeters = 0
; ooze_prevention = 0
; output_filename_format = {input_filename_base}_0.4n_{layer_height}mm_{printing_filament_types}_{printer_model}_{print_time}.gcode
; over_bridge_speed = 60%
; overhang_fan_speed_0 = 100
; overhang_fan_speed_1 = 100
; overhang_fan_speed_2 = 0
; overhang_fan_speed_3 = 0
; overhang_speed_0 = 15
; overhang_speed_1 = 25
; overhang_speed_2 = 50
; overhang_speed_3 = 70%
; overhangs = 1
; parking_pos_retraction = 84
; pause_print_gcode = M601
; perimeter_acceleration = 3000
; perimeter_extruder = 1
; perimeter_extrusion_width = 0.45
; perimeter_generator = arachne
; perimeter_speed = 150
; perimeters = 2
; physical_printer_settings_id = HatschiCoreOne
; post_process = 
; prefer_clockwise_movements = 0
; print_settings_id = 0.20mm BALANCED @COREONE HF0.4 - Copy
; printer_model = COREONE
; printer_notes = Don't remove the following keywords! These keywords are used in the "compatible printer" condition of the print and filament profiles to link the particular print and filament profiles to this printer profile.\nPRINTER_MODEL_COREONE\nPG\nNO_TEMPLATES
; printer_settings_id = CoreOne HF0.4
; printer_technology = FFF
; printer_variant = HF0.4
; printer_vendor = 
; raft_contact_distance = 0.15
; raft_expansion = 1.5
; raft_first_layer_density = 90%
; raft_first_layer_expansion = 3
; raft_layers = 0
; remaining_times = 1
; resolution = 0
; retract_before_travel = 1.5
; retract_before_wipe = 80%
; retract_layer_change = 1
; retract_length = 0.7
; retract_length_toolchange = 0
; retract_lift = 0.2
; retract_lift_above = 0
; retract_lift_below = 269
; retract_restart_extra = 0
; retract_restart_extra_toolchange = 0
; retract_speed = 45
; scarf_seam_entire_loop = 0
; scarf_seam_length = 20
; scarf_seam_max_segment_length = 1
; scarf_seam_on_inner_perimeters = 0
; scarf_seam_only_on_smooth = 1
; scarf_seam_placement = nowhere
; scarf_seam_start_height = 0%
; seam_gap_distance = 15%
; seam_position = aligned
; silent_mode = 1
; single_extruder_multi_material = 0
; single_extruder_multi_material_priming = 0
; skirt_distance = 6
; skirt_height = 1
; skirts = 0
; slice_closing_radius = 0.049
; slicing_mode = regular
; slowdown_below_layer_time = 0
; small_perimeter_speed = 170
; solid_infill_acceleration = 5000
; solid_infill_below_area = 0
; solid_infill_every_layers = 0
; solid_infill_extruder = 1
; solid_infill_extrusion_width = 0.45
; solid_infill_speed = 150
; spiral_vase = 0
; staggered_inner_seams = 0
; standby_temperature_delta = -5
; start_filament_gcode = "M572 S{if nozzle_diameter[filament_extruder_id]==0.4}0.03{elsif nozzle_diameter[filament_extruder_id]==0.5}0.022{elsif nozzle_diameter[filament_extruder_id]==0.6}0.019{elsif nozzle_diameter[filament_extruder_id]==0.8}0.013{elsif nozzle_diameter[filament_extruder_id]==0.25}0.1{elsif nozzle_diameter[filament_extruder_id]==0.3}0.07{else}0{endif} ; Filament gcode\n\n{if nozzle_diameter[filament_extruder_id]==0.4}{if layer_height==0.15}M572 S0.45{elsif layer_height==0.2}M572 S0.45{endif}{endif} ; custom Pressure Advance\n\nM142 S36 ; set heatbreak target temp"
; start_gcode = M17 ; enable steppers\nM862.1 P[nozzle_diameter] A{(filament_abrasive[0] ? 1 : 0)} F{(nozzle_high_flow[0] ? 1 : 0)} ; nozzle check\nM862.3 P "COREONE" ; printer model check\nM862.5 P2 ; g-code level check\nM862.6 P"Input shaper" ; FW feature check\nM115 U6.3.4+10511\n\nM555 X{(min(print_bed_max[0], first_layer_print_min[0] + 32) - 32)} Y{(max(0, first_layer_print_min[1]) - 4)} W{((min(print_bed_max[0], max(first_layer_print_min[0] + 32, first_layer_print_max[0])))) - ((min(print_bed_max[0], first_layer_print_min[0] + 32) - 32))} H{((first_layer_print_max[1])) - ((max(0, first_layer_print_min[1]) - 4))}\n\nG90 ; use absolute coordinates\nM83 ; extruder relative mode\n\n{if chamber_minimal_temperature[initial_tool]!=0}\nM140 S115 ; set bed temp for chamber heating\n{else}\nM140 S[first_layer_bed_temperature] ; set bed temp\n{endif}\n\nM109 R{((filament_notes[0]=~/.*MBL160.*/) ? 160 : (filament_notes[0]=~/.*HT_MBL10.*/) ? (first_layer_temperature[0] - 10) : (filament_type[0] == "PC" or filament_type[0] == "PA") ? (first_layer_temperature[0] - 25) : (filament_type[0] == "FLEX") ? 210 : 170)} ; wait for temp\n\nM84 E ; turn off E motor\n\nG28 ; home all without mesh bed level\n\n{if chamber_minimal_temperature[initial_tool]!=0}\n; Min chamber temp section\nM104 S{idle_temperature[initial_tool]} ; set idle temp\nG1 Z10 F720 ; set bed position\nG1 X242 Y-9 F4800 ; set print head position\nM191 S{chamber_minimal_temperature[initial_tool]} ; wait for minimal chamber temp\nM141 S{chamber_temperature[initial_tool]} ; set nominal chamber temp\nM107\nM140 S[first_layer_bed_temperature] ; set bed temp\n{else}\nM141 S{chamber_temperature[initial_tool]} ; set nominal chamber temp\n{endif}\n\n{if first_layer_bed_temperature[initial_tool]<=60}M106 S70{endif}\nG0 Z40 F10000\nM104 T{initial_tool} S{if is_nil(idle_temperature[initial_tool])}100{else}{idle_temperature[initial_tool]}{endif}\nM190 R[first_layer_bed_temperature] ; wait for bed temp\nM107\n\nG29 G ; absorb heat\n\nM109 R{((filament_notes[0]=~/.*MBL160.*/) ? 160 : (filament_notes[0]=~/.*HT_MBL10.*/) ? (first_layer_temperature[0] - 10) : (filament_type[0] == "PC" or filament_type[0] == "PA") ? (first_layer_temperature[0] - 25) : (filament_type[0] == "FLEX") ? 210 : 170)} ; wait for MBL temp\n\nM302 S155 ; lower cold extrusion limit to 155C\n\n{if filament_type[initial_tool]=="FLEX"}\nG1 E-4 F2400 ; retraction\n{else}\nG1 E-2 F2400 ; retraction\n{endif}\n\nM84 E ; turn off E motor\n\nG0 X41  Y-13 Z1.5 F20000;\nG0 X78 Y-18 Z1.5 F20000;\nG0 X41  Y-13 Z1.5 F20000;\nG0 X78 Y-18 Z1.5 F20000;\nG0 X41  Y-13 Z1.5 F20000;\nG0 X78 Y-18 Z1.5 F20000;\nG0 X41  Y-13 Z1.5 F20000;\nG0 X78 Y-18 Z1.5 F20000;\nG0 X41  Y-13 Z1.5 F20000;\nG0 X78 Y-18 Z1.5 F20000;\nG29 P9 X208 Y-2.5 W32 H4\n\n;\n; MBL\n;\nM84 E ; turn off E motor\nG29 P1 ; invalidate mbl & probe print area\nG29 P1 X150 Y0 W100 H20 C ; probe near purge place\nG29 P3.2 ; interpolate mbl probes\nG29 P3.13 ; extrapolate mbl outside probe area\nG29 A ; activate mbl\n\n; prepare for purge\nM104 S{first_layer_temperature[0]}\nG0 X249 Y-2.5 Z15 F4800 ; move away and ready for the purge\nM109 S{first_layer_temperature[0]}\n\nG92 E0\nM569 S0 E ; set spreadcycle mode for extruder\n\n;\n; Extrude purge line\n;\nG92 E0 ; reset extruder position\nG1 E{(filament_type[0] == "FLEX" ? 4 : 2)} F2400 ; deretraction after the initial one\nG0 E5 X235 Z0.2 F500 ; purge\nG0 X225 E4 F500 ; purge\nG0 X215 E4 F650 ; purge\nG0 X205 E4 F800 ; purge\nG0 X202 Z0.05 F8000 ; wipe, move close to the bed\nG0 X199 Z0.2 F8000 ; wipe, move quickly away from the bed\n\nG92 E0\nM221 S100 ; set flow to 100%
; support_material = 0
; support_material_angle = 0
; support_material_auto = 0
; support_material_bottom_contact_distance = 0
; support_material_bottom_interface_layers = 0
; support_material_buildplate_only = 0
; support_material_closing_radius = 2
; support_material_contact_distance = 0.2
; support_material_enforce_layers = 0
; support_material_extruder = 0
; support_material_extrusion_width = 0.4
; support_material_interface_contact_loops = 0
; support_material_interface_extruder = 0
; support_material_interface_layers = 3
; support_material_interface_pattern = auto
; support_material_interface_spacing = 0.2
; support_material_interface_speed = 50
; support_material_pattern = rectilinear
; support_material_spacing = 2
; support_material_speed = 120
; support_material_style = snug
; support_material_synchronize_layers = 0
; support_material_threshold = 35
; support_material_with_sheath = 0
; support_material_xy_spacing = 80%
; support_tree_angle = 40
; support_tree_angle_slow = 25
; support_tree_branch_diameter = 2
; support_tree_branch_diameter_angle = 5
; support_tree_branch_diameter_double_wall = 8
; support_tree_branch_distance = 1
; support_tree_tip_diameter = 0.8
; support_tree_top_rate = 30%
; temperature = 225
; template_custom_gcode = 
; thick_bridges = 0
; thin_walls = 0
; thumbnails = 16x16/QOI, 313x173/QOI, 480x240/QOI, 380x285/PNG
; thumbnails_format = PNG
; toolchange_gcode = 
; toolchange_ordering = optimized
; top_fill_pattern = monotoniclines
; top_infill_extrusion_width = 0.42
; top_one_perimeter_type = top
; top_solid_infill_acceleration = 2000
; top_solid_infill_speed = 100
; top_solid_layers = 5
; top_solid_min_thickness = 0.7
; travel_acceleration = 7000
; travel_lift_before_obstacle = 0
; travel_max_lift = 1.5
; travel_ramping_lift = 1
; travel_short_distance_acceleration = 250
; travel_slope = 1
; travel_speed = 350
; travel_speed_z = 12
; use_firmware_retraction = 0
; use_relative_e_distances = 1
; use_volumetric_e = 0
; variable_layer_height = 1
; wall_distribution_count = 1
; wall_transition_angle = 10
; wall_transition_filter_deviation = 25%
; wall_transition_length = 100%
; wipe = 0
; wipe_into_infill = 0
; wipe_into_objects = 0
; wipe_tower = 0
; wipe_tower_acceleration = 0
; wipe_tower_bridging = 10
; wipe_tower_brim_width = 2
; wipe_tower_cone_angle = 25
; wipe_tower_extra_flow = 250%
; wipe_tower_extra_spacing = 110%
; wipe_tower_extruder = 0
; wipe_tower_no_sparse_layers = 0
; wipe_tower_width = 60
; wiping_volumes_matrix = 0
; wiping_volumes_use_custom_matrix = 0
; xy_size_compensation = 0
; z_offset = 0
; prusaslicer_config = end


