; ============================================================
; Pressure Advance calibration pattern
; generated by Print Calibration Tool (Ellis-style chevron pattern)
; ============================================================
; bed = 250x250
; first_layer_height = 0.2
; layer_height = 0.2
; layers = 2
; anchor = layer
; print_numbers = 0
; pa_start = 0.02
; pa_end = 0.06
; pa_step = 0.01
; pa_values = 0.02,0.03,0.04,0.05,0.06
; relative_e = 0
; gcode_flavor = klipper
; extrusion_width = 0.45
; anchor_width = 0.56
; filament_diameter = 1.75
; extrusion_multiplier = 1
; acceleration_print = 3000
; acceleration_first_layer = 500
; acceleration_restore = 3000
; pattern_size = 44.43x46.09 mm
; pattern_origin = 102.78,101.96
; speed_pattern = 200 mm/s
; speed_first_layer = 45 mm/s
; estimated_time_s = 110
; filament_mm = 198.86
; ------------------------------------------------------------
; generated by PrusaSlicer 2.9.6 on 2026-08-17 at 13:52:10 UTC


;
;

;
;

;
;

;
;

;
;
; 

; external perimeters extrusion width = 0.45mm
; perimeters extrusion width = 0.45mm
; infill extrusion width = 0.45mm
; solid infill extrusion width = 0.45mm
; top infill extrusion width = 0.40mm

M73 P0 R2

EXCLUDE_OBJECT_DEFINE NAME='pa_calibration_test' CENTER=125,125 POLYGON=[[102.784,101.956],[147.216,101.956],[147.216,148.044],[102.784,148.044]]

M104 S0 ; Stops SuperSlicer from sending temp waits separately
M140 S0
M117
PRINT_START EXTRUDER=260 BED=100 CHAMBER=0 FILAMENT_TYPE=ABS NOZZLE_DIAMETER=0.4
G21 ; set units to millimeters
G90 ; use absolute coordinates
M82 ; use absolute distances for extrusion
G92 E0
; Filament gcode
;SET_PRESSURE_ADVANCE ADVANCE=0.035
M107
EXCLUDE_OBJECT_START NAME='pa_calibration_test'
; >>> print_calibration_tool pattern begin
G21 ; millimeters
G90 ; absolute positioning
M83 ; relative extrusion
G92 E0
M106 S0 ; fan
SET_VELOCITY_LIMIT ACCEL=500 ; acceleration for the test
G1 E-0.5 F2700 ; retract
G0 Z5 F3600
G0 X106.6149 Y103.7868 F27000
G0 Z0.2 F3600
SET_PRESSURE_ADVANCE ADVANCE=0.02 ; start value
SET_PRINT_STATS_INFO TOTAL_LAYER=2
;LAYER_CHANGE
;Z:0.2
;HEIGHT:0.2
SET_PRINT_STATS_INFO CURRENT_LAYER=1
; anchor layer
;TYPE:Solid infill
G0 Z0.4 F3600
G0 X103.0637 Y102.2356 F27000
G0 Z0.2 F3600
G1 E0.5 F2700 ; unretract
G1 X146.9363 Y102.2356 E1.88632 F2700 ; anchor
G1 X146.9363 Y147.7644 E1.95753 F2700 ; anchor
G1 X103.0637 Y147.7644 E1.88632 F2700 ; anchor
G1 X103.0637 Y102.2356 E1.95753 F2700 ; anchor
G0 X103.5808 Y102.7526 F27000
G1 X146.4192 Y102.7526 E1.84186 F2700 ; anchor
G1 X146.4192 Y147.2474 E1.91307 F2700 ; anchor
G1 X103.5808 Y147.2474 E1.84186 F2700 ; anchor
G1 X103.5808 Y102.7526 E1.91307 F2700 ; anchor
G0 X104.0978 Y103.2697 F27000
G1 X145.9022 Y103.2697 E1.79739 F2700 ; anchor
G1 X145.9022 Y146.7303 E1.8686 F2700 ; anchor
G1 X104.0978 Y146.7303 E1.79739 F2700 ; anchor
G1 X104.0978 Y103.2697 E1.8686 F2700 ; anchor
G0 X104.6149 Y103.7868 F27000
G1 X145.3851 Y103.7868 E1.75293 F2700 ; anchor
G1 X145.3851 Y146.2132 E1.82414 F2700 ; anchor
G1 X104.6149 Y146.2132 E1.75293 F2700 ; anchor
G1 X104.6149 Y103.7868 E1.82414 F2700 ; anchor
G1 E-0.5 F2700 ; retract
G0 Z0.4 F3600
G0 X144.2805 Y104.1601 F27000
G0 Z0.2 F3600
G1 E0.5 F2700 ; unretract
G1 X145.0118 Y104.8914 E0.04446 F2700 ; anchor
G0 X145.0118 Y105.6227 F27000
G1 X143.5492 Y104.1601 E0.08893 F2700 ; anchor
G0 X142.818 Y104.1601 F27000
G1 X145.0118 Y106.3539 E0.13339 F2700 ; anchor
G0 X145.0118 Y107.0852 F27000
G1 X142.0867 Y104.1601 E0.17786 F2700 ; anchor
G0 X141.3555 Y104.1601 F27000
G1 X145.0118 Y107.8164 E0.22232 F2700 ; anchor
G0 X145.0118 Y108.5477 F27000
G1 X140.6242 Y104.1601 E0.26678 F2700 ; anchor
G0 X139.8929 Y104.1601 F27000
G1 X145.0118 Y109.279 E0.31125 F2700 ; anchor
G0 X145.0118 Y110.0102 F27000
G1 X139.1617 Y104.1601 E0.35571 F2700 ; anchor
G0 X138.4304 Y104.1601 F27000
G1 X145.0118 Y110.7415 E0.40018 F2700 ; anchor
G0 X145.0118 Y111.4727 F27000
G1 X137.6991 Y104.1601 E0.44464 F2700 ; anchor
G0 X136.9679 Y104.1601 F27000
G1 X145.0118 Y112.204 E0.4891 F2700 ; anchor
G0 X145.0118 Y112.9353 F27000
G1 X136.2366 Y104.1601 E0.53357 F2700 ; anchor
G0 X135.5054 Y104.1601 F27000
G1 X145.0118 Y113.6665 E0.57803 F2700 ; anchor
G0 X145.0118 Y114.3978 F27000
G1 X134.7741 Y104.1601 E0.6225 F2700 ; anchor
G0 X134.0428 Y104.1601 F27000
G1 X145.0118 Y115.129 E0.66696 F2700 ; anchor
G0 X145.0118 Y115.8603 F27000
G1 X133.3116 Y104.1601 E0.71142 F2700 ; anchor
G0 X132.5803 Y104.1601 F27000
G1 X145.0118 Y116.5916 E0.75589 F2700 ; anchor
G0 X145.0118 Y117.3228 F27000
G1 X131.8491 Y104.1601 E0.80035 F2700 ; anchor
G0 X131.1178 Y104.1601 F27000
G1 X145.0118 Y118.0541 E0.84482 F2700 ; anchor
G0 X145.0118 Y118.7854 F27000
G1 X130.3865 Y104.1601 E0.88928 F2700 ; anchor
G0 X129.6553 Y104.1601 F27000
G1 X145.0118 Y119.5166 E0.93374 F2700 ; anchor
G0 X145.0118 Y120.2479 F27000
G1 X128.924 Y104.1601 E0.97821 F2700 ; anchor
G0 X128.1928 Y104.1601 F27000
G1 X145.0118 Y120.9791 E1.02267 F2700 ; anchor
G0 X145.0118 Y121.7104 F27000
G1 X127.4615 Y104.1601 E1.06714 F2700 ; anchor
G0 X126.7302 Y104.1601 F27000
G1 X145.0118 Y122.4417 E1.1116 F2700 ; anchor
G0 X145.0118 Y123.1729 F27000
G1 X125.999 Y104.1601 E1.15606 F2700 ; anchor
G0 X125.2677 Y104.1601 F27000
G1 X145.0118 Y123.9042 E1.20053 F2700 ; anchor
G0 X145.0118 Y124.6354 F27000
G1 X124.5364 Y104.1601 E1.24499 F2700 ; anchor
G0 X123.8052 Y104.1601 F27000
G1 X145.0118 Y125.3667 E1.28946 F2700 ; anchor
G0 X145.0118 Y126.098 F27000
G1 X123.0739 Y104.1601 E1.33392 F2700 ; anchor
G0 X122.3427 Y104.1601 F27000
G1 X145.0118 Y126.8292 E1.37839 F2700 ; anchor
G0 X145.0118 Y127.5605 F27000
G1 X121.6114 Y104.1601 E1.42285 F2700 ; anchor
G0 X120.8801 Y104.1601 F27000
G1 X145.0118 Y128.2917 E1.46731 F2700 ; anchor
G0 X145.0118 Y129.023 F27000
G1 X120.1489 Y104.1601 E1.51178 F2700 ; anchor
G0 X119.4176 Y104.1601 F27000
G1 X145.0118 Y129.7543 E1.55624 F2700 ; anchor
G0 X145.0118 Y130.4855 F27000
G1 X118.6864 Y104.1601 E1.60071 F2700 ; anchor
G0 X117.9551 Y104.1601 F27000
G1 X145.0118 Y131.2168 E1.64517 F2700 ; anchor
G0 X145.0118 Y131.948 F27000
G1 X117.2238 Y104.1601 E1.68963 F2700 ; anchor
G0 X116.4926 Y104.1601 F27000
G1 X145.0118 Y132.6793 E1.7341 F2700 ; anchor
G0 X145.0118 Y133.4106 F27000
G1 X115.7613 Y104.1601 E1.77856 F2700 ; anchor
G0 X115.0301 Y104.1601 F27000
G1 X145.0118 Y134.1418 E1.82303 F2700 ; anchor
G0 X145.0118 Y134.8731 F27000
G1 X114.2988 Y104.1601 E1.86749 F2700 ; anchor
G0 X113.5675 Y104.1601 F27000
G1 X145.0118 Y135.6044 E1.91195 F2700 ; anchor
G0 X145.0118 Y136.3356 F27000
G1 X112.8363 Y104.1601 E1.95642 F2700 ; anchor
G0 X112.105 Y104.1601 F27000
G1 X145.0118 Y137.0669 E2.00088 F2700 ; anchor
G0 X145.0118 Y137.7981 F27000
G1 X111.3737 Y104.1601 E2.04535 F2700 ; anchor
G0 X110.6425 Y104.1601 F27000
G1 X145.0118 Y138.5294 E2.08981 F2700 ; anchor
G0 X145.0118 Y139.2607 F27000
G1 X109.9112 Y104.1601 E2.13427 F2700 ; anchor
G0 X109.18 Y104.1601 F27000
G1 X145.0118 Y139.9919 E2.17874 F2700 ; anchor
G0 X145.0118 Y140.7232 F27000
G1 X108.4487 Y104.1601 E2.2232 F2700 ; anchor
G0 X107.7174 Y104.1601 F27000
G1 X145.0118 Y141.4544 E2.26767 F2700 ; anchor
G0 X145.0118 Y142.1857 F27000
G1 X106.9862 Y104.1601 E2.31213 F2700 ; anchor
G0 X106.2549 Y104.1601 F27000
G1 X145.0118 Y142.917 E2.35659 F2700 ; anchor
G0 X145.0118 Y143.6482 F27000
G1 X105.5237 Y104.1601 E2.40106 F2700 ; anchor
G0 X104.9882 Y104.356 F27000
G1 X145.0118 Y144.3795 E2.43361 F2700 ; anchor
G0 X145.0118 Y145.1107 F27000
G1 X104.9882 Y105.0872 E2.43361 F2700 ; anchor
G0 X104.9882 Y105.8185 F27000
G1 X145.0096 Y145.8399 E2.43348 F2700 ; anchor
G0 X144.2784 Y145.8399 F27000
G1 X104.9882 Y106.5498 E2.38902 F2700 ; anchor
G0 X104.9882 Y107.281 F27000
G1 X143.5471 Y145.8399 E2.34456 F2700 ; anchor
G0 X142.8158 Y145.8399 F27000
G1 X104.9882 Y108.0123 E2.30009 F2700 ; anchor
G0 X104.9882 Y108.7435 F27000
G1 X142.0846 Y145.8399 E2.25563 F2700 ; anchor
G0 X141.3533 Y145.8399 F27000
G1 X104.9882 Y109.4748 E2.21116 F2700 ; anchor
G0 X104.9882 Y110.2061 F27000
G1 X140.6221 Y145.8399 E2.1667 F2700 ; anchor
G0 X139.8908 Y145.8399 F27000
G1 X104.9882 Y110.9373 E2.12224 F2700 ; anchor
G0 X104.9882 Y111.6686 F27000
G1 X139.1595 Y145.8399 E2.07777 F2700 ; anchor
G0 X138.4283 Y145.8399 F27000
G1 X104.9882 Y112.3998 E2.03331 F2700 ; anchor
G0 X104.9882 Y113.1311 F27000
G1 X137.697 Y145.8399 E1.98884 F2700 ; anchor
G0 X136.9657 Y145.8399 F27000
G1 X104.9882 Y113.8624 E1.94438 F2700 ; anchor
G0 X104.9882 Y114.5936 F27000
G1 X136.2345 Y145.8399 E1.89992 F2700 ; anchor
G0 X135.5032 Y145.8399 F27000
G1 X104.9882 Y115.3249 E1.85545 F2700 ; anchor
G0 X104.9882 Y116.0562 F27000
G1 X134.772 Y145.8399 E1.81099 F2700 ; anchor
G0 X134.0407 Y145.8399 F27000
G1 X104.9882 Y116.7874 E1.76652 F2700 ; anchor
G0 X104.9882 Y117.5187 F27000
G1 X133.3094 Y145.8399 E1.72206 F2700 ; anchor
G0 X132.5782 Y145.8399 F27000
G1 X104.9882 Y118.2499 E1.6776 F2700 ; anchor
G0 X104.9882 Y118.9812 F27000
G1 X131.8469 Y145.8399 E1.63313 F2700 ; anchor
G0 X131.1157 Y145.8399 F27000
G1 X104.9882 Y119.7125 E1.58867 F2700 ; anchor
G0 X104.9882 Y120.4437 F27000
G1 X130.3844 Y145.8399 E1.5442 F2700 ; anchor
G0 X129.6531 Y145.8399 F27000
G1 X104.9882 Y121.175 E1.49974 F2700 ; anchor
G0 X104.9882 Y121.9062 F27000
G1 X128.9219 Y145.8399 E1.45527 F2700 ; anchor
G0 X128.1906 Y145.8399 F27000
G1 X104.9882 Y122.6375 E1.41081 F2700 ; anchor
G0 X104.9882 Y123.3688 F27000
G1 X127.4594 Y145.8399 E1.36635 F2700 ; anchor
G0 X126.7281 Y145.8399 F27000
G1 X104.9882 Y124.1 E1.32188 F2700 ; anchor
G0 X104.9882 Y124.8313 F27000
G1 X125.9968 Y145.8399 E1.27742 F2700 ; anchor
G0 X125.2656 Y145.8399 F27000
G1 X104.9882 Y125.5625 E1.23295 F2700 ; anchor
G0 X104.9882 Y126.2938 F27000
G1 X124.5343 Y145.8399 E1.18849 F2700 ; anchor
G0 X123.803 Y145.8399 F27000
G1 X104.9882 Y127.0251 E1.14403 F2700 ; anchor
G0 X104.9882 Y127.7563 F27000
G1 X123.0718 Y145.8399 E1.09956 F2700 ; anchor
G0 X122.3405 Y145.8399 F27000
G1 X104.9882 Y128.4876 E1.0551 F2700 ; anchor
G0 X104.9882 Y129.2188 F27000
G1 X121.6093 Y145.8399 E1.01063 F2700 ; anchor
G0 X120.878 Y145.8399 F27000
G1 X104.9882 Y129.9501 E0.96617 F2700 ; anchor
G0 X104.9882 Y130.6814 F27000
G1 X120.1467 Y145.8399 E0.92171 F2700 ; anchor
G0 X119.4155 Y145.8399 F27000
G1 X104.9882 Y131.4126 E0.87724 F2700 ; anchor
G0 X104.9882 Y132.1439 F27000
G1 X118.6842 Y145.8399 E0.83278 F2700 ; anchor
G0 X117.953 Y145.8399 F27000
G1 X104.9882 Y132.8752 E0.78831 F2700 ; anchor
G0 X104.9882 Y133.6064 F27000
G1 X117.2217 Y145.8399 E0.74385 F2700 ; anchor
G0 X116.4904 Y145.8399 F27000
G1 X104.9882 Y134.3377 E0.69939 F2700 ; anchor
G0 X104.9882 Y135.0689 F27000
G1 X115.7592 Y145.8399 E0.65492 F2700 ; anchor
G0 X115.0279 Y145.8399 F27000
G1 X104.9882 Y135.8002 E0.61046 F2700 ; anchor
G0 X104.9882 Y136.5315 F27000
G1 X114.2967 Y145.8399 E0.56599 F2700 ; anchor
G0 X113.5654 Y145.8399 F27000
G1 X104.9882 Y137.2627 E0.52153 F2700 ; anchor
G0 X104.9882 Y137.994 F27000
G1 X112.8341 Y145.8399 E0.47707 F2700 ; anchor
G0 X112.1029 Y145.8399 F27000
G1 X104.9882 Y138.7252 E0.4326 F2700 ; anchor
G0 X104.9882 Y139.4565 F27000
G1 X111.3716 Y145.8399 E0.38814 F2700 ; anchor
G0 X110.6403 Y145.8399 F27000
G1 X104.9882 Y140.1878 E0.34367 F2700 ; anchor
G0 X104.9882 Y140.919 F27000
G1 X109.9091 Y145.8399 E0.29921 F2700 ; anchor
G0 X109.1778 Y145.8399 F27000
G1 X104.9882 Y141.6503 E0.25475 F2700 ; anchor
G0 X104.9882 Y142.3815 F27000
G1 X108.4466 Y145.8399 E0.21028 F2700 ; anchor
G0 X107.7153 Y145.8399 F27000
G1 X104.9882 Y143.1128 E0.16582 F2700 ; anchor
G0 X104.9882 Y143.8441 F27000
G1 X106.984 Y145.8399 E0.12135 F2700 ; anchor
G0 X106.2528 Y145.8399 F27000
G1 X104.9882 Y144.5753 E0.07689 F2700 ; anchor
G0 X104.9882 Y145.3066 F27000
G1 X105.5215 Y145.8399 E0.03243 F2700 ; anchor
;LAYER_CHANGE
;Z:0.4
;HEIGHT:0.2
SET_PRINT_STATS_INFO CURRENT_LAYER=2
G0 Z0.4 F3600
SET_VELOCITY_LIMIT ACCEL=3000 ; print acceleration
;TYPE:External perimeter
SET_PRESSURE_ADVANCE ADVANCE=0.02 ; pattern 1/5
G1 E-0.5 F2700 ; retract
G0 Z0.6 F3600
G0 X106.6149 Y103.7868 F27000
G0 Z0.4 F3600
G1 E0.5 F2700 ; unretract
G1 X127.8281 Y125 E1.01546 F12000 ; pattern
G1 X106.6149 Y146.2132 E1.01546 F12000 ; pattern
G0 X107.1906 Y146.2132 F27000
G1 X128.4038 Y125 E1.01546 F12000 ; pattern
G1 X107.1906 Y103.7868 E1.01546 F12000 ; pattern
G0 X107.7663 Y103.7868 F27000
G1 X128.9795 Y125 E1.01546 F12000 ; pattern
G1 X107.7663 Y146.2132 E1.01546 F12000 ; pattern
SET_PRESSURE_ADVANCE ADVANCE=0.03 ; pattern 2/5
G1 E-0.5 F2700 ; retract
G0 Z0.6 F3600
G0 X110.2163 Y103.7868 F27000
G0 Z0.4 F3600
G1 E0.5 F2700 ; unretract
G1 X131.4295 Y125 E1.01546 F12000 ; pattern
G1 X110.2163 Y146.2132 E1.01546 F12000 ; pattern
G0 X110.792 Y146.2132 F27000
G1 X132.0052 Y125 E1.01546 F12000 ; pattern
G1 X110.792 Y103.7868 E1.01546 F12000 ; pattern
G0 X111.3677 Y103.7868 F27000
G1 X132.5809 Y125 E1.01546 F12000 ; pattern
G1 X111.3677 Y146.2132 E1.01546 F12000 ; pattern
SET_PRESSURE_ADVANCE ADVANCE=0.04 ; pattern 3/5
G1 E-0.5 F2700 ; retract
G0 Z0.6 F3600
G0 X113.8177 Y103.7868 F27000
G0 Z0.4 F3600
G1 E0.5 F2700 ; unretract
G1 X135.0309 Y125 E1.01546 F12000 ; pattern
G1 X113.8177 Y146.2132 E1.01546 F12000 ; pattern
G0 X114.3934 Y146.2132 F27000
G1 X135.6066 Y125 E1.01546 F12000 ; pattern
G1 X114.3934 Y103.7868 E1.01546 F12000 ; pattern
G0 X114.9691 Y103.7868 F27000
G1 X136.1823 Y125 E1.01546 F12000 ; pattern
G1 X114.9691 Y146.2132 E1.01546 F12000 ; pattern
SET_PRESSURE_ADVANCE ADVANCE=0.05 ; pattern 4/5
G1 E-0.5 F2700 ; retract
G0 Z0.6 F3600
G0 X117.4191 Y103.7868 F27000
G0 Z0.4 F3600
G1 E0.5 F2700 ; unretract
G1 X138.6323 Y125 E1.01546 F12000 ; pattern
G1 X117.4191 Y146.2132 E1.01546 F12000 ; pattern
G0 X117.9948 Y146.2132 F27000
G1 X139.208 Y125 E1.01546 F12000 ; pattern
G1 X117.9948 Y103.7868 E1.01546 F12000 ; pattern
G0 X118.5705 Y103.7868 F27000
G1 X139.7837 Y125 E1.01546 F12000 ; pattern
G1 X118.5705 Y146.2132 E1.01546 F12000 ; pattern
SET_PRESSURE_ADVANCE ADVANCE=0.06 ; pattern 5/5
G1 E-0.5 F2700 ; retract
G0 Z0.6 F3600
G0 X121.0205 Y103.7868 F27000
G0 Z0.4 F3600
G1 E0.5 F2700 ; unretract
G1 X142.2337 Y125 E1.01546 F12000 ; pattern
G1 X121.0205 Y146.2132 E1.01546 F12000 ; pattern
G0 X121.5962 Y146.2132 F27000
G1 X142.8094 Y125 E1.01546 F12000 ; pattern
G1 X121.5962 Y103.7868 E1.01546 F12000 ; pattern
G0 X122.1719 Y103.7868 F27000
G1 X143.3851 Y125 E1.01546 F12000 ; pattern
G1 X122.1719 Y146.2132 E1.01546 F12000 ; pattern
SET_PRESSURE_ADVANCE ADVANCE=0.02 ; back to start value
G1 E-0.5 F2700 ; retract
G0 Z5.4 F3600
M107 ; part fan off
M82 ; restore absolute extrusion
G92 E0
; <<< print_calibration_tool pattern end
EXCLUDE_OBJECT_END NAME='pa_calibration_test'
; Filament-specific end gcode
PRINT_END ;end script from macro
M73 P100 R0
; objects_info = {"objects":[{"name":"pa_calibration_test","polygon":[[102.784,101.956],[147.216,101.956],[147.216,148.044],[102.784,148.044]]}]}
; filament used [mm] = 198.86
; filament used [cm3] = 0.48
; filament used [g] = 0.50
; filament cost = 0.01
; total filament used [g] = 0.50
; total filament cost = 0.01
; total filament used for wipe tower [g] = 0.00
; estimated printing time (normal mode) = 1m 50s
; estimated first layer printing time (normal mode) = 1m 42s

; prusaslicer_config = begin
; arc_fitting = disabled
; autoemit_temperature_commands = 1
; automatic_extrusion_widths = 1
; automatic_infill_combination = 0
; automatic_infill_combination_max_layer_height = 100%
; avoid_crossing_curled_overhangs = 0
; avoid_crossing_perimeters = 0
; avoid_crossing_perimeters_max_detour = 0
; bed_custom_model = C:\\Users\\Michael\\AppData\\Roaming\\PrusaSlicer\\printer\\printbed-v1-250.stl
; bed_custom_texture = C:\\Users\\Michael\\AppData\\Roaming\\PrusaSlicer\\printer\\bedtexture-v1-250.png
; bed_shape = 0x0,250x0,250x250,0x250
; bed_temperature = 100
; bed_temperature_extruder = 0
; before_layer_gcode = ;[layer_z]\n;TIMELAPSE_TAKE_FRAME
; between_objects_gcode = 
; binary_gcode = 0
; bottom_fill_pattern = monotonic
; bottom_solid_layers = 3
; bottom_solid_min_thickness = 0.5
; bridge_acceleration = 1500
; bridge_angle = 0
; bridge_fan_speed = 25
; bridge_flow_ratio = 1
; bridge_speed = 50
; brim_separation = 0.1
; brim_type = outer_only
; brim_width = 0
; chamber_minimal_temperature = 0
; chamber_temperature = 0
; color_change_gcode = M600\nG1 E0.3 F1500 ; prime after color change
; colorprint_heights = 
; compatible_printers_condition_cummulative = ;"printer_notes!~/.*NO_TEMPLATES.*/ and printer_notes!~/.*PRINTER_VENDOR_TRILAB.*/ and printer_notes!~/.*PRINTER_MODEL_MK4IS.*/ and ! (printer_notes=~/.*PRINTER_VENDOR_PRUSA3D.*/ and num_extruders>1)"
; complete_objects = 0
; cooling = 1
; cooling_perimeter_transition_distance = 0
; cooling_slowdown_logic = uniform_cooling
; cooling_tube_length = 5
; cooling_tube_retraction = 91.5
; custom_parameters_filament = ""
; custom_parameters_print = 
; custom_parameters_printer = 
; default_acceleration = 3000
; default_filament_profile = 
; default_print_profile = 
; deretract_speed = 0
; disable_fan_first_layers = 4
; dont_support_bridges = 0
; draft_shield = disabled
; duplicate_distance = 6
; elefant_foot_compensation = 0.2
; enable_dynamic_fan_speeds = 1
; enable_dynamic_overhang_speeds = 1
; end_filament_gcode = "; Filament-specific end gcode"
; end_gcode = PRINT_END ;end script from macro
; ensure_vertical_shell_thickness = enabled
; external_perimeter_acceleration = 2500
; external_perimeter_extrusion_width = 0
; external_perimeter_speed = 150
; external_perimeters_first = 0
; extra_loading_move = -2
; extra_perimeters = 0
; extra_perimeters_on_overhangs = 0
; extruder_clearance_height = 33
; extruder_clearance_radius = 75
; extruder_colour = ""
; extruder_offset = 0x0
; extrusion_axis = E
; extrusion_multiplier = 1
; extrusion_width = 0
; fan_always_on = 0
; fan_below_layer_time = 30
; filament_abrasive = 0
; filament_colour = #FFFFFF
; filament_cooling_final_speed = 2
; filament_cooling_initial_speed = 3
; filament_cooling_moves = 1
; filament_cost = 27.82
; filament_density = 1.04
; filament_deretract_speed = nil
; filament_diameter = 1.75
; filament_flush_speed = 0
; filament_flush_volume = 0
; filament_infill_max_crossing_speed = 0
; filament_infill_max_speed = 0
; filament_load_time = 0
; filament_loading_speed = 14
; filament_loading_speed_start = 19
; filament_max_volumetric_speed = 22
; filament_minimal_purge_on_wipe_tower = 0
; filament_multitool_ramming = 0
; filament_multitool_ramming_flow = 10
; filament_multitool_ramming_volume = 10
; filament_notes = ""
; filament_purge_multiplier = 100%
; filament_ramming_parameters = "120 100 5.70968 6.03226 7 8.25806 9 9.19355 9.3871 9.77419 10.129 10.3226 10.4516 10.5161| 0.05 5.69677 0.45 6.15484 0.95 8.76774 1.45 9.20323 1.95 9.95806 2.45 10.3871 2.95 10.5677 3.45 7.6 3.95 7.6 4.45 7.6 4.95 7.6"
; filament_retract_before_travel = nil
; filament_retract_before_wipe = nil
; filament_retract_layer_change = nil
; filament_retract_length = nil
; filament_retract_length_toolchange = nil
; filament_retract_lift = nil
; filament_retract_lift_above = nil
; filament_retract_lift_below = nil
; filament_retract_restart_extra = nil
; filament_retract_restart_extra_toolchange = nil
; filament_retract_speed = nil
; filament_seam_gap_distance = nil
; filament_settings_id = "ABS v - TitanX - white - CHT 0.4"
; filament_shrinkage_compensation_xy = 0%
; filament_shrinkage_compensation_z = 0%
; filament_soluble = 0
; filament_spool_weight = 0
; filament_stamping_distance = 0
; filament_stamping_loading_speed = 20
; filament_toolchange_delay = 0
; filament_travel_lift_before_obstacle = nil
; filament_travel_max_lift = nil
; filament_travel_ramping_lift = nil
; filament_travel_slope = nil
; filament_type = ABS
; filament_unload_time = 0
; filament_unloading_speed = 20
; filament_unloading_speed_start = 100
; filament_vendor = Generic
; filament_wipe = nil
; fill_angle = 45
; fill_density = 40%
; fill_pattern = cubic
; first_layer_acceleration = 500
; first_layer_acceleration_over_raft = 0
; first_layer_bed_temperature = 100
; first_layer_extrusion_width = 0
; first_layer_height = 0.2
; first_layer_infill_speed = 100
; first_layer_speed = 45
; first_layer_speed_over_raft = 30
; first_layer_temperature = 260
; full_fan_speed_layer = 0
; fuzzy_skin = none
; fuzzy_skin_point_dist = 0.8
; fuzzy_skin_thickness = 0.3
; gap_fill_enabled = 1
; gap_fill_speed = 120
; gcode_comments = 0
; gcode_flavor = klipper
; gcode_label_objects = firmware
; gcode_resolution = 0.008
; gcode_substitutions = 
; high_current_on_filament_swap = 0
; host_type = prusalink
; idle_temperature = nil
; infill_acceleration = 5000
; infill_anchor = 2
; infill_anchor_max = 12
; infill_every_layers = 1
; infill_extruder = 1
; infill_extrusion_width = 0
; infill_first = 0
; infill_overlap = 15%
; infill_speed = 250
; inherits_cummulative = ;"Generic ABS @Template";
; interface_shells = 0
; interlocking_beam = 0
; interlocking_beam_layer_count = 2
; interlocking_beam_width = 0.8
; interlocking_boundary_avoidance = 2
; interlocking_depth = 2
; interlocking_orientation = 22.5
; ironing = 0
; ironing_flowrate = 15%
; ironing_spacing = 0.1
; ironing_speed = 15
; ironing_type = top
; layer_gcode = ;AFTER_LAYER_CHANGE\n;[layer_z]
; layer_height = 0.2
; machine_limits_usage = time_estimate_only
; machine_max_acceleration_e = 4500,2000
; machine_max_acceleration_extruding = 3000,1500
; machine_max_acceleration_retracting = 3000,1500
; machine_max_acceleration_travel = 1500,1250
; machine_max_acceleration_x = 6500,3000
; machine_max_acceleration_y = 6500,3000
; machine_max_acceleration_z = 2500,1500
; machine_max_feedrate_e = 120,120
; machine_max_feedrate_x = 450,300
; machine_max_feedrate_y = 450,300
; machine_max_feedrate_z = 80,40
; machine_max_jerk_e = 10,10
; machine_max_jerk_x = 10,8
; machine_max_jerk_y = 10,8
; machine_max_jerk_z = 2,2
; machine_max_junction_deviation = 0,0
; machine_min_extruding_rate = 0,0
; machine_min_travel_rate = 0,0
; max_fan_speed = 15
; max_layer_height = 0.3
; max_print_height = 210
; max_print_speed = 300
; max_volumetric_extrusion_rate_slope_negative = 0
; max_volumetric_extrusion_rate_slope_positive = 0
; max_volumetric_speed = 0
; min_bead_width = 85%
; min_fan_speed = 15
; min_feature_size = 25%
; min_layer_height = 0.1
; min_print_speed = 15
; min_skirt_length = 4
; mmu_segmented_region_interlocking_depth = 0
; mmu_segmented_region_max_width = 0
; multimaterial_purging = 140
; notes = 
; nozzle_diameter = 0.4
; nozzle_high_flow = 1
; only_one_perimeter_first_layer = 0
; only_retract_when_crossing_perimeters = 0
; ooze_prevention = 0
; output_filename_format = {input_filename_base}_{nozzle_diameter[0]}n_{layer_height}mm_{printing_filament_types}_{printer_model}_{print_time}.gcode
; over_bridge_speed = 0
; overhang_fan_speed_0 = 15
; overhang_fan_speed_1 = 15
; overhang_fan_speed_2 = 30
; overhang_fan_speed_3 = 60
; overhang_speed_0 = 15
; overhang_speed_1 = 25
; overhang_speed_2 = 50
; overhang_speed_3 = 70%
; overhangs = 1
; parking_pos_retraction = 92
; pause_print_gcode = PAUSE
; perimeter_acceleration = 3000
; perimeter_extruder = 1
; perimeter_extrusion_width = 0
; perimeter_generator = arachne
; perimeter_speed = 200
; perimeters = 3
; physical_printer_settings_id = JokeLedgeVoron
; post_process = 
; prefer_clockwise_movements = 0
; print_settings_id = 0.20mm BALANCED
; printer_model = 
; printer_notes = 
; printer_settings_id = Voron 0.4mm CHT
; printer_technology = FFF
; printer_variant = 
; printer_vendor = 
; raft_contact_distance = 0.15
; raft_expansion = 1.5
; raft_first_layer_density = 90%
; raft_first_layer_expansion = 3
; raft_layers = 0
; remaining_times = 1
; resolution = 0
; retract_before_travel = 1.5
; retract_before_wipe = 80%
; retract_layer_change = 1
; retract_length = 0.5
; retract_length_toolchange = 10
; retract_lift = 0.2
; retract_lift_above = 0
; retract_lift_below = 190
; retract_restart_extra = 0
; retract_restart_extra_toolchange = 0
; retract_speed = 45
; scarf_seam_entire_loop = 0
; scarf_seam_length = 20
; scarf_seam_max_segment_length = 1
; scarf_seam_on_inner_perimeters = 0
; scarf_seam_only_on_smooth = 1
; scarf_seam_placement = nowhere
; scarf_seam_start_height = 0%
; seam_gap_distance = 15%
; seam_position = aligned
; silent_mode = 1
; single_extruder_multi_material = 0
; single_extruder_multi_material_priming = 0
; skirt_distance = 6
; skirt_height = 1
; skirts = 0
; slice_closing_radius = 0.049
; slicing_mode = regular
; slowdown_below_layer_time = 20
; small_perimeter_speed = 150
; solid_infill_acceleration = 5000
; solid_infill_below_area = 0
; solid_infill_every_layers = 0
; solid_infill_extruder = 1
; solid_infill_extrusion_width = 0
; solid_infill_speed = 150
; spiral_vase = 0
; staggered_inner_seams = 0
; standby_temperature_delta = -5
; start_filament_gcode = "; Filament gcode\n;SET_PRESSURE_ADVANCE ADVANCE=0.035"
; start_gcode = M104 S0 ; Stops SuperSlicer from sending temp waits separately\nM140 S0\nM117\nPRINT_START EXTRUDER={first_layer_temperature[initial_extruder]} BED=[first_layer_bed_temperature] CHAMBER=[chamber_temperature] FILAMENT_TYPE=[filament_type] NOZZLE_DIAMETER={nozzle_diameter[0]}\n
; support_material = 0
; support_material_angle = 0
; support_material_auto = 1
; support_material_bottom_contact_distance = 0.2
; support_material_bottom_interface_layers = 0
; support_material_buildplate_only = 0
; support_material_closing_radius = 2
; support_material_contact_distance = 0.2
; support_material_enforce_layers = 0
; support_material_extruder = 0
; support_material_extrusion_width = 0
; support_material_interface_contact_loops = 0
; support_material_interface_extruder = 0
; support_material_interface_layers = 3
; support_material_interface_pattern = auto
; support_material_interface_spacing = 0
; support_material_interface_speed = 50
; support_material_pattern = rectilinear
; support_material_spacing = 2.5
; support_material_speed = 60
; support_material_style = grid
; support_material_synchronize_layers = 0
; support_material_threshold = 0
; support_material_with_sheath = 1
; support_material_xy_spacing = 50%
; support_tree_angle = 40
; support_tree_angle_slow = 25
; support_tree_branch_diameter = 2
; support_tree_branch_diameter_angle = 5
; support_tree_branch_diameter_double_wall = 3
; support_tree_branch_distance = 1
; support_tree_tip_diameter = 0.8
; support_tree_top_rate = 15%
; temperature = 260
; template_custom_gcode = 
; thick_bridges = 0
; thin_walls = 0
; thumbnails = 16x16/QOI, 313x173/QOI, 480x240/QOI, 32x32/PNG, 380x285/PNG
; thumbnails_format = QOI
; toolchange_gcode = 
; toolchange_ordering = optimized
; top_fill_pattern = monotoniclines
; top_infill_extrusion_width = 0
; top_one_perimeter_type = top
; top_solid_infill_acceleration = 2000
; top_solid_infill_speed = 100
; top_solid_layers = 5
; top_solid_min_thickness = 0.7
; travel_acceleration = 7000
; travel_lift_before_obstacle = 0
; travel_max_lift = 1.5
; travel_ramping_lift = 1
; travel_short_distance_acceleration = 250
; travel_slope = 1
; travel_speed = 450
; travel_speed_z = 60
; use_firmware_retraction = 0
; use_relative_e_distances = 0
; use_volumetric_e = 0
; variable_layer_height = 1
; wall_distribution_count = 1
; wall_transition_angle = 10
; wall_transition_filter_deviation = 25%
; wall_transition_length = 100%
; wipe = 0
; wipe_into_infill = 0
; wipe_into_objects = 0
; wipe_tower = 0
; wipe_tower_acceleration = 0
; wipe_tower_bridging = 10
; wipe_tower_brim_width = 2
; wipe_tower_cone_angle = 25
; wipe_tower_extra_flow = 250%
; wipe_tower_extra_spacing = 110%
; wipe_tower_extruder = 0
; wipe_tower_no_sparse_layers = 0
; wipe_tower_width = 60
; wiping_volumes_matrix = 0
; wiping_volumes_use_custom_matrix = 0
; xy_size_compensation = 0
; z_offset = 0
; prusaslicer_config = end

