; ============================================================
; Pressure Advance calibration pattern
; generated by Print Calibration Tool (Ellis-style chevron pattern)
; ============================================================
; bed = 250x250
; first_layer_height = 0.2
; layer_height = 0.2
; layers = 5
; anchor = frame
; print_numbers = 1
; pa_start = 0
; pa_end = 0.08
; pa_step = 0.005
; pa_values = 0,0.005,0.01,0.015,0.02,0.025,0.03,0.035,0.04,0.045,0.05,0.055,0.06,0.065,0.07,0.075,0.08
; relative_e = 0
; gcode_flavor = klipper
; extrusion_width = 0.45
; anchor_width = 0.56
; filament_diameter = 1.75
; extrusion_multiplier = 1
; acceleration_print = 3000
; acceleration_first_layer = 500
; acceleration_restore = 3000
; pattern_size = 87.65x61.55 mm
; pattern_origin = 81.18,94.23
; speed_pattern = 200 mm/s
; speed_first_layer = 45 mm/s
; estimated_time_s = 302
; filament_mm = 683.61
; ------------------------------------------------------------
; generated by PrusaSlicer 2.9.6 on 2026-08-17 at 13:52:10 UTC


;
;

;
;

;
;

;
;

;
;
; 

; external perimeters extrusion width = 0.45mm
; perimeters extrusion width = 0.45mm
; infill extrusion width = 0.45mm
; solid infill extrusion width = 0.45mm
; top infill extrusion width = 0.40mm

M73 P0 R5

EXCLUDE_OBJECT_DEFINE NAME='pa_calibration_test' CENTER=125,125 POLYGON=[[81.175,94.227],[168.825,94.227],[168.825,155.773],[81.175,155.773]]

M104 S0 ; Stops SuperSlicer from sending temp waits separately
M140 S0
M117
PRINT_START EXTRUDER=260 BED=100 CHAMBER=0 FILAMENT_TYPE=ABS NOZZLE_DIAMETER=0.4
G21 ; set units to millimeters
G90 ; use absolute coordinates
M82 ; use absolute distances for extrusion
G92 E0
; Filament gcode
;SET_PRESSURE_ADVANCE ADVANCE=0.035
M107
EXCLUDE_OBJECT_START NAME='pa_calibration_test'
; >>> print_calibration_tool pattern begin
G21 ; millimeters
G90 ; absolute positioning
M83 ; relative extrusion
G92 E0
M106 S0 ; fan
SET_VELOCITY_LIMIT ACCEL=500 ; acceleration for the test
G1 E-0.5 F2700 ; retract
G0 Z5 F3600
G0 X85.0065 Y96.0583 F27000
G0 Z0.2 F3600
SET_PRESSURE_ADVANCE ADVANCE=0 ; start value
SET_PRINT_STATS_INFO TOTAL_LAYER=5
;LAYER_CHANGE
;Z:0.2
;HEIGHT:0.2
SET_PRINT_STATS_INFO CURRENT_LAYER=1
; anchor frame
;TYPE:Perimeter
G0 Z0.4 F3600
G0 X81.4553 Y94.507 F27000
G0 Z0.2 F3600
G1 E0.5 F2700 ; unretract
G1 X168.5447 Y94.507 E3.74444 F2700 ; anchor
G1 X168.5447 Y140.0359 E1.95753 F2700 ; anchor
G1 X81.4553 Y140.0359 E3.74444 F2700 ; anchor
G1 X81.4553 Y94.507 E1.95753 F2700 ; anchor
G0 X81.9724 Y95.0241 F27000
G1 X168.0276 Y95.0241 E3.69997 F2700 ; anchor
G1 X168.0276 Y139.5188 E1.91307 F2700 ; anchor
G1 X81.9724 Y139.5188 E3.69997 F2700 ; anchor
G1 X81.9724 Y95.0241 E1.91307 F2700 ; anchor
G0 X82.4895 Y95.5412 F27000
G1 X167.5105 Y95.5412 E3.65551 F2700 ; anchor
G1 X167.5105 Y139.0017 E1.8686 F2700 ; anchor
G1 X82.4895 Y139.0017 E3.65551 F2700 ; anchor
G1 X82.4895 Y95.5412 E1.8686 F2700 ; anchor
G0 X83.0065 Y96.0583 F27000
G1 X166.9935 Y96.0583 E3.61105 F2700 ; anchor
G1 X166.9935 Y138.4847 E1.82414 F2700 ; anchor
G1 X83.0065 Y138.4847 E3.61105 F2700 ; anchor
G1 X83.0065 Y96.0583 E1.82414 F2700 ; anchor
; number tab
;TYPE:Solid infill
G1 E-0.5 F2700 ; retract
G0 Z0.4 F3600
G0 X81.4553 Y140.553 F27000
G0 Z0.2 F3600
G1 E0.5 F2700 ; unretract
G1 X168.5447 Y140.553 E3.74444 F2700 ; tab
G1 X168.5447 Y155.493 E0.64235 F2700 ; tab
G1 X81.4553 Y155.493 E3.74444 F2700 ; tab
G1 X81.4553 Y140.553 E0.64235 F2700 ; tab
G0 X81.9724 Y141.0701 F27000
G1 X168.0276 Y141.0701 E3.69997 F2700 ; tab
G1 X168.0276 Y154.9759 E0.59789 F2700 ; tab
G1 X81.9724 Y154.9759 E3.69997 F2700 ; tab
G1 X81.9724 Y141.0701 E0.59789 F2700 ; tab
G0 X82.4895 Y141.5871 F27000
G1 X167.5105 Y141.5871 E3.65551 F2700 ; tab
G1 X167.5105 Y154.4588 E0.55342 F2700 ; tab
G1 X82.4895 Y154.4588 E3.65551 F2700 ; tab
G1 X82.4895 Y141.5871 E0.55342 F2700 ; tab
G0 X83.0065 Y142.1042 F27000
G1 X166.9935 Y142.1042 E3.61105 F2700 ; tab
G1 X166.9935 Y153.9417 E0.50896 F2700 ; tab
G1 X83.0065 Y153.9417 E3.61105 F2700 ; tab
G1 X83.0065 Y142.1042 E0.50896 F2700 ; tab
G1 E-0.5 F2700 ; retract
G0 Z0.4 F3600
G0 X165.8889 Y142.4776 F27000
G0 Z0.2 F3600
G1 E0.5 F2700 ; unretract
G1 X166.6201 Y143.2088 E0.04446 F2700 ; tab
G0 X166.6201 Y143.9401 F27000
G1 X165.1576 Y142.4776 E0.08893 F2700 ; tab
G0 X164.4263 Y142.4776 F27000
G1 X166.6201 Y144.6713 E0.13339 F2700 ; tab
G0 X166.6201 Y145.4026 F27000
G1 X163.6951 Y142.4776 E0.17786 F2700 ; tab
G0 X162.9638 Y142.4776 F27000
G1 X166.6201 Y146.1339 E0.22232 F2700 ; tab
G0 X166.6201 Y146.8651 F27000
G1 X162.2326 Y142.4776 E0.26678 F2700 ; tab
G0 X161.5013 Y142.4776 F27000
G1 X166.6201 Y147.5964 E0.31125 F2700 ; tab
G0 X166.6201 Y148.3276 F27000
G1 X160.77 Y142.4776 E0.35571 F2700 ; tab
G0 X160.0388 Y142.4776 F27000
G1 X166.6201 Y149.0589 E0.40018 F2700 ; tab
G0 X166.6201 Y149.7902 F27000
G1 X159.3075 Y142.4776 E0.44464 F2700 ; tab
G0 X158.5763 Y142.4776 F27000
G1 X166.6201 Y150.5214 E0.4891 F2700 ; tab
G0 X166.6201 Y151.2527 F27000
G1 X157.845 Y142.4776 E0.53357 F2700 ; tab
G0 X157.1137 Y142.4776 F27000
G1 X166.6201 Y151.9839 E0.57803 F2700 ; tab
G0 X166.6201 Y152.7152 F27000
G1 X156.3825 Y142.4776 E0.6225 F2700 ; tab
G0 X155.6512 Y142.4776 F27000
G1 X166.6201 Y153.4465 E0.66696 F2700 ; tab
G0 X166.0108 Y153.5684 F27000
G1 X154.92 Y142.4776 E0.67438 F2700 ; tab
G0 X154.1887 Y142.4776 F27000
G1 X165.2795 Y153.5684 E0.67438 F2700 ; tab
G0 X164.5483 Y153.5684 F27000
G1 X153.4574 Y142.4776 E0.67438 F2700 ; tab
G0 X152.7262 Y142.4776 F27000
G1 X163.817 Y153.5684 E0.67438 F2700 ; tab
G0 X163.0858 Y153.5684 F27000
G1 X151.9949 Y142.4776 E0.67438 F2700 ; tab
G0 X151.2636 Y142.4776 F27000
G1 X162.3545 Y153.5684 E0.67438 F2700 ; tab
G0 X161.6232 Y153.5684 F27000
G1 X150.5324 Y142.4776 E0.67438 F2700 ; tab
G0 X149.8011 Y142.4776 F27000
G1 X160.892 Y153.5684 E0.67438 F2700 ; tab
G0 X160.1607 Y153.5684 F27000
G1 X149.0699 Y142.4776 E0.67438 F2700 ; tab
G0 X148.3386 Y142.4776 F27000
G1 X159.4295 Y153.5684 E0.67438 F2700 ; tab
G0 X158.6982 Y153.5684 F27000
G1 X147.6073 Y142.4776 E0.67438 F2700 ; tab
G0 X146.8761 Y142.4776 F27000
G1 X157.9669 Y153.5684 E0.67438 F2700 ; tab
G0 X157.2357 Y153.5684 F27000
G1 X146.1448 Y142.4776 E0.67438 F2700 ; tab
G0 X145.4136 Y142.4776 F27000
G1 X156.5044 Y153.5684 E0.67438 F2700 ; tab
G0 X155.7732 Y153.5684 F27000
G1 X144.6823 Y142.4776 E0.67438 F2700 ; tab
G0 X143.951 Y142.4776 F27000
G1 X155.0419 Y153.5684 E0.67438 F2700 ; tab
G0 X154.3106 Y153.5684 F27000
G1 X143.2198 Y142.4776 E0.67438 F2700 ; tab
G0 X142.4885 Y142.4776 F27000
G1 X153.5794 Y153.5684 E0.67438 F2700 ; tab
G0 X152.8481 Y153.5684 F27000
G1 X141.7573 Y142.4776 E0.67438 F2700 ; tab
G0 X141.026 Y142.4776 F27000
G1 X152.1168 Y153.5684 E0.67438 F2700 ; tab
G0 X151.3856 Y153.5684 F27000
G1 X140.2947 Y142.4776 E0.67438 F2700 ; tab
G0 X139.5635 Y142.4776 F27000
G1 X150.6543 Y153.5684 E0.67438 F2700 ; tab
G0 X149.9231 Y153.5684 F27000
G1 X138.8322 Y142.4776 E0.67438 F2700 ; tab
G0 X138.1009 Y142.4776 F27000
G1 X149.1918 Y153.5684 E0.67438 F2700 ; tab
G0 X148.4605 Y153.5684 F27000
G1 X137.3697 Y142.4776 E0.67438 F2700 ; tab
G0 X136.6384 Y142.4776 F27000
G1 X147.7293 Y153.5684 E0.67438 F2700 ; tab
G0 X146.998 Y153.5684 F27000
G1 X135.9072 Y142.4776 E0.67438 F2700 ; tab
G0 X135.1759 Y142.4776 F27000
G1 X146.2668 Y153.5684 E0.67438 F2700 ; tab
G0 X145.5355 Y153.5684 F27000
G1 X134.4446 Y142.4776 E0.67438 F2700 ; tab
G0 X133.7134 Y142.4776 F27000
G1 X144.8042 Y153.5684 E0.67438 F2700 ; tab
G0 X144.073 Y153.5684 F27000
G1 X132.9821 Y142.4776 E0.67438 F2700 ; tab
G0 X132.2509 Y142.4776 F27000
G1 X143.3417 Y153.5684 E0.67438 F2700 ; tab
G0 X142.6105 Y153.5684 F27000
G1 X131.5196 Y142.4776 E0.67438 F2700 ; tab
G0 X130.7883 Y142.4776 F27000
G1 X141.8792 Y153.5684 E0.67438 F2700 ; tab
G0 X141.1479 Y153.5684 F27000
G1 X130.0571 Y142.4776 E0.67438 F2700 ; tab
G0 X129.3258 Y142.4776 F27000
G1 X140.4167 Y153.5684 E0.67438 F2700 ; tab
G0 X139.6854 Y153.5684 F27000
G1 X128.5946 Y142.4776 E0.67438 F2700 ; tab
G0 X127.8633 Y142.4776 F27000
G1 X138.9541 Y153.5684 E0.67438 F2700 ; tab
G0 X138.2229 Y153.5684 F27000
G1 X127.132 Y142.4776 E0.67438 F2700 ; tab
G0 X126.4008 Y142.4776 F27000
G1 X137.4916 Y153.5684 E0.67438 F2700 ; tab
G0 X136.7604 Y153.5684 F27000
G1 X125.6695 Y142.4776 E0.67438 F2700 ; tab
G0 X124.9382 Y142.4776 F27000
G1 X136.0291 Y153.5684 E0.67438 F2700 ; tab
G0 X135.2978 Y153.5684 F27000
G1 X124.207 Y142.4776 E0.67438 F2700 ; tab
G0 X123.4757 Y142.4776 F27000
G1 X134.5666 Y153.5684 E0.67438 F2700 ; tab
G0 X133.8353 Y153.5684 F27000
G1 X122.7445 Y142.4776 E0.67438 F2700 ; tab
G0 X122.0132 Y142.4776 F27000
G1 X133.1041 Y153.5684 E0.67438 F2700 ; tab
G0 X132.3728 Y153.5684 F27000
G1 X121.2819 Y142.4776 E0.67438 F2700 ; tab
G0 X120.5507 Y142.4776 F27000
G1 X131.6415 Y153.5684 E0.67438 F2700 ; tab
G0 X130.9103 Y153.5684 F27000
G1 X119.8194 Y142.4776 E0.67438 F2700 ; tab
G0 X119.0882 Y142.4776 F27000
G1 X130.179 Y153.5684 E0.67438 F2700 ; tab
G0 X129.4478 Y153.5684 F27000
G1 X118.3569 Y142.4776 E0.67438 F2700 ; tab
G0 X117.6256 Y142.4776 F27000
G1 X128.7165 Y153.5684 E0.67438 F2700 ; tab
G0 X127.9852 Y153.5684 F27000
G1 X116.8944 Y142.4776 E0.67438 F2700 ; tab
G0 X116.1631 Y142.4776 F27000
G1 X127.254 Y153.5684 E0.67438 F2700 ; tab
G0 X126.5227 Y153.5684 F27000
G1 X115.4319 Y142.4776 E0.67438 F2700 ; tab
G0 X114.7006 Y142.4776 F27000
G1 X125.7914 Y153.5684 E0.67438 F2700 ; tab
G0 X125.0602 Y153.5684 F27000
G1 X113.9693 Y142.4776 E0.67438 F2700 ; tab
G0 X113.2381 Y142.4776 F27000
G1 X124.3289 Y153.5684 E0.67438 F2700 ; tab
G0 X123.5977 Y153.5684 F27000
G1 X112.5068 Y142.4776 E0.67438 F2700 ; tab
G0 X111.7755 Y142.4776 F27000
G1 X122.8664 Y153.5684 E0.67438 F2700 ; tab
G0 X122.1351 Y153.5684 F27000
G1 X111.0443 Y142.4776 E0.67438 F2700 ; tab
G0 X110.313 Y142.4776 F27000
G1 X121.4039 Y153.5684 E0.67438 F2700 ; tab
G0 X120.6726 Y153.5684 F27000
G1 X109.5818 Y142.4776 E0.67438 F2700 ; tab
G0 X108.8505 Y142.4776 F27000
G1 X119.9414 Y153.5684 E0.67438 F2700 ; tab
G0 X119.2101 Y153.5684 F27000
G1 X108.1192 Y142.4776 E0.67438 F2700 ; tab
G0 X107.388 Y142.4776 F27000
G1 X118.4788 Y153.5684 E0.67438 F2700 ; tab
G0 X117.7476 Y153.5684 F27000
G1 X106.6567 Y142.4776 E0.67438 F2700 ; tab
G0 X105.9255 Y142.4776 F27000
G1 X117.0163 Y153.5684 E0.67438 F2700 ; tab
G0 X116.2851 Y153.5684 F27000
G1 X105.1942 Y142.4776 E0.67438 F2700 ; tab
G0 X104.4629 Y142.4776 F27000
G1 X115.5538 Y153.5684 E0.67438 F2700 ; tab
G0 X114.8225 Y153.5684 F27000
G1 X103.7317 Y142.4776 E0.67438 F2700 ; tab
G0 X103.0004 Y142.4776 F27000
G1 X114.0913 Y153.5684 E0.67438 F2700 ; tab
G0 X113.36 Y153.5684 F27000
G1 X102.2692 Y142.4776 E0.67438 F2700 ; tab
G0 X101.5379 Y142.4776 F27000
G1 X112.6288 Y153.5684 E0.67438 F2700 ; tab
G0 X111.8975 Y153.5684 F27000
G1 X100.8066 Y142.4776 E0.67438 F2700 ; tab
G0 X100.0754 Y142.4776 F27000
G1 X111.1662 Y153.5684 E0.67438 F2700 ; tab
G0 X110.435 Y153.5684 F27000
G1 X99.3441 Y142.4776 E0.67438 F2700 ; tab
G0 X98.6129 Y142.4776 F27000
G1 X109.7037 Y153.5684 E0.67438 F2700 ; tab
G0 X108.9724 Y153.5684 F27000
G1 X97.8816 Y142.4776 E0.67438 F2700 ; tab
G0 X97.1503 Y142.4776 F27000
G1 X108.2412 Y153.5684 E0.67438 F2700 ; tab
G0 X107.5099 Y153.5684 F27000
G1 X96.4191 Y142.4776 E0.67438 F2700 ; tab
G0 X95.6878 Y142.4776 F27000
G1 X106.7787 Y153.5684 E0.67438 F2700 ; tab
G0 X106.0474 Y153.5684 F27000
G1 X94.9565 Y142.4776 E0.67438 F2700 ; tab
G0 X94.2253 Y142.4776 F27000
G1 X105.3161 Y153.5684 E0.67438 F2700 ; tab
G0 X104.5849 Y153.5684 F27000
G1 X93.494 Y142.4776 E0.67438 F2700 ; tab
G0 X92.7628 Y142.4776 F27000
G1 X103.8536 Y153.5684 E0.67438 F2700 ; tab
G0 X103.1224 Y153.5684 F27000
G1 X92.0315 Y142.4776 E0.67438 F2700 ; tab
G0 X91.3002 Y142.4776 F27000
G1 X102.3911 Y153.5684 E0.67438 F2700 ; tab
G0 X101.6598 Y153.5684 F27000
G1 X90.569 Y142.4776 E0.67438 F2700 ; tab
G0 X89.8377 Y142.4776 F27000
G1 X100.9286 Y153.5684 E0.67438 F2700 ; tab
G0 X100.1973 Y153.5684 F27000
G1 X89.1065 Y142.4776 E0.67438 F2700 ; tab
G0 X88.3752 Y142.4776 F27000
G1 X99.4661 Y153.5684 E0.67438 F2700 ; tab
G0 X98.7348 Y153.5684 F27000
G1 X87.6439 Y142.4776 E0.67438 F2700 ; tab
G0 X86.9127 Y142.4776 F27000
G1 X98.0035 Y153.5684 E0.67438 F2700 ; tab
G0 X97.2723 Y153.5684 F27000
G1 X86.1814 Y142.4776 E0.67438 F2700 ; tab
G0 X85.4502 Y142.4776 F27000
G1 X96.541 Y153.5684 E0.67438 F2700 ; tab
G0 X95.8097 Y153.5684 F27000
G1 X84.7189 Y142.4776 E0.67438 F2700 ; tab
G0 X83.9876 Y142.4776 F27000
G1 X95.0785 Y153.5684 E0.67438 F2700 ; tab
G0 X94.3472 Y153.5684 F27000
G1 X83.3799 Y142.6011 E0.66687 F2700 ; tab
G0 X83.3799 Y143.3323 F27000
G1 X93.616 Y153.5684 E0.6224 F2700 ; tab
G0 X92.8847 Y153.5684 F27000
G1 X83.3799 Y144.0636 E0.57794 F2700 ; tab
G0 X83.3799 Y144.7948 F27000
G1 X92.1534 Y153.5684 E0.53347 F2700 ; tab
G0 X91.4222 Y153.5684 F27000
G1 X83.3799 Y145.5261 E0.48901 F2700 ; tab
G0 X83.3799 Y146.2574 F27000
G1 X90.6909 Y153.5684 E0.44455 F2700 ; tab
G0 X89.9597 Y153.5684 F27000
G1 X83.3799 Y146.9886 E0.40008 F2700 ; tab
G0 X83.3799 Y147.7199 F27000
G1 X89.2284 Y153.5684 E0.35562 F2700 ; tab
G0 X88.4971 Y153.5684 F27000
G1 X83.3799 Y148.4511 E0.31115 F2700 ; tab
G0 X83.3799 Y149.1824 F27000
G1 X87.7659 Y153.5684 E0.26669 F2700 ; tab
G0 X87.0346 Y153.5684 F27000
G1 X83.3799 Y149.9137 E0.22223 F2700 ; tab
G0 X83.3799 Y150.6449 F27000
G1 X86.3034 Y153.5684 E0.17776 F2700 ; tab
G0 X85.5721 Y153.5684 F27000
G1 X83.3799 Y151.3762 E0.1333 F2700 ; tab
G0 X83.3799 Y152.1075 F27000
G1 X84.8408 Y153.5684 E0.08883 F2700 ; tab
G0 X84.1096 Y153.5684 F27000
G1 X83.3799 Y152.8387 E0.04437 F2700 ; tab
;TYPE:External perimeter
SET_PRESSURE_ADVANCE ADVANCE=0 ; pattern 1/17
G1 E-0.5 F2700 ; retract
G0 Z0.4 F3600
G0 X85.0065 Y96.0583 F27000
G0 Z0.2 F3600
G1 E0.5 F2700 ; unretract
G1 X106.2197 Y117.2715 E1.01546 F2700 ; pattern
G1 X85.0065 Y138.4847 E1.01546 F2700 ; pattern
G0 X85.5822 Y138.4847 F27000
G1 X106.7954 Y117.2715 E1.01546 F2700 ; pattern
G1 X85.5822 Y96.0583 E1.01546 F2700 ; pattern
G0 X86.1579 Y96.0583 F27000
G1 X107.3711 Y117.2715 E1.01546 F2700 ; pattern
G1 X86.1579 Y138.4847 E1.01546 F2700 ; pattern
SET_PRESSURE_ADVANCE ADVANCE=0.005 ; pattern 2/17
G1 E-0.5 F2700 ; retract
G0 Z0.4 F3600
G0 X88.6079 Y96.0583 F27000
G0 Z0.2 F3600
G1 E0.5 F2700 ; unretract
G1 X109.8211 Y117.2715 E1.01546 F2700 ; pattern
G1 X88.6079 Y138.4847 E1.01546 F2700 ; pattern
G0 X89.1836 Y138.4847 F27000
G1 X110.3968 Y117.2715 E1.01546 F2700 ; pattern
G1 X89.1836 Y96.0583 E1.01546 F2700 ; pattern
G0 X89.7593 Y96.0583 F27000
G1 X110.9725 Y117.2715 E1.01546 F2700 ; pattern
G1 X89.7593 Y138.4847 E1.01546 F2700 ; pattern
SET_PRESSURE_ADVANCE ADVANCE=0.01 ; pattern 3/17
G1 E-0.5 F2700 ; retract
G0 Z0.4 F3600
G0 X92.2093 Y96.0583 F27000
G0 Z0.2 F3600
G1 E0.5 F2700 ; unretract
G1 X113.4225 Y117.2715 E1.01546 F2700 ; pattern
G1 X92.2093 Y138.4847 E1.01546 F2700 ; pattern
G0 X92.785 Y138.4847 F27000
G1 X113.9982 Y117.2715 E1.01546 F2700 ; pattern
G1 X92.785 Y96.0583 E1.01546 F2700 ; pattern
G0 X93.3607 Y96.0583 F27000
G1 X114.5739 Y117.2715 E1.01546 F2700 ; pattern
G1 X93.3607 Y138.4847 E1.01546 F2700 ; pattern
SET_PRESSURE_ADVANCE ADVANCE=0.015 ; pattern 4/17
G1 E-0.5 F2700 ; retract
G0 Z0.4 F3600
G0 X95.8107 Y96.0583 F27000
G0 Z0.2 F3600
G1 E0.5 F2700 ; unretract
G1 X117.0239 Y117.2715 E1.01546 F2700 ; pattern
G1 X95.8107 Y138.4847 E1.01546 F2700 ; pattern
G0 X96.3864 Y138.4847 F27000
G1 X117.5996 Y117.2715 E1.01546 F2700 ; pattern
G1 X96.3864 Y96.0583 E1.01546 F2700 ; pattern
G0 X96.9621 Y96.0583 F27000
G1 X118.1753 Y117.2715 E1.01546 F2700 ; pattern
G1 X96.9621 Y138.4847 E1.01546 F2700 ; pattern
SET_PRESSURE_ADVANCE ADVANCE=0.02 ; pattern 5/17
G1 E-0.5 F2700 ; retract
G0 Z0.4 F3600
G0 X99.4121 Y96.0583 F27000
G0 Z0.2 F3600
G1 E0.5 F2700 ; unretract
G1 X120.6253 Y117.2715 E1.01546 F2700 ; pattern
G1 X99.4121 Y138.4847 E1.01546 F2700 ; pattern
G0 X99.9878 Y138.4847 F27000
G1 X121.201 Y117.2715 E1.01546 F2700 ; pattern
G1 X99.9878 Y96.0583 E1.01546 F2700 ; pattern
G0 X100.5635 Y96.0583 F27000
G1 X121.7767 Y117.2715 E1.01546 F2700 ; pattern
G1 X100.5635 Y138.4847 E1.01546 F2700 ; pattern
SET_PRESSURE_ADVANCE ADVANCE=0.025 ; pattern 6/17
G1 E-0.5 F2700 ; retract
G0 Z0.4 F3600
G0 X103.0135 Y96.0583 F27000
G0 Z0.2 F3600
G1 E0.5 F2700 ; unretract
G1 X124.2267 Y117.2715 E1.01546 F2700 ; pattern
G1 X103.0135 Y138.4847 E1.01546 F2700 ; pattern
G0 X103.5892 Y138.4847 F27000
G1 X124.8024 Y117.2715 E1.01546 F2700 ; pattern
G1 X103.5892 Y96.0583 E1.01546 F2700 ; pattern
G0 X104.1649 Y96.0583 F27000
G1 X125.3781 Y117.2715 E1.01546 F2700 ; pattern
G1 X104.1649 Y138.4847 E1.01546 F2700 ; pattern
SET_PRESSURE_ADVANCE ADVANCE=0.03 ; pattern 7/17
G1 E-0.5 F2700 ; retract
G0 Z0.4 F3600
G0 X106.6149 Y96.0583 F27000
G0 Z0.2 F3600
G1 E0.5 F2700 ; unretract
G1 X127.8281 Y117.2715 E1.01546 F2700 ; pattern
G1 X106.6149 Y138.4847 E1.01546 F2700 ; pattern
G0 X107.1906 Y138.4847 F27000
G1 X128.4038 Y117.2715 E1.01546 F2700 ; pattern
G1 X107.1906 Y96.0583 E1.01546 F2700 ; pattern
G0 X107.7663 Y96.0583 F27000
G1 X128.9795 Y117.2715 E1.01546 F2700 ; pattern
G1 X107.7663 Y138.4847 E1.01546 F2700 ; pattern
SET_PRESSURE_ADVANCE ADVANCE=0.035 ; pattern 8/17
G1 E-0.5 F2700 ; retract
G0 Z0.4 F3600
G0 X110.2163 Y96.0583 F27000
G0 Z0.2 F3600
G1 E0.5 F2700 ; unretract
G1 X131.4295 Y117.2715 E1.01546 F2700 ; pattern
G1 X110.2163 Y138.4847 E1.01546 F2700 ; pattern
G0 X110.792 Y138.4847 F27000
G1 X132.0052 Y117.2715 E1.01546 F2700 ; pattern
G1 X110.792 Y96.0583 E1.01546 F2700 ; pattern
G0 X111.3677 Y96.0583 F27000
G1 X132.5809 Y117.2715 E1.01546 F2700 ; pattern
G1 X111.3677 Y138.4847 E1.01546 F2700 ; pattern
SET_PRESSURE_ADVANCE ADVANCE=0.04 ; pattern 9/17
G1 E-0.5 F2700 ; retract
G0 Z0.4 F3600
G0 X113.8177 Y96.0583 F27000
G0 Z0.2 F3600
G1 E0.5 F2700 ; unretract
G1 X135.0309 Y117.2715 E1.01546 F2700 ; pattern
G1 X113.8177 Y138.4847 E1.01546 F2700 ; pattern
G0 X114.3934 Y138.4847 F27000
G1 X135.6066 Y117.2715 E1.01546 F2700 ; pattern
G1 X114.3934 Y96.0583 E1.01546 F2700 ; pattern
G0 X114.9691 Y96.0583 F27000
G1 X136.1823 Y117.2715 E1.01546 F2700 ; pattern
G1 X114.9691 Y138.4847 E1.01546 F2700 ; pattern
SET_PRESSURE_ADVANCE ADVANCE=0.045 ; pattern 10/17
G1 E-0.5 F2700 ; retract
G0 Z0.4 F3600
G0 X117.4191 Y96.0583 F27000
G0 Z0.2 F3600
G1 E0.5 F2700 ; unretract
G1 X138.6323 Y117.2715 E1.01546 F2700 ; pattern
G1 X117.4191 Y138.4847 E1.01546 F2700 ; pattern
G0 X117.9948 Y138.4847 F27000
G1 X139.208 Y117.2715 E1.01546 F2700 ; pattern
G1 X117.9948 Y96.0583 E1.01546 F2700 ; pattern
G0 X118.5705 Y96.0583 F27000
G1 X139.7837 Y117.2715 E1.01546 F2700 ; pattern
G1 X118.5705 Y138.4847 E1.01546 F2700 ; pattern
SET_PRESSURE_ADVANCE ADVANCE=0.05 ; pattern 11/17
G1 E-0.5 F2700 ; retract
G0 Z0.4 F3600
G0 X121.0205 Y96.0583 F27000
G0 Z0.2 F3600
G1 E0.5 F2700 ; unretract
G1 X142.2337 Y117.2715 E1.01546 F2700 ; pattern
G1 X121.0205 Y138.4847 E1.01546 F2700 ; pattern
G0 X121.5962 Y138.4847 F27000
G1 X142.8094 Y117.2715 E1.01546 F2700 ; pattern
G1 X121.5962 Y96.0583 E1.01546 F2700 ; pattern
G0 X122.1719 Y96.0583 F27000
G1 X143.3851 Y117.2715 E1.01546 F2700 ; pattern
G1 X122.1719 Y138.4847 E1.01546 F2700 ; pattern
SET_PRESSURE_ADVANCE ADVANCE=0.055 ; pattern 12/17
G1 E-0.5 F2700 ; retract
G0 Z0.4 F3600
G0 X124.6219 Y96.0583 F27000
G0 Z0.2 F3600
G1 E0.5 F2700 ; unretract
G1 X145.8351 Y117.2715 E1.01546 F2700 ; pattern
G1 X124.6219 Y138.4847 E1.01546 F2700 ; pattern
G0 X125.1976 Y138.4847 F27000
G1 X146.4108 Y117.2715 E1.01546 F2700 ; pattern
G1 X125.1976 Y96.0583 E1.01546 F2700 ; pattern
G0 X125.7733 Y96.0583 F27000
G1 X146.9865 Y117.2715 E1.01546 F2700 ; pattern
G1 X125.7733 Y138.4847 E1.01546 F2700 ; pattern
SET_PRESSURE_ADVANCE ADVANCE=0.06 ; pattern 13/17
G1 E-0.5 F2700 ; retract
G0 Z0.4 F3600
G0 X128.2233 Y96.0583 F27000
G0 Z0.2 F3600
G1 E0.5 F2700 ; unretract
G1 X149.4365 Y117.2715 E1.01546 F2700 ; pattern
G1 X128.2233 Y138.4847 E1.01546 F2700 ; pattern
G0 X128.799 Y138.4847 F27000
G1 X150.0122 Y117.2715 E1.01546 F2700 ; pattern
G1 X128.799 Y96.0583 E1.01546 F2700 ; pattern
G0 X129.3747 Y96.0583 F27000
G1 X150.5879 Y117.2715 E1.01546 F2700 ; pattern
G1 X129.3747 Y138.4847 E1.01546 F2700 ; pattern
SET_PRESSURE_ADVANCE ADVANCE=0.065 ; pattern 14/17
G1 E-0.5 F2700 ; retract
G0 Z0.4 F3600
G0 X131.8247 Y96.0583 F27000
G0 Z0.2 F3600
G1 E0.5 F2700 ; unretract
G1 X153.0379 Y117.2715 E1.01546 F2700 ; pattern
G1 X131.8247 Y138.4847 E1.01546 F2700 ; pattern
G0 X132.4004 Y138.4847 F27000
G1 X153.6136 Y117.2715 E1.01546 F2700 ; pattern
G1 X132.4004 Y96.0583 E1.01546 F2700 ; pattern
G0 X132.9761 Y96.0583 F27000
G1 X154.1893 Y117.2715 E1.01546 F2700 ; pattern
G1 X132.9761 Y138.4847 E1.01546 F2700 ; pattern
SET_PRESSURE_ADVANCE ADVANCE=0.07 ; pattern 15/17
G1 E-0.5 F2700 ; retract
G0 Z0.4 F3600
G0 X135.4261 Y96.0583 F27000
G0 Z0.2 F3600
G1 E0.5 F2700 ; unretract
G1 X156.6393 Y117.2715 E1.01546 F2700 ; pattern
G1 X135.4261 Y138.4847 E1.01546 F2700 ; pattern
G0 X136.0018 Y138.4847 F27000
G1 X157.215 Y117.2715 E1.01546 F2700 ; pattern
G1 X136.0018 Y96.0583 E1.01546 F2700 ; pattern
G0 X136.5775 Y96.0583 F27000
G1 X157.7907 Y117.2715 E1.01546 F2700 ; pattern
G1 X136.5775 Y138.4847 E1.01546 F2700 ; pattern
SET_PRESSURE_ADVANCE ADVANCE=0.075 ; pattern 16/17
G1 E-0.5 F2700 ; retract
G0 Z0.4 F3600
G0 X139.0275 Y96.0583 F27000
G0 Z0.2 F3600
G1 E0.5 F2700 ; unretract
G1 X160.2407 Y117.2715 E1.01546 F2700 ; pattern
G1 X139.0275 Y138.4847 E1.01546 F2700 ; pattern
G0 X139.6032 Y138.4847 F27000
G1 X160.8164 Y117.2715 E1.01546 F2700 ; pattern
G1 X139.6032 Y96.0583 E1.01546 F2700 ; pattern
G0 X140.1789 Y96.0583 F27000
G1 X161.3921 Y117.2715 E1.01546 F2700 ; pattern
G1 X140.1789 Y138.4847 E1.01546 F2700 ; pattern
SET_PRESSURE_ADVANCE ADVANCE=0.08 ; pattern 17/17
G1 E-0.5 F2700 ; retract
G0 Z0.4 F3600
G0 X142.6289 Y96.0583 F27000
G0 Z0.2 F3600
G1 E0.5 F2700 ; unretract
G1 X163.8421 Y117.2715 E1.01546 F2700 ; pattern
G1 X142.6289 Y138.4847 E1.01546 F2700 ; pattern
G0 X143.2046 Y138.4847 F27000
G1 X164.4178 Y117.2715 E1.01546 F2700 ; pattern
G1 X143.2046 Y96.0583 E1.01546 F2700 ; pattern
G0 X143.7803 Y96.0583 F27000
G1 X164.9935 Y117.2715 E1.01546 F2700 ; pattern
G1 X143.7803 Y138.4847 E1.01546 F2700 ; pattern
;LAYER_CHANGE
;Z:0.4
;HEIGHT:0.2
SET_PRINT_STATS_INFO CURRENT_LAYER=2
G0 Z0.4 F3600
SET_VELOCITY_LIMIT ACCEL=3000 ; print acceleration
; pa value labels
;TYPE:Top solid infill
SET_PRESSURE_ADVANCE ADVANCE=0 ; reset for labels
G1 E-0.5 F2700 ; retract
G0 Z0.6 F3600
G0 X83.5822 Y141.553 F27000
G0 Z0.4 F3600
G1 E0.5 F2700 ; unretract
G1 X85.5822 Y141.553 E0.0677 F2700 ; glyph
G1 X87.5822 Y141.553 E0.0677 F2700 ; glyph
G1 X87.5822 Y143.553 E0.0677 F2700 ; glyph
G1 X85.5822 Y143.553 E0.0677 F2700 ; glyph
G1 X83.5822 Y143.553 E0.0677 F2700 ; glyph
G1 X83.5822 Y141.553 E0.0677 F2700 ; glyph
G1 E-0.5 F2700 ; retract
G0 Z0.6 F3600
G0 X90.785 Y141.553 F27000
G0 Z0.4 F3600
G1 E0.5 F2700 ; unretract
G1 X92.785 Y141.553 E0.0677 F2700 ; glyph
G1 X94.785 Y141.553 E0.0677 F2700 ; glyph
G1 X94.785 Y143.553 E0.0677 F2700 ; glyph
G1 X92.785 Y143.553 E0.0677 F2700 ; glyph
G1 X90.785 Y143.553 E0.0677 F2700 ; glyph
G1 X90.785 Y141.553 E0.0677 F2700 ; glyph
G1 E-0.5 F2700 ; retract
G0 Z0.6 F3600
G0 X94.785 Y144.553 F27000
G0 Z0.4 F3600
G1 E0.5 F2700 ; unretract
G1 X94.035 Y144.553 E0.02539 F2700 ; glyph
G1 E-0.5 F2700 ; retract
G0 Z0.6 F3600
G0 X90.785 Y145.553 F27000
G0 Z0.4 F3600
G1 E0.5 F2700 ; unretract
G1 X92.785 Y145.553 E0.0677 F2700 ; glyph
G1 X94.785 Y145.553 E0.0677 F2700 ; glyph
G1 X94.785 Y147.553 E0.0677 F2700 ; glyph
G1 X92.785 Y147.553 E0.0677 F2700 ; glyph
G1 X90.785 Y147.553 E0.0677 F2700 ; glyph
G1 X90.785 Y145.553 E0.0677 F2700 ; glyph
G1 E-0.5 F2700 ; retract
G0 Z0.6 F3600
G0 X90.785 Y148.553 F27000
G0 Z0.4 F3600
G1 E0.5 F2700 ; unretract
G1 X92.785 Y148.553 E0.0677 F2700 ; glyph
G1 X94.785 Y148.553 E0.0677 F2700 ; glyph
G1 E-0.5 F2700 ; retract
G0 Z0.6 F3600
G0 X97.9878 Y141.553 F27000
G0 Z0.4 F3600
G1 E0.5 F2700 ; unretract
G1 X99.9878 Y141.553 E0.0677 F2700 ; glyph
G1 X101.9878 Y141.553 E0.0677 F2700 ; glyph
G1 X101.9878 Y143.553 E0.0677 F2700 ; glyph
G1 X99.9878 Y143.553 E0.0677 F2700 ; glyph
G1 X97.9878 Y143.553 E0.0677 F2700 ; glyph
G1 X97.9878 Y141.553 E0.0677 F2700 ; glyph
G1 E-0.5 F2700 ; retract
G0 Z0.6 F3600
G0 X101.9878 Y144.553 F27000
G0 Z0.4 F3600
G1 E0.5 F2700 ; unretract
G1 X101.2378 Y144.553 E0.02539 F2700 ; glyph
G1 E-0.5 F2700 ; retract
G0 Z0.6 F3600
G0 X97.9878 Y145.553 F27000
G0 Z0.4 F3600
G1 E0.5 F2700 ; unretract
G1 X99.9878 Y145.553 E0.0677 F2700 ; glyph
G1 X101.9878 Y145.553 E0.0677 F2700 ; glyph
G1 X101.9878 Y147.553 E0.0677 F2700 ; glyph
G1 X99.9878 Y147.553 E0.0677 F2700 ; glyph
G1 X97.9878 Y147.553 E0.0677 F2700 ; glyph
G1 X97.9878 Y145.553 E0.0677 F2700 ; glyph
G1 E-0.5 F2700 ; retract
G0 Z0.6 F3600
G0 X97.9878 Y148.553 F27000
G0 Z0.4 F3600
G1 E0.5 F2700 ; unretract
G1 X97.9878 Y150.553 E0.0677 F2700 ; glyph
G1 X99.9878 Y150.553 E0.0677 F2700 ; glyph
G1 X99.9878 Y148.553 E0.0677 F2700 ; glyph
G1 X101.9878 Y148.553 E0.0677 F2700 ; glyph
G1 X101.9878 Y150.553 E0.0677 F2700 ; glyph
G1 E-0.5 F2700 ; retract
G0 Z0.6 F3600
G0 X105.1906 Y141.553 F27000
G0 Z0.4 F3600
G1 E0.5 F2700 ; unretract
G1 X107.1906 Y141.553 E0.0677 F2700 ; glyph
G1 X109.1906 Y141.553 E0.0677 F2700 ; glyph
G1 X109.1906 Y143.553 E0.0677 F2700 ; glyph
G1 X107.1906 Y143.553 E0.0677 F2700 ; glyph
G1 X105.1906 Y143.553 E0.0677 F2700 ; glyph
G1 X105.1906 Y141.553 E0.0677 F2700 ; glyph
G1 E-0.5 F2700 ; retract
G0 Z0.6 F3600
G0 X109.1906 Y144.553 F27000
G0 Z0.4 F3600
G1 E0.5 F2700 ; unretract
G1 X108.4406 Y144.553 E0.02539 F2700 ; glyph
G1 E-0.5 F2700 ; retract
G0 Z0.6 F3600
G0 X105.1906 Y145.553 F27000
G0 Z0.4 F3600
G1 E0.5 F2700 ; unretract
G1 X107.1906 Y145.553 E0.0677 F2700 ; glyph
G1 X109.1906 Y145.553 E0.0677 F2700 ; glyph
G1 X109.1906 Y147.553 E0.0677 F2700 ; glyph
G1 X107.1906 Y147.553 E0.0677 F2700 ; glyph
G1 X105.1906 Y147.553 E0.0677 F2700 ; glyph
G1 X105.1906 Y145.553 E0.0677 F2700 ; glyph
G1 E-0.5 F2700 ; retract
G0 Z0.6 F3600
G0 X105.1906 Y148.553 F27000
G0 Z0.4 F3600
G1 E0.5 F2700 ; unretract
G1 X105.1906 Y150.553 E0.0677 F2700 ; glyph
G1 X107.1906 Y150.553 E0.0677 F2700 ; glyph
G1 X107.1906 Y148.553 E0.0677 F2700 ; glyph
G0 X107.1906 Y150.553 F27000
G1 X109.1906 Y150.553 E0.0677 F2700 ; glyph
G1 X109.1906 Y148.553 E0.0677 F2700 ; glyph
G1 E-0.5 F2700 ; retract
G0 Z0.6 F3600
G0 X112.3934 Y141.553 F27000
G0 Z0.4 F3600
G1 E0.5 F2700 ; unretract
G1 X114.3934 Y141.553 E0.0677 F2700 ; glyph
G1 X116.3934 Y141.553 E0.0677 F2700 ; glyph
G1 X116.3934 Y143.553 E0.0677 F2700 ; glyph
G1 X114.3934 Y143.553 E0.0677 F2700 ; glyph
G1 X112.3934 Y143.553 E0.0677 F2700 ; glyph
G1 X112.3934 Y141.553 E0.0677 F2700 ; glyph
G1 E-0.5 F2700 ; retract
G0 Z0.6 F3600
G0 X116.3934 Y144.553 F27000
G0 Z0.4 F3600
G1 E0.5 F2700 ; unretract
G1 X115.6434 Y144.553 E0.02539 F2700 ; glyph
G1 E-0.5 F2700 ; retract
G0 Z0.6 F3600
G0 X112.3934 Y145.553 F27000
G0 Z0.4 F3600
G1 E0.5 F2700 ; unretract
G1 X114.3934 Y145.553 E0.0677 F2700 ; glyph
G1 X116.3934 Y145.553 E0.0677 F2700 ; glyph
G1 X116.3934 Y147.553 E0.0677 F2700 ; glyph
G1 X114.3934 Y147.553 E0.0677 F2700 ; glyph
G1 X112.3934 Y147.553 E0.0677 F2700 ; glyph
G1 X112.3934 Y145.553 E0.0677 F2700 ; glyph
G1 E-0.5 F2700 ; retract
G0 Z0.6 F3600
G0 X112.3934 Y150.553 F27000
G0 Z0.4 F3600
G1 E0.5 F2700 ; unretract
G1 X114.3934 Y150.553 E0.0677 F2700 ; glyph
G1 X116.3934 Y150.553 E0.0677 F2700 ; glyph
G0 X114.3934 Y150.553 F27000
G1 X114.3934 Y148.553 E0.0677 F2700 ; glyph
G1 X112.3934 Y148.553 E0.0677 F2700 ; glyph
G1 E-0.5 F2700 ; retract
G0 Z0.6 F3600
G0 X119.5962 Y141.553 F27000
G0 Z0.4 F3600
G1 E0.5 F2700 ; unretract
G1 X121.5962 Y141.553 E0.0677 F2700 ; glyph
G1 X123.5962 Y141.553 E0.0677 F2700 ; glyph
G1 X123.5962 Y143.553 E0.0677 F2700 ; glyph
G1 X121.5962 Y143.553 E0.0677 F2700 ; glyph
G1 X119.5962 Y143.553 E0.0677 F2700 ; glyph
G1 X119.5962 Y141.553 E0.0677 F2700 ; glyph
G1 E-0.5 F2700 ; retract
G0 Z0.6 F3600
G0 X123.5962 Y144.553 F27000
G0 Z0.4 F3600
G1 E0.5 F2700 ; unretract
G1 X122.8462 Y144.553 E0.02539 F2700 ; glyph
G1 E-0.5 F2700 ; retract
G0 Z0.6 F3600
G0 X119.5962 Y145.553 F27000
G0 Z0.4 F3600
G1 E0.5 F2700 ; unretract
G1 X121.5962 Y145.553 E0.0677 F2700 ; glyph
G1 X123.5962 Y145.553 E0.0677 F2700 ; glyph
G1 X123.5962 Y147.553 E0.0677 F2700 ; glyph
G1 X121.5962 Y147.553 E0.0677 F2700 ; glyph
G1 X119.5962 Y147.553 E0.0677 F2700 ; glyph
G1 X119.5962 Y145.553 E0.0677 F2700 ; glyph
G1 E-0.5 F2700 ; retract
G0 Z0.6 F3600
G0 X119.5962 Y150.553 F27000
G0 Z0.4 F3600
G1 E0.5 F2700 ; unretract
G1 X119.5962 Y148.553 E0.0677 F2700 ; glyph
G1 X121.5962 Y148.553 E0.0677 F2700 ; glyph
G1 X121.5962 Y150.553 E0.0677 F2700 ; glyph
G1 X123.5962 Y150.553 E0.0677 F2700 ; glyph
G1 X123.5962 Y148.553 E0.0677 F2700 ; glyph
G1 E-0.5 F2700 ; retract
G0 Z0.6 F3600
G0 X126.799 Y141.553 F27000
G0 Z0.4 F3600
G1 E0.5 F2700 ; unretract
G1 X128.799 Y141.553 E0.0677 F2700 ; glyph
G1 X130.799 Y141.553 E0.0677 F2700 ; glyph
G1 X130.799 Y143.553 E0.0677 F2700 ; glyph
G1 X128.799 Y143.553 E0.0677 F2700 ; glyph
G1 X126.799 Y143.553 E0.0677 F2700 ; glyph
G1 X126.799 Y141.553 E0.0677 F2700 ; glyph
G1 E-0.5 F2700 ; retract
G0 Z0.6 F3600
G0 X130.799 Y144.553 F27000
G0 Z0.4 F3600
G1 E0.5 F2700 ; unretract
G1 X130.049 Y144.553 E0.02539 F2700 ; glyph
G1 E-0.5 F2700 ; retract
G0 Z0.6 F3600
G0 X126.799 Y145.553 F27000
G0 Z0.4 F3600
G1 E0.5 F2700 ; unretract
G1 X128.799 Y145.553 E0.0677 F2700 ; glyph
G1 X130.799 Y145.553 E0.0677 F2700 ; glyph
G1 X130.799 Y147.553 E0.0677 F2700 ; glyph
G1 X128.799 Y147.553 E0.0677 F2700 ; glyph
G1 X126.799 Y147.553 E0.0677 F2700 ; glyph
G1 X126.799 Y145.553 E0.0677 F2700 ; glyph
G1 E-0.5 F2700 ; retract
G0 Z0.6 F3600
G0 X126.799 Y150.553 F27000
G0 Z0.4 F3600
G1 E0.5 F2700 ; unretract
G1 X126.799 Y148.553 E0.0677 F2700 ; glyph
G1 X128.799 Y148.553 E0.0677 F2700 ; glyph
G1 X130.799 Y148.553 E0.0677 F2700 ; glyph
G1 X130.799 Y150.553 E0.0677 F2700 ; glyph
G1 X128.799 Y150.553 E0.0677 F2700 ; glyph
G1 X128.799 Y148.553 E0.0677 F2700 ; glyph
G1 E-0.5 F2700 ; retract
G0 Z0.6 F3600
G0 X134.0018 Y141.553 F27000
G0 Z0.4 F3600
G1 E0.5 F2700 ; unretract
G1 X136.0018 Y141.553 E0.0677 F2700 ; glyph
G1 X138.0018 Y141.553 E0.0677 F2700 ; glyph
G1 X138.0018 Y143.553 E0.0677 F2700 ; glyph
G1 X136.0018 Y143.553 E0.0677 F2700 ; glyph
G1 X134.0018 Y143.553 E0.0677 F2700 ; glyph
G1 X134.0018 Y141.553 E0.0677 F2700 ; glyph
G1 E-0.5 F2700 ; retract
G0 Z0.6 F3600
G0 X138.0018 Y144.553 F27000
G0 Z0.4 F3600
G1 E0.5 F2700 ; unretract
G1 X137.2518 Y144.553 E0.02539 F2700 ; glyph
G1 E-0.5 F2700 ; retract
G0 Z0.6 F3600
G0 X134.0018 Y145.553 F27000
G0 Z0.4 F3600
G1 E0.5 F2700 ; unretract
G1 X136.0018 Y145.553 E0.0677 F2700 ; glyph
G1 X138.0018 Y145.553 E0.0677 F2700 ; glyph
G1 X138.0018 Y147.553 E0.0677 F2700 ; glyph
G1 X136.0018 Y147.553 E0.0677 F2700 ; glyph
G1 X134.0018 Y147.553 E0.0677 F2700 ; glyph
G1 X134.0018 Y145.553 E0.0677 F2700 ; glyph
G1 E-0.5 F2700 ; retract
G0 Z0.6 F3600
G0 X134.0018 Y148.553 F27000
G0 Z0.4 F3600
G1 E0.5 F2700 ; unretract
G1 X134.0018 Y150.553 E0.0677 F2700 ; glyph
G1 X136.0018 Y150.553 E0.0677 F2700 ; glyph
G1 X138.0018 Y150.553 E0.0677 F2700 ; glyph
G1 E-0.5 F2700 ; retract
G0 Z0.6 F3600
G0 X141.2046 Y141.553 F27000
G0 Z0.4 F3600
G1 E0.5 F2700 ; unretract
G1 X143.2046 Y141.553 E0.0677 F2700 ; glyph
G1 X145.2046 Y141.553 E0.0677 F2700 ; glyph
G1 X145.2046 Y143.553 E0.0677 F2700 ; glyph
G1 X143.2046 Y143.553 E0.0677 F2700 ; glyph
G1 X141.2046 Y143.553 E0.0677 F2700 ; glyph
G1 X141.2046 Y141.553 E0.0677 F2700 ; glyph
G1 E-0.5 F2700 ; retract
G0 Z0.6 F3600
G0 X145.2046 Y144.553 F27000
G0 Z0.4 F3600
G1 E0.5 F2700 ; unretract
G1 X144.4546 Y144.553 E0.02539 F2700 ; glyph
G1 E-0.5 F2700 ; retract
G0 Z0.6 F3600
G0 X141.2046 Y145.553 F27000
G0 Z0.4 F3600
G1 E0.5 F2700 ; unretract
G1 X143.2046 Y145.553 E0.0677 F2700 ; glyph
G1 X145.2046 Y145.553 E0.0677 F2700 ; glyph
G1 X145.2046 Y147.553 E0.0677 F2700 ; glyph
G1 X143.2046 Y147.553 E0.0677 F2700 ; glyph
G1 X141.2046 Y147.553 E0.0677 F2700 ; glyph
G1 X141.2046 Y145.553 E0.0677 F2700 ; glyph
G1 E-0.5 F2700 ; retract
G0 Z0.6 F3600
G0 X141.2046 Y148.553 F27000
G0 Z0.4 F3600
G1 E0.5 F2700 ; unretract
G1 X143.2046 Y148.553 E0.0677 F2700 ; glyph
G1 X145.2046 Y148.553 E0.0677 F2700 ; glyph
G1 X145.2046 Y150.553 E0.0677 F2700 ; glyph
G1 X143.2046 Y150.553 E0.0677 F2700 ; glyph
G1 X141.2046 Y150.553 E0.0677 F2700 ; glyph
G1 X141.2046 Y148.553 E0.0677 F2700 ; glyph
G0 X143.2046 Y148.553 F27000
G1 X143.2046 Y150.553 E0.0677 F2700 ; glyph
; scale ticks
G1 E-0.5 F2700 ; retract
G0 Z0.6 F3600
G0 X85.5822 Y152.553 F27000
G0 Z0.4 F3600
G1 E0.5 F2700 ; unretract
G1 X85.5822 Y155.053 E0.08462 F2700 ; glyph
G1 E-0.5 F2700 ; retract
G0 Z0.6 F3600
G0 X89.1836 Y152.553 F27000
G0 Z0.4 F3600
G1 E0.5 F2700 ; unretract
G1 X89.1836 Y153.553 E0.03385 F2700 ; glyph
G1 E-0.5 F2700 ; retract
G0 Z0.6 F3600
G0 X92.785 Y152.553 F27000
G0 Z0.4 F3600
G1 E0.5 F2700 ; unretract
G1 X92.785 Y153.553 E0.03385 F2700 ; glyph
G1 E-0.5 F2700 ; retract
G0 Z0.6 F3600
G0 X96.3864 Y152.553 F27000
G0 Z0.4 F3600
G1 E0.5 F2700 ; unretract
G1 X96.3864 Y153.553 E0.03385 F2700 ; glyph
G1 E-0.5 F2700 ; retract
G0 Z0.6 F3600
G0 X99.9878 Y152.553 F27000
G0 Z0.4 F3600
G1 E0.5 F2700 ; unretract
G1 X99.9878 Y153.553 E0.03385 F2700 ; glyph
G1 E-0.5 F2700 ; retract
G0 Z0.6 F3600
G0 X103.5892 Y152.553 F27000
G0 Z0.4 F3600
G1 E0.5 F2700 ; unretract
G1 X103.5892 Y155.053 E0.08462 F2700 ; glyph
G1 E-0.5 F2700 ; retract
G0 Z0.6 F3600
G0 X107.1906 Y152.553 F27000
G0 Z0.4 F3600
G1 E0.5 F2700 ; unretract
G1 X107.1906 Y153.553 E0.03385 F2700 ; glyph
G1 E-0.5 F2700 ; retract
G0 Z0.6 F3600
G0 X110.792 Y152.553 F27000
G0 Z0.4 F3600
G1 E0.5 F2700 ; unretract
G1 X110.792 Y153.553 E0.03385 F2700 ; glyph
G1 E-0.5 F2700 ; retract
G0 Z0.6 F3600
G0 X114.3934 Y152.553 F27000
G0 Z0.4 F3600
G1 E0.5 F2700 ; unretract
G1 X114.3934 Y153.553 E0.03385 F2700 ; glyph
G1 E-0.5 F2700 ; retract
G0 Z0.6 F3600
G0 X117.9948 Y152.553 F27000
G0 Z0.4 F3600
G1 E0.5 F2700 ; unretract
G1 X117.9948 Y153.553 E0.03385 F2700 ; glyph
G1 E-0.5 F2700 ; retract
G0 Z0.6 F3600
G0 X121.5962 Y152.553 F27000
G0 Z0.4 F3600
G1 E0.5 F2700 ; unretract
G1 X121.5962 Y155.053 E0.08462 F2700 ; glyph
G1 E-0.5 F2700 ; retract
G0 Z0.6 F3600
G0 X125.1976 Y152.553 F27000
G0 Z0.4 F3600
G1 E0.5 F2700 ; unretract
G1 X125.1976 Y153.553 E0.03385 F2700 ; glyph
G1 E-0.5 F2700 ; retract
G0 Z0.6 F3600
G0 X128.799 Y152.553 F27000
G0 Z0.4 F3600
G1 E0.5 F2700 ; unretract
G1 X128.799 Y153.553 E0.03385 F2700 ; glyph
G1 E-0.5 F2700 ; retract
G0 Z0.6 F3600
G0 X132.4004 Y152.553 F27000
G0 Z0.4 F3600
G1 E0.5 F2700 ; unretract
G1 X132.4004 Y153.553 E0.03385 F2700 ; glyph
G1 E-0.5 F2700 ; retract
G0 Z0.6 F3600
G0 X136.0018 Y152.553 F27000
G0 Z0.4 F3600
G1 E0.5 F2700 ; unretract
G1 X136.0018 Y153.553 E0.03385 F2700 ; glyph
G1 E-0.5 F2700 ; retract
G0 Z0.6 F3600
G0 X139.6032 Y152.553 F27000
G0 Z0.4 F3600
G1 E0.5 F2700 ; unretract
G1 X139.6032 Y155.053 E0.08462 F2700 ; glyph
G1 E-0.5 F2700 ; retract
G0 Z0.6 F3600
G0 X143.2046 Y152.553 F27000
G0 Z0.4 F3600
G1 E0.5 F2700 ; unretract
G1 X143.2046 Y153.553 E0.03385 F2700 ; glyph
;TYPE:External perimeter
SET_PRESSURE_ADVANCE ADVANCE=0 ; pattern 1/17
G1 E-0.5 F2700 ; retract
G0 Z0.6 F3600
G0 X85.0065 Y96.0583 F27000
G0 Z0.4 F3600
G1 E0.5 F2700 ; unretract
G1 X106.2197 Y117.2715 E1.01546 F12000 ; pattern
G1 X85.0065 Y138.4847 E1.01546 F12000 ; pattern
G0 X85.5822 Y138.4847 F27000
G1 X106.7954 Y117.2715 E1.01546 F12000 ; pattern
G1 X85.5822 Y96.0583 E1.01546 F12000 ; pattern
G0 X86.1579 Y96.0583 F27000
G1 X107.3711 Y117.2715 E1.01546 F12000 ; pattern
G1 X86.1579 Y138.4847 E1.01546 F12000 ; pattern
SET_PRESSURE_ADVANCE ADVANCE=0.005 ; pattern 2/17
G1 E-0.5 F2700 ; retract
G0 Z0.6 F3600
G0 X88.6079 Y96.0583 F27000
G0 Z0.4 F3600
G1 E0.5 F2700 ; unretract
G1 X109.8211 Y117.2715 E1.01546 F12000 ; pattern
G1 X88.6079 Y138.4847 E1.01546 F12000 ; pattern
G0 X89.1836 Y138.4847 F27000
G1 X110.3968 Y117.2715 E1.01546 F12000 ; pattern
G1 X89.1836 Y96.0583 E1.01546 F12000 ; pattern
G0 X89.7593 Y96.0583 F27000
G1 X110.9725 Y117.2715 E1.01546 F12000 ; pattern
G1 X89.7593 Y138.4847 E1.01546 F12000 ; pattern
SET_PRESSURE_ADVANCE ADVANCE=0.01 ; pattern 3/17
G1 E-0.5 F2700 ; retract
G0 Z0.6 F3600
G0 X92.2093 Y96.0583 F27000
G0 Z0.4 F3600
G1 E0.5 F2700 ; unretract
G1 X113.4225 Y117.2715 E1.01546 F12000 ; pattern
G1 X92.2093 Y138.4847 E1.01546 F12000 ; pattern
G0 X92.785 Y138.4847 F27000
G1 X113.9982 Y117.2715 E1.01546 F12000 ; pattern
G1 X92.785 Y96.0583 E1.01546 F12000 ; pattern
G0 X93.3607 Y96.0583 F27000
G1 X114.5739 Y117.2715 E1.01546 F12000 ; pattern
G1 X93.3607 Y138.4847 E1.01546 F12000 ; pattern
SET_PRESSURE_ADVANCE ADVANCE=0.015 ; pattern 4/17
G1 E-0.5 F2700 ; retract
G0 Z0.6 F3600
G0 X95.8107 Y96.0583 F27000
G0 Z0.4 F3600
G1 E0.5 F2700 ; unretract
G1 X117.0239 Y117.2715 E1.01546 F12000 ; pattern
G1 X95.8107 Y138.4847 E1.01546 F12000 ; pattern
G0 X96.3864 Y138.4847 F27000
G1 X117.5996 Y117.2715 E1.01546 F12000 ; pattern
G1 X96.3864 Y96.0583 E1.01546 F12000 ; pattern
G0 X96.9621 Y96.0583 F27000
G1 X118.1753 Y117.2715 E1.01546 F12000 ; pattern
G1 X96.9621 Y138.4847 E1.01546 F12000 ; pattern
SET_PRESSURE_ADVANCE ADVANCE=0.02 ; pattern 5/17
G1 E-0.5 F2700 ; retract
G0 Z0.6 F3600
G0 X99.4121 Y96.0583 F27000
G0 Z0.4 F3600
G1 E0.5 F2700 ; unretract
G1 X120.6253 Y117.2715 E1.01546 F12000 ; pattern
G1 X99.4121 Y138.4847 E1.01546 F12000 ; pattern
G0 X99.9878 Y138.4847 F27000
G1 X121.201 Y117.2715 E1.01546 F12000 ; pattern
G1 X99.9878 Y96.0583 E1.01546 F12000 ; pattern
G0 X100.5635 Y96.0583 F27000
G1 X121.7767 Y117.2715 E1.01546 F12000 ; pattern
G1 X100.5635 Y138.4847 E1.01546 F12000 ; pattern
SET_PRESSURE_ADVANCE ADVANCE=0.025 ; pattern 6/17
G1 E-0.5 F2700 ; retract
G0 Z0.6 F3600
G0 X103.0135 Y96.0583 F27000
G0 Z0.4 F3600
G1 E0.5 F2700 ; unretract
G1 X124.2267 Y117.2715 E1.01546 F12000 ; pattern
G1 X103.0135 Y138.4847 E1.01546 F12000 ; pattern
G0 X103.5892 Y138.4847 F27000
G1 X124.8024 Y117.2715 E1.01546 F12000 ; pattern
G1 X103.5892 Y96.0583 E1.01546 F12000 ; pattern
G0 X104.1649 Y96.0583 F27000
G1 X125.3781 Y117.2715 E1.01546 F12000 ; pattern
G1 X104.1649 Y138.4847 E1.01546 F12000 ; pattern
SET_PRESSURE_ADVANCE ADVANCE=0.03 ; pattern 7/17
G1 E-0.5 F2700 ; retract
G0 Z0.6 F3600
G0 X106.6149 Y96.0583 F27000
G0 Z0.4 F3600
G1 E0.5 F2700 ; unretract
G1 X127.8281 Y117.2715 E1.01546 F12000 ; pattern
G1 X106.6149 Y138.4847 E1.01546 F12000 ; pattern
G0 X107.1906 Y138.4847 F27000
G1 X128.4038 Y117.2715 E1.01546 F12000 ; pattern
G1 X107.1906 Y96.0583 E1.01546 F12000 ; pattern
G0 X107.7663 Y96.0583 F27000
G1 X128.9795 Y117.2715 E1.01546 F12000 ; pattern
G1 X107.7663 Y138.4847 E1.01546 F12000 ; pattern
SET_PRESSURE_ADVANCE ADVANCE=0.035 ; pattern 8/17
G1 E-0.5 F2700 ; retract
G0 Z0.6 F3600
G0 X110.2163 Y96.0583 F27000
G0 Z0.4 F3600
G1 E0.5 F2700 ; unretract
G1 X131.4295 Y117.2715 E1.01546 F12000 ; pattern
G1 X110.2163 Y138.4847 E1.01546 F12000 ; pattern
G0 X110.792 Y138.4847 F27000
G1 X132.0052 Y117.2715 E1.01546 F12000 ; pattern
G1 X110.792 Y96.0583 E1.01546 F12000 ; pattern
G0 X111.3677 Y96.0583 F27000
G1 X132.5809 Y117.2715 E1.01546 F12000 ; pattern
G1 X111.3677 Y138.4847 E1.01546 F12000 ; pattern
SET_PRESSURE_ADVANCE ADVANCE=0.04 ; pattern 9/17
G1 E-0.5 F2700 ; retract
G0 Z0.6 F3600
G0 X113.8177 Y96.0583 F27000
G0 Z0.4 F3600
G1 E0.5 F2700 ; unretract
G1 X135.0309 Y117.2715 E1.01546 F12000 ; pattern
G1 X113.8177 Y138.4847 E1.01546 F12000 ; pattern
G0 X114.3934 Y138.4847 F27000
G1 X135.6066 Y117.2715 E1.01546 F12000 ; pattern
G1 X114.3934 Y96.0583 E1.01546 F12000 ; pattern
G0 X114.9691 Y96.0583 F27000
G1 X136.1823 Y117.2715 E1.01546 F12000 ; pattern
G1 X114.9691 Y138.4847 E1.01546 F12000 ; pattern
SET_PRESSURE_ADVANCE ADVANCE=0.045 ; pattern 10/17
G1 E-0.5 F2700 ; retract
G0 Z0.6 F3600
G0 X117.4191 Y96.0583 F27000
G0 Z0.4 F3600
G1 E0.5 F2700 ; unretract
G1 X138.6323 Y117.2715 E1.01546 F12000 ; pattern
G1 X117.4191 Y138.4847 E1.01546 F12000 ; pattern
G0 X117.9948 Y138.4847 F27000
G1 X139.208 Y117.2715 E1.01546 F12000 ; pattern
G1 X117.9948 Y96.0583 E1.01546 F12000 ; pattern
G0 X118.5705 Y96.0583 F27000
G1 X139.7837 Y117.2715 E1.01546 F12000 ; pattern
G1 X118.5705 Y138.4847 E1.01546 F12000 ; pattern
SET_PRESSURE_ADVANCE ADVANCE=0.05 ; pattern 11/17
G1 E-0.5 F2700 ; retract
G0 Z0.6 F3600
G0 X121.0205 Y96.0583 F27000
G0 Z0.4 F3600
G1 E0.5 F2700 ; unretract
G1 X142.2337 Y117.2715 E1.01546 F12000 ; pattern
G1 X121.0205 Y138.4847 E1.01546 F12000 ; pattern
G0 X121.5962 Y138.4847 F27000
G1 X142.8094 Y117.2715 E1.01546 F12000 ; pattern
G1 X121.5962 Y96.0583 E1.01546 F12000 ; pattern
G0 X122.1719 Y96.0583 F27000
G1 X143.3851 Y117.2715 E1.01546 F12000 ; pattern
G1 X122.1719 Y138.4847 E1.01546 F12000 ; pattern
SET_PRESSURE_ADVANCE ADVANCE=0.055 ; pattern 12/17
G1 E-0.5 F2700 ; retract
G0 Z0.6 F3600
G0 X124.6219 Y96.0583 F27000
G0 Z0.4 F3600
G1 E0.5 F2700 ; unretract
G1 X145.8351 Y117.2715 E1.01546 F12000 ; pattern
G1 X124.6219 Y138.4847 E1.01546 F12000 ; pattern
G0 X125.1976 Y138.4847 F27000
G1 X146.4108 Y117.2715 E1.01546 F12000 ; pattern
G1 X125.1976 Y96.0583 E1.01546 F12000 ; pattern
G0 X125.7733 Y96.0583 F27000
G1 X146.9865 Y117.2715 E1.01546 F12000 ; pattern
G1 X125.7733 Y138.4847 E1.01546 F12000 ; pattern
SET_PRESSURE_ADVANCE ADVANCE=0.06 ; pattern 13/17
G1 E-0.5 F2700 ; retract
G0 Z0.6 F3600
G0 X128.2233 Y96.0583 F27000
G0 Z0.4 F3600
G1 E0.5 F2700 ; unretract
G1 X149.4365 Y117.2715 E1.01546 F12000 ; pattern
G1 X128.2233 Y138.4847 E1.01546 F12000 ; pattern
G0 X128.799 Y138.4847 F27000
G1 X150.0122 Y117.2715 E1.01546 F12000 ; pattern
G1 X128.799 Y96.0583 E1.01546 F12000 ; pattern
G0 X129.3747 Y96.0583 F27000
G1 X150.5879 Y117.2715 E1.01546 F12000 ; pattern
G1 X129.3747 Y138.4847 E1.01546 F12000 ; pattern
SET_PRESSURE_ADVANCE ADVANCE=0.065 ; pattern 14/17
G1 E-0.5 F2700 ; retract
G0 Z0.6 F3600
G0 X131.8247 Y96.0583 F27000
G0 Z0.4 F3600
G1 E0.5 F2700 ; unretract
G1 X153.0379 Y117.2715 E1.01546 F12000 ; pattern
G1 X131.8247 Y138.4847 E1.01546 F12000 ; pattern
G0 X132.4004 Y138.4847 F27000
G1 X153.6136 Y117.2715 E1.01546 F12000 ; pattern
G1 X132.4004 Y96.0583 E1.01546 F12000 ; pattern
G0 X132.9761 Y96.0583 F27000
G1 X154.1893 Y117.2715 E1.01546 F12000 ; pattern
G1 X132.9761 Y138.4847 E1.01546 F12000 ; pattern
SET_PRESSURE_ADVANCE ADVANCE=0.07 ; pattern 15/17
G1 E-0.5 F2700 ; retract
G0 Z0.6 F3600
G0 X135.4261 Y96.0583 F27000
G0 Z0.4 F3600
G1 E0.5 F2700 ; unretract
G1 X156.6393 Y117.2715 E1.01546 F12000 ; pattern
G1 X135.4261 Y138.4847 E1.01546 F12000 ; pattern
G0 X136.0018 Y138.4847 F27000
G1 X157.215 Y117.2715 E1.01546 F12000 ; pattern
G1 X136.0018 Y96.0583 E1.01546 F12000 ; pattern
G0 X136.5775 Y96.0583 F27000
G1 X157.7907 Y117.2715 E1.01546 F12000 ; pattern
G1 X136.5775 Y138.4847 E1.01546 F12000 ; pattern
SET_PRESSURE_ADVANCE ADVANCE=0.075 ; pattern 16/17
G1 E-0.5 F2700 ; retract
G0 Z0.6 F3600
G0 X139.0275 Y96.0583 F27000
G0 Z0.4 F3600
G1 E0.5 F2700 ; unretract
G1 X160.2407 Y117.2715 E1.01546 F12000 ; pattern
G1 X139.0275 Y138.4847 E1.01546 F12000 ; pattern
G0 X139.6032 Y138.4847 F27000
G1 X160.8164 Y117.2715 E1.01546 F12000 ; pattern
G1 X139.6032 Y96.0583 E1.01546 F12000 ; pattern
G0 X140.1789 Y96.0583 F27000
G1 X161.3921 Y117.2715 E1.01546 F12000 ; pattern
G1 X140.1789 Y138.4847 E1.01546 F12000 ; pattern
SET_PRESSURE_ADVANCE ADVANCE=0.08 ; pattern 17/17
G1 E-0.5 F2700 ; retract
G0 Z0.6 F3600
G0 X142.6289 Y96.0583 F27000
G0 Z0.4 F3600
G1 E0.5 F2700 ; unretract
G1 X163.8421 Y117.2715 E1.01546 F12000 ; pattern
G1 X142.6289 Y138.4847 E1.01546 F12000 ; pattern
G0 X143.2046 Y138.4847 F27000
G1 X164.4178 Y117.2715 E1.01546 F12000 ; pattern
G1 X143.2046 Y96.0583 E1.01546 F12000 ; pattern
G0 X143.7803 Y96.0583 F27000
G1 X164.9935 Y117.2715 E1.01546 F12000 ; pattern
G1 X143.7803 Y138.4847 E1.01546 F12000 ; pattern
;LAYER_CHANGE
;Z:0.6
;HEIGHT:0.2
SET_PRINT_STATS_INFO CURRENT_LAYER=3
G0 Z0.6 F3600
;TYPE:External perimeter
SET_PRESSURE_ADVANCE ADVANCE=0 ; pattern 1/17
G1 E-0.5 F2700 ; retract
G0 Z0.8 F3600
G0 X85.0065 Y96.0583 F27000
G0 Z0.6 F3600
G1 E0.5 F2700 ; unretract
G1 X106.2197 Y117.2715 E1.01546 F12000 ; pattern
G1 X85.0065 Y138.4847 E1.01546 F12000 ; pattern
G0 X85.5822 Y138.4847 F27000
G1 X106.7954 Y117.2715 E1.01546 F12000 ; pattern
G1 X85.5822 Y96.0583 E1.01546 F12000 ; pattern
G0 X86.1579 Y96.0583 F27000
G1 X107.3711 Y117.2715 E1.01546 F12000 ; pattern
G1 X86.1579 Y138.4847 E1.01546 F12000 ; pattern
SET_PRESSURE_ADVANCE ADVANCE=0.005 ; pattern 2/17
G1 E-0.5 F2700 ; retract
G0 Z0.8 F3600
G0 X88.6079 Y96.0583 F27000
G0 Z0.6 F3600
G1 E0.5 F2700 ; unretract
G1 X109.8211 Y117.2715 E1.01546 F12000 ; pattern
G1 X88.6079 Y138.4847 E1.01546 F12000 ; pattern
G0 X89.1836 Y138.4847 F27000
G1 X110.3968 Y117.2715 E1.01546 F12000 ; pattern
G1 X89.1836 Y96.0583 E1.01546 F12000 ; pattern
G0 X89.7593 Y96.0583 F27000
G1 X110.9725 Y117.2715 E1.01546 F12000 ; pattern
G1 X89.7593 Y138.4847 E1.01546 F12000 ; pattern
SET_PRESSURE_ADVANCE ADVANCE=0.01 ; pattern 3/17
G1 E-0.5 F2700 ; retract
G0 Z0.8 F3600
G0 X92.2093 Y96.0583 F27000
G0 Z0.6 F3600
G1 E0.5 F2700 ; unretract
G1 X113.4225 Y117.2715 E1.01546 F12000 ; pattern
G1 X92.2093 Y138.4847 E1.01546 F12000 ; pattern
G0 X92.785 Y138.4847 F27000
G1 X113.9982 Y117.2715 E1.01546 F12000 ; pattern
G1 X92.785 Y96.0583 E1.01546 F12000 ; pattern
G0 X93.3607 Y96.0583 F27000
G1 X114.5739 Y117.2715 E1.01546 F12000 ; pattern
G1 X93.3607 Y138.4847 E1.01546 F12000 ; pattern
SET_PRESSURE_ADVANCE ADVANCE=0.015 ; pattern 4/17
G1 E-0.5 F2700 ; retract
G0 Z0.8 F3600
G0 X95.8107 Y96.0583 F27000
G0 Z0.6 F3600
G1 E0.5 F2700 ; unretract
G1 X117.0239 Y117.2715 E1.01546 F12000 ; pattern
G1 X95.8107 Y138.4847 E1.01546 F12000 ; pattern
G0 X96.3864 Y138.4847 F27000
G1 X117.5996 Y117.2715 E1.01546 F12000 ; pattern
G1 X96.3864 Y96.0583 E1.01546 F12000 ; pattern
G0 X96.9621 Y96.0583 F27000
G1 X118.1753 Y117.2715 E1.01546 F12000 ; pattern
G1 X96.9621 Y138.4847 E1.01546 F12000 ; pattern
SET_PRESSURE_ADVANCE ADVANCE=0.02 ; pattern 5/17
G1 E-0.5 F2700 ; retract
G0 Z0.8 F3600
G0 X99.4121 Y96.0583 F27000
G0 Z0.6 F3600
G1 E0.5 F2700 ; unretract
G1 X120.6253 Y117.2715 E1.01546 F12000 ; pattern
G1 X99.4121 Y138.4847 E1.01546 F12000 ; pattern
G0 X99.9878 Y138.4847 F27000
G1 X121.201 Y117.2715 E1.01546 F12000 ; pattern
G1 X99.9878 Y96.0583 E1.01546 F12000 ; pattern
G0 X100.5635 Y96.0583 F27000
G1 X121.7767 Y117.2715 E1.01546 F12000 ; pattern
G1 X100.5635 Y138.4847 E1.01546 F12000 ; pattern
SET_PRESSURE_ADVANCE ADVANCE=0.025 ; pattern 6/17
G1 E-0.5 F2700 ; retract
G0 Z0.8 F3600
G0 X103.0135 Y96.0583 F27000
G0 Z0.6 F3600
G1 E0.5 F2700 ; unretract
G1 X124.2267 Y117.2715 E1.01546 F12000 ; pattern
G1 X103.0135 Y138.4847 E1.01546 F12000 ; pattern
G0 X103.5892 Y138.4847 F27000
G1 X124.8024 Y117.2715 E1.01546 F12000 ; pattern
G1 X103.5892 Y96.0583 E1.01546 F12000 ; pattern
G0 X104.1649 Y96.0583 F27000
G1 X125.3781 Y117.2715 E1.01546 F12000 ; pattern
G1 X104.1649 Y138.4847 E1.01546 F12000 ; pattern
SET_PRESSURE_ADVANCE ADVANCE=0.03 ; pattern 7/17
G1 E-0.5 F2700 ; retract
G0 Z0.8 F3600
G0 X106.6149 Y96.0583 F27000
G0 Z0.6 F3600
G1 E0.5 F2700 ; unretract
G1 X127.8281 Y117.2715 E1.01546 F12000 ; pattern
G1 X106.6149 Y138.4847 E1.01546 F12000 ; pattern
G0 X107.1906 Y138.4847 F27000
G1 X128.4038 Y117.2715 E1.01546 F12000 ; pattern
G1 X107.1906 Y96.0583 E1.01546 F12000 ; pattern
G0 X107.7663 Y96.0583 F27000
G1 X128.9795 Y117.2715 E1.01546 F12000 ; pattern
G1 X107.7663 Y138.4847 E1.01546 F12000 ; pattern
SET_PRESSURE_ADVANCE ADVANCE=0.035 ; pattern 8/17
G1 E-0.5 F2700 ; retract
G0 Z0.8 F3600
G0 X110.2163 Y96.0583 F27000
G0 Z0.6 F3600
G1 E0.5 F2700 ; unretract
G1 X131.4295 Y117.2715 E1.01546 F12000 ; pattern
G1 X110.2163 Y138.4847 E1.01546 F12000 ; pattern
G0 X110.792 Y138.4847 F27000
G1 X132.0052 Y117.2715 E1.01546 F12000 ; pattern
G1 X110.792 Y96.0583 E1.01546 F12000 ; pattern
G0 X111.3677 Y96.0583 F27000
G1 X132.5809 Y117.2715 E1.01546 F12000 ; pattern
G1 X111.3677 Y138.4847 E1.01546 F12000 ; pattern
SET_PRESSURE_ADVANCE ADVANCE=0.04 ; pattern 9/17
G1 E-0.5 F2700 ; retract
G0 Z0.8 F3600
G0 X113.8177 Y96.0583 F27000
G0 Z0.6 F3600
G1 E0.5 F2700 ; unretract
G1 X135.0309 Y117.2715 E1.01546 F12000 ; pattern
G1 X113.8177 Y138.4847 E1.01546 F12000 ; pattern
G0 X114.3934 Y138.4847 F27000
G1 X135.6066 Y117.2715 E1.01546 F12000 ; pattern
G1 X114.3934 Y96.0583 E1.01546 F12000 ; pattern
G0 X114.9691 Y96.0583 F27000
G1 X136.1823 Y117.2715 E1.01546 F12000 ; pattern
G1 X114.9691 Y138.4847 E1.01546 F12000 ; pattern
SET_PRESSURE_ADVANCE ADVANCE=0.045 ; pattern 10/17
G1 E-0.5 F2700 ; retract
G0 Z0.8 F3600
G0 X117.4191 Y96.0583 F27000
G0 Z0.6 F3600
G1 E0.5 F2700 ; unretract
G1 X138.6323 Y117.2715 E1.01546 F12000 ; pattern
G1 X117.4191 Y138.4847 E1.01546 F12000 ; pattern
G0 X117.9948 Y138.4847 F27000
G1 X139.208 Y117.2715 E1.01546 F12000 ; pattern
G1 X117.9948 Y96.0583 E1.01546 F12000 ; pattern
G0 X118.5705 Y96.0583 F27000
G1 X139.7837 Y117.2715 E1.01546 F12000 ; pattern
G1 X118.5705 Y138.4847 E1.01546 F12000 ; pattern
SET_PRESSURE_ADVANCE ADVANCE=0.05 ; pattern 11/17
G1 E-0.5 F2700 ; retract
G0 Z0.8 F3600
G0 X121.0205 Y96.0583 F27000
G0 Z0.6 F3600
G1 E0.5 F2700 ; unretract
G1 X142.2337 Y117.2715 E1.01546 F12000 ; pattern
G1 X121.0205 Y138.4847 E1.01546 F12000 ; pattern
G0 X121.5962 Y138.4847 F27000
G1 X142.8094 Y117.2715 E1.01546 F12000 ; pattern
G1 X121.5962 Y96.0583 E1.01546 F12000 ; pattern
G0 X122.1719 Y96.0583 F27000
G1 X143.3851 Y117.2715 E1.01546 F12000 ; pattern
G1 X122.1719 Y138.4847 E1.01546 F12000 ; pattern
SET_PRESSURE_ADVANCE ADVANCE=0.055 ; pattern 12/17
G1 E-0.5 F2700 ; retract
G0 Z0.8 F3600
G0 X124.6219 Y96.0583 F27000
G0 Z0.6 F3600
G1 E0.5 F2700 ; unretract
G1 X145.8351 Y117.2715 E1.01546 F12000 ; pattern
G1 X124.6219 Y138.4847 E1.01546 F12000 ; pattern
G0 X125.1976 Y138.4847 F27000
G1 X146.4108 Y117.2715 E1.01546 F12000 ; pattern
G1 X125.1976 Y96.0583 E1.01546 F12000 ; pattern
G0 X125.7733 Y96.0583 F27000
G1 X146.9865 Y117.2715 E1.01546 F12000 ; pattern
G1 X125.7733 Y138.4847 E1.01546 F12000 ; pattern
SET_PRESSURE_ADVANCE ADVANCE=0.06 ; pattern 13/17
G1 E-0.5 F2700 ; retract
G0 Z0.8 F3600
G0 X128.2233 Y96.0583 F27000
G0 Z0.6 F3600
G1 E0.5 F2700 ; unretract
G1 X149.4365 Y117.2715 E1.01546 F12000 ; pattern
G1 X128.2233 Y138.4847 E1.01546 F12000 ; pattern
G0 X128.799 Y138.4847 F27000
G1 X150.0122 Y117.2715 E1.01546 F12000 ; pattern
G1 X128.799 Y96.0583 E1.01546 F12000 ; pattern
G0 X129.3747 Y96.0583 F27000
G1 X150.5879 Y117.2715 E1.01546 F12000 ; pattern
G1 X129.3747 Y138.4847 E1.01546 F12000 ; pattern
SET_PRESSURE_ADVANCE ADVANCE=0.065 ; pattern 14/17
G1 E-0.5 F2700 ; retract
G0 Z0.8 F3600
G0 X131.8247 Y96.0583 F27000
G0 Z0.6 F3600
G1 E0.5 F2700 ; unretract
G1 X153.0379 Y117.2715 E1.01546 F12000 ; pattern
G1 X131.8247 Y138.4847 E1.01546 F12000 ; pattern
G0 X132.4004 Y138.4847 F27000
G1 X153.6136 Y117.2715 E1.01546 F12000 ; pattern
G1 X132.4004 Y96.0583 E1.01546 F12000 ; pattern
G0 X132.9761 Y96.0583 F27000
G1 X154.1893 Y117.2715 E1.01546 F12000 ; pattern
G1 X132.9761 Y138.4847 E1.01546 F12000 ; pattern
SET_PRESSURE_ADVANCE ADVANCE=0.07 ; pattern 15/17
G1 E-0.5 F2700 ; retract
G0 Z0.8 F3600
G0 X135.4261 Y96.0583 F27000
G0 Z0.6 F3600
G1 E0.5 F2700 ; unretract
G1 X156.6393 Y117.2715 E1.01546 F12000 ; pattern
G1 X135.4261 Y138.4847 E1.01546 F12000 ; pattern
G0 X136.0018 Y138.4847 F27000
G1 X157.215 Y117.2715 E1.01546 F12000 ; pattern
G1 X136.0018 Y96.0583 E1.01546 F12000 ; pattern
G0 X136.5775 Y96.0583 F27000
G1 X157.7907 Y117.2715 E1.01546 F12000 ; pattern
G1 X136.5775 Y138.4847 E1.01546 F12000 ; pattern
SET_PRESSURE_ADVANCE ADVANCE=0.075 ; pattern 16/17
G1 E-0.5 F2700 ; retract
G0 Z0.8 F3600
G0 X139.0275 Y96.0583 F27000
G0 Z0.6 F3600
G1 E0.5 F2700 ; unretract
G1 X160.2407 Y117.2715 E1.01546 F12000 ; pattern
G1 X139.0275 Y138.4847 E1.01546 F12000 ; pattern
G0 X139.6032 Y138.4847 F27000
G1 X160.8164 Y117.2715 E1.01546 F12000 ; pattern
G1 X139.6032 Y96.0583 E1.01546 F12000 ; pattern
G0 X140.1789 Y96.0583 F27000
G1 X161.3921 Y117.2715 E1.01546 F12000 ; pattern
G1 X140.1789 Y138.4847 E1.01546 F12000 ; pattern
SET_PRESSURE_ADVANCE ADVANCE=0.08 ; pattern 17/17
G1 E-0.5 F2700 ; retract
G0 Z0.8 F3600
G0 X142.6289 Y96.0583 F27000
G0 Z0.6 F3600
G1 E0.5 F2700 ; unretract
G1 X163.8421 Y117.2715 E1.01546 F12000 ; pattern
G1 X142.6289 Y138.4847 E1.01546 F12000 ; pattern
G0 X143.2046 Y138.4847 F27000
G1 X164.4178 Y117.2715 E1.01546 F12000 ; pattern
G1 X143.2046 Y96.0583 E1.01546 F12000 ; pattern
G0 X143.7803 Y96.0583 F27000
G1 X164.9935 Y117.2715 E1.01546 F12000 ; pattern
G1 X143.7803 Y138.4847 E1.01546 F12000 ; pattern
;LAYER_CHANGE
;Z:0.8
;HEIGHT:0.2
SET_PRINT_STATS_INFO CURRENT_LAYER=4
G0 Z0.8 F3600
;TYPE:External perimeter
SET_PRESSURE_ADVANCE ADVANCE=0 ; pattern 1/17
G1 E-0.5 F2700 ; retract
G0 Z1 F3600
G0 X85.0065 Y96.0583 F27000
G0 Z0.8 F3600
G1 E0.5 F2700 ; unretract
G1 X106.2197 Y117.2715 E1.01546 F12000 ; pattern
G1 X85.0065 Y138.4847 E1.01546 F12000 ; pattern
G0 X85.5822 Y138.4847 F27000
G1 X106.7954 Y117.2715 E1.01546 F12000 ; pattern
G1 X85.5822 Y96.0583 E1.01546 F12000 ; pattern
G0 X86.1579 Y96.0583 F27000
G1 X107.3711 Y117.2715 E1.01546 F12000 ; pattern
G1 X86.1579 Y138.4847 E1.01546 F12000 ; pattern
SET_PRESSURE_ADVANCE ADVANCE=0.005 ; pattern 2/17
G1 E-0.5 F2700 ; retract
G0 Z1 F3600
G0 X88.6079 Y96.0583 F27000
G0 Z0.8 F3600
G1 E0.5 F2700 ; unretract
G1 X109.8211 Y117.2715 E1.01546 F12000 ; pattern
G1 X88.6079 Y138.4847 E1.01546 F12000 ; pattern
G0 X89.1836 Y138.4847 F27000
G1 X110.3968 Y117.2715 E1.01546 F12000 ; pattern
G1 X89.1836 Y96.0583 E1.01546 F12000 ; pattern
G0 X89.7593 Y96.0583 F27000
G1 X110.9725 Y117.2715 E1.01546 F12000 ; pattern
G1 X89.7593 Y138.4847 E1.01546 F12000 ; pattern
SET_PRESSURE_ADVANCE ADVANCE=0.01 ; pattern 3/17
G1 E-0.5 F2700 ; retract
G0 Z1 F3600
G0 X92.2093 Y96.0583 F27000
G0 Z0.8 F3600
G1 E0.5 F2700 ; unretract
G1 X113.4225 Y117.2715 E1.01546 F12000 ; pattern
G1 X92.2093 Y138.4847 E1.01546 F12000 ; pattern
G0 X92.785 Y138.4847 F27000
G1 X113.9982 Y117.2715 E1.01546 F12000 ; pattern
G1 X92.785 Y96.0583 E1.01546 F12000 ; pattern
G0 X93.3607 Y96.0583 F27000
G1 X114.5739 Y117.2715 E1.01546 F12000 ; pattern
G1 X93.3607 Y138.4847 E1.01546 F12000 ; pattern
SET_PRESSURE_ADVANCE ADVANCE=0.015 ; pattern 4/17
G1 E-0.5 F2700 ; retract
G0 Z1 F3600
G0 X95.8107 Y96.0583 F27000
G0 Z0.8 F3600
G1 E0.5 F2700 ; unretract
G1 X117.0239 Y117.2715 E1.01546 F12000 ; pattern
G1 X95.8107 Y138.4847 E1.01546 F12000 ; pattern
G0 X96.3864 Y138.4847 F27000
G1 X117.5996 Y117.2715 E1.01546 F12000 ; pattern
G1 X96.3864 Y96.0583 E1.01546 F12000 ; pattern
G0 X96.9621 Y96.0583 F27000
G1 X118.1753 Y117.2715 E1.01546 F12000 ; pattern
G1 X96.9621 Y138.4847 E1.01546 F12000 ; pattern
SET_PRESSURE_ADVANCE ADVANCE=0.02 ; pattern 5/17
G1 E-0.5 F2700 ; retract
G0 Z1 F3600
G0 X99.4121 Y96.0583 F27000
G0 Z0.8 F3600
G1 E0.5 F2700 ; unretract
G1 X120.6253 Y117.2715 E1.01546 F12000 ; pattern
G1 X99.4121 Y138.4847 E1.01546 F12000 ; pattern
G0 X99.9878 Y138.4847 F27000
G1 X121.201 Y117.2715 E1.01546 F12000 ; pattern
G1 X99.9878 Y96.0583 E1.01546 F12000 ; pattern
G0 X100.5635 Y96.0583 F27000
G1 X121.7767 Y117.2715 E1.01546 F12000 ; pattern
G1 X100.5635 Y138.4847 E1.01546 F12000 ; pattern
SET_PRESSURE_ADVANCE ADVANCE=0.025 ; pattern 6/17
G1 E-0.5 F2700 ; retract
G0 Z1 F3600
G0 X103.0135 Y96.0583 F27000
G0 Z0.8 F3600
G1 E0.5 F2700 ; unretract
G1 X124.2267 Y117.2715 E1.01546 F12000 ; pattern
G1 X103.0135 Y138.4847 E1.01546 F12000 ; pattern
G0 X103.5892 Y138.4847 F27000
G1 X124.8024 Y117.2715 E1.01546 F12000 ; pattern
G1 X103.5892 Y96.0583 E1.01546 F12000 ; pattern
G0 X104.1649 Y96.0583 F27000
G1 X125.3781 Y117.2715 E1.01546 F12000 ; pattern
G1 X104.1649 Y138.4847 E1.01546 F12000 ; pattern
SET_PRESSURE_ADVANCE ADVANCE=0.03 ; pattern 7/17
G1 E-0.5 F2700 ; retract
G0 Z1 F3600
G0 X106.6149 Y96.0583 F27000
G0 Z0.8 F3600
G1 E0.5 F2700 ; unretract
G1 X127.8281 Y117.2715 E1.01546 F12000 ; pattern
G1 X106.6149 Y138.4847 E1.01546 F12000 ; pattern
G0 X107.1906 Y138.4847 F27000
G1 X128.4038 Y117.2715 E1.01546 F12000 ; pattern
G1 X107.1906 Y96.0583 E1.01546 F12000 ; pattern
G0 X107.7663 Y96.0583 F27000
G1 X128.9795 Y117.2715 E1.01546 F12000 ; pattern
G1 X107.7663 Y138.4847 E1.01546 F12000 ; pattern
SET_PRESSURE_ADVANCE ADVANCE=0.035 ; pattern 8/17
G1 E-0.5 F2700 ; retract
G0 Z1 F3600
G0 X110.2163 Y96.0583 F27000
G0 Z0.8 F3600
G1 E0.5 F2700 ; unretract
G1 X131.4295 Y117.2715 E1.01546 F12000 ; pattern
G1 X110.2163 Y138.4847 E1.01546 F12000 ; pattern
G0 X110.792 Y138.4847 F27000
G1 X132.0052 Y117.2715 E1.01546 F12000 ; pattern
G1 X110.792 Y96.0583 E1.01546 F12000 ; pattern
G0 X111.3677 Y96.0583 F27000
G1 X132.5809 Y117.2715 E1.01546 F12000 ; pattern
G1 X111.3677 Y138.4847 E1.01546 F12000 ; pattern
SET_PRESSURE_ADVANCE ADVANCE=0.04 ; pattern 9/17
G1 E-0.5 F2700 ; retract
G0 Z1 F3600
G0 X113.8177 Y96.0583 F27000
G0 Z0.8 F3600
G1 E0.5 F2700 ; unretract
G1 X135.0309 Y117.2715 E1.01546 F12000 ; pattern
G1 X113.8177 Y138.4847 E1.01546 F12000 ; pattern
G0 X114.3934 Y138.4847 F27000
G1 X135.6066 Y117.2715 E1.01546 F12000 ; pattern
G1 X114.3934 Y96.0583 E1.01546 F12000 ; pattern
G0 X114.9691 Y96.0583 F27000
G1 X136.1823 Y117.2715 E1.01546 F12000 ; pattern
G1 X114.9691 Y138.4847 E1.01546 F12000 ; pattern
SET_PRESSURE_ADVANCE ADVANCE=0.045 ; pattern 10/17
G1 E-0.5 F2700 ; retract
G0 Z1 F3600
G0 X117.4191 Y96.0583 F27000
G0 Z0.8 F3600
G1 E0.5 F2700 ; unretract
G1 X138.6323 Y117.2715 E1.01546 F12000 ; pattern
G1 X117.4191 Y138.4847 E1.01546 F12000 ; pattern
G0 X117.9948 Y138.4847 F27000
G1 X139.208 Y117.2715 E1.01546 F12000 ; pattern
G1 X117.9948 Y96.0583 E1.01546 F12000 ; pattern
G0 X118.5705 Y96.0583 F27000
G1 X139.7837 Y117.2715 E1.01546 F12000 ; pattern
G1 X118.5705 Y138.4847 E1.01546 F12000 ; pattern
SET_PRESSURE_ADVANCE ADVANCE=0.05 ; pattern 11/17
G1 E-0.5 F2700 ; retract
G0 Z1 F3600
G0 X121.0205 Y96.0583 F27000
G0 Z0.8 F3600
G1 E0.5 F2700 ; unretract
G1 X142.2337 Y117.2715 E1.01546 F12000 ; pattern
G1 X121.0205 Y138.4847 E1.01546 F12000 ; pattern
G0 X121.5962 Y138.4847 F27000
G1 X142.8094 Y117.2715 E1.01546 F12000 ; pattern
G1 X121.5962 Y96.0583 E1.01546 F12000 ; pattern
G0 X122.1719 Y96.0583 F27000
G1 X143.3851 Y117.2715 E1.01546 F12000 ; pattern
G1 X122.1719 Y138.4847 E1.01546 F12000 ; pattern
SET_PRESSURE_ADVANCE ADVANCE=0.055 ; pattern 12/17
G1 E-0.5 F2700 ; retract
G0 Z1 F3600
G0 X124.6219 Y96.0583 F27000
G0 Z0.8 F3600
G1 E0.5 F2700 ; unretract
G1 X145.8351 Y117.2715 E1.01546 F12000 ; pattern
G1 X124.6219 Y138.4847 E1.01546 F12000 ; pattern
G0 X125.1976 Y138.4847 F27000
G1 X146.4108 Y117.2715 E1.01546 F12000 ; pattern
G1 X125.1976 Y96.0583 E1.01546 F12000 ; pattern
G0 X125.7733 Y96.0583 F27000
G1 X146.9865 Y117.2715 E1.01546 F12000 ; pattern
G1 X125.7733 Y138.4847 E1.01546 F12000 ; pattern
SET_PRESSURE_ADVANCE ADVANCE=0.06 ; pattern 13/17
G1 E-0.5 F2700 ; retract
G0 Z1 F3600
G0 X128.2233 Y96.0583 F27000
G0 Z0.8 F3600
G1 E0.5 F2700 ; unretract
G1 X149.4365 Y117.2715 E1.01546 F12000 ; pattern
G1 X128.2233 Y138.4847 E1.01546 F12000 ; pattern
G0 X128.799 Y138.4847 F27000
G1 X150.0122 Y117.2715 E1.01546 F12000 ; pattern
G1 X128.799 Y96.0583 E1.01546 F12000 ; pattern
G0 X129.3747 Y96.0583 F27000
G1 X150.5879 Y117.2715 E1.01546 F12000 ; pattern
G1 X129.3747 Y138.4847 E1.01546 F12000 ; pattern
SET_PRESSURE_ADVANCE ADVANCE=0.065 ; pattern 14/17
G1 E-0.5 F2700 ; retract
G0 Z1 F3600
G0 X131.8247 Y96.0583 F27000
G0 Z0.8 F3600
G1 E0.5 F2700 ; unretract
G1 X153.0379 Y117.2715 E1.01546 F12000 ; pattern
G1 X131.8247 Y138.4847 E1.01546 F12000 ; pattern
G0 X132.4004 Y138.4847 F27000
G1 X153.6136 Y117.2715 E1.01546 F12000 ; pattern
G1 X132.4004 Y96.0583 E1.01546 F12000 ; pattern
G0 X132.9761 Y96.0583 F27000
G1 X154.1893 Y117.2715 E1.01546 F12000 ; pattern
G1 X132.9761 Y138.4847 E1.01546 F12000 ; pattern
SET_PRESSURE_ADVANCE ADVANCE=0.07 ; pattern 15/17
G1 E-0.5 F2700 ; retract
G0 Z1 F3600
G0 X135.4261 Y96.0583 F27000
G0 Z0.8 F3600
G1 E0.5 F2700 ; unretract
G1 X156.6393 Y117.2715 E1.01546 F12000 ; pattern
G1 X135.4261 Y138.4847 E1.01546 F12000 ; pattern
G0 X136.0018 Y138.4847 F27000
G1 X157.215 Y117.2715 E1.01546 F12000 ; pattern
G1 X136.0018 Y96.0583 E1.01546 F12000 ; pattern
G0 X136.5775 Y96.0583 F27000
G1 X157.7907 Y117.2715 E1.01546 F12000 ; pattern
G1 X136.5775 Y138.4847 E1.01546 F12000 ; pattern
SET_PRESSURE_ADVANCE ADVANCE=0.075 ; pattern 16/17
G1 E-0.5 F2700 ; retract
G0 Z1 F3600
G0 X139.0275 Y96.0583 F27000
G0 Z0.8 F3600
G1 E0.5 F2700 ; unretract
G1 X160.2407 Y117.2715 E1.01546 F12000 ; pattern
G1 X139.0275 Y138.4847 E1.01546 F12000 ; pattern
G0 X139.6032 Y138.4847 F27000
G1 X160.8164 Y117.2715 E1.01546 F12000 ; pattern
G1 X139.6032 Y96.0583 E1.01546 F12000 ; pattern
G0 X140.1789 Y96.0583 F27000
G1 X161.3921 Y117.2715 E1.01546 F12000 ; pattern
G1 X140.1789 Y138.4847 E1.01546 F12000 ; pattern
SET_PRESSURE_ADVANCE ADVANCE=0.08 ; pattern 17/17
G1 E-0.5 F2700 ; retract
G0 Z1 F3600
G0 X142.6289 Y96.0583 F27000
G0 Z0.8 F3600
G1 E0.5 F2700 ; unretract
G1 X163.8421 Y117.2715 E1.01546 F12000 ; pattern
G1 X142.6289 Y138.4847 E1.01546 F12000 ; pattern
G0 X143.2046 Y138.4847 F27000
G1 X164.4178 Y117.2715 E1.01546 F12000 ; pattern
G1 X143.2046 Y96.0583 E1.01546 F12000 ; pattern
G0 X143.7803 Y96.0583 F27000
G1 X164.9935 Y117.2715 E1.01546 F12000 ; pattern
G1 X143.7803 Y138.4847 E1.01546 F12000 ; pattern
;LAYER_CHANGE
;Z:1
;HEIGHT:0.2
SET_PRINT_STATS_INFO CURRENT_LAYER=5
G0 Z1 F3600
M106 S38 ; fan
;TYPE:External perimeter
SET_PRESSURE_ADVANCE ADVANCE=0 ; pattern 1/17
G1 E-0.5 F2700 ; retract
G0 Z1.2 F3600
G0 X85.0065 Y96.0583 F27000
G0 Z1 F3600
G1 E0.5 F2700 ; unretract
G1 X106.2197 Y117.2715 E1.01546 F12000 ; pattern
G1 X85.0065 Y138.4847 E1.01546 F12000 ; pattern
G0 X85.5822 Y138.4847 F27000
G1 X106.7954 Y117.2715 E1.01546 F12000 ; pattern
G1 X85.5822 Y96.0583 E1.01546 F12000 ; pattern
G0 X86.1579 Y96.0583 F27000
G1 X107.3711 Y117.2715 E1.01546 F12000 ; pattern
G1 X86.1579 Y138.4847 E1.01546 F12000 ; pattern
SET_PRESSURE_ADVANCE ADVANCE=0.005 ; pattern 2/17
G1 E-0.5 F2700 ; retract
G0 Z1.2 F3600
G0 X88.6079 Y96.0583 F27000
G0 Z1 F3600
G1 E0.5 F2700 ; unretract
G1 X109.8211 Y117.2715 E1.01546 F12000 ; pattern
G1 X88.6079 Y138.4847 E1.01546 F12000 ; pattern
G0 X89.1836 Y138.4847 F27000
G1 X110.3968 Y117.2715 E1.01546 F12000 ; pattern
G1 X89.1836 Y96.0583 E1.01546 F12000 ; pattern
G0 X89.7593 Y96.0583 F27000
G1 X110.9725 Y117.2715 E1.01546 F12000 ; pattern
G1 X89.7593 Y138.4847 E1.01546 F12000 ; pattern
SET_PRESSURE_ADVANCE ADVANCE=0.01 ; pattern 3/17
G1 E-0.5 F2700 ; retract
G0 Z1.2 F3600
G0 X92.2093 Y96.0583 F27000
G0 Z1 F3600
G1 E0.5 F2700 ; unretract
G1 X113.4225 Y117.2715 E1.01546 F12000 ; pattern
G1 X92.2093 Y138.4847 E1.01546 F12000 ; pattern
G0 X92.785 Y138.4847 F27000
G1 X113.9982 Y117.2715 E1.01546 F12000 ; pattern
G1 X92.785 Y96.0583 E1.01546 F12000 ; pattern
G0 X93.3607 Y96.0583 F27000
G1 X114.5739 Y117.2715 E1.01546 F12000 ; pattern
G1 X93.3607 Y138.4847 E1.01546 F12000 ; pattern
SET_PRESSURE_ADVANCE ADVANCE=0.015 ; pattern 4/17
G1 E-0.5 F2700 ; retract
G0 Z1.2 F3600
G0 X95.8107 Y96.0583 F27000
G0 Z1 F3600
G1 E0.5 F2700 ; unretract
G1 X117.0239 Y117.2715 E1.01546 F12000 ; pattern
G1 X95.8107 Y138.4847 E1.01546 F12000 ; pattern
G0 X96.3864 Y138.4847 F27000
G1 X117.5996 Y117.2715 E1.01546 F12000 ; pattern
G1 X96.3864 Y96.0583 E1.01546 F12000 ; pattern
G0 X96.9621 Y96.0583 F27000
G1 X118.1753 Y117.2715 E1.01546 F12000 ; pattern
G1 X96.9621 Y138.4847 E1.01546 F12000 ; pattern
SET_PRESSURE_ADVANCE ADVANCE=0.02 ; pattern 5/17
G1 E-0.5 F2700 ; retract
G0 Z1.2 F3600
G0 X99.4121 Y96.0583 F27000
G0 Z1 F3600
G1 E0.5 F2700 ; unretract
G1 X120.6253 Y117.2715 E1.01546 F12000 ; pattern
G1 X99.4121 Y138.4847 E1.01546 F12000 ; pattern
G0 X99.9878 Y138.4847 F27000
G1 X121.201 Y117.2715 E1.01546 F12000 ; pattern
G1 X99.9878 Y96.0583 E1.01546 F12000 ; pattern
G0 X100.5635 Y96.0583 F27000
G1 X121.7767 Y117.2715 E1.01546 F12000 ; pattern
G1 X100.5635 Y138.4847 E1.01546 F12000 ; pattern
SET_PRESSURE_ADVANCE ADVANCE=0.025 ; pattern 6/17
G1 E-0.5 F2700 ; retract
G0 Z1.2 F3600
G0 X103.0135 Y96.0583 F27000
G0 Z1 F3600
G1 E0.5 F2700 ; unretract
G1 X124.2267 Y117.2715 E1.01546 F12000 ; pattern
G1 X103.0135 Y138.4847 E1.01546 F12000 ; pattern
G0 X103.5892 Y138.4847 F27000
G1 X124.8024 Y117.2715 E1.01546 F12000 ; pattern
G1 X103.5892 Y96.0583 E1.01546 F12000 ; pattern
G0 X104.1649 Y96.0583 F27000
G1 X125.3781 Y117.2715 E1.01546 F12000 ; pattern
G1 X104.1649 Y138.4847 E1.01546 F12000 ; pattern
SET_PRESSURE_ADVANCE ADVANCE=0.03 ; pattern 7/17
G1 E-0.5 F2700 ; retract
G0 Z1.2 F3600
G0 X106.6149 Y96.0583 F27000
G0 Z1 F3600
G1 E0.5 F2700 ; unretract
G1 X127.8281 Y117.2715 E1.01546 F12000 ; pattern
G1 X106.6149 Y138.4847 E1.01546 F12000 ; pattern
G0 X107.1906 Y138.4847 F27000
G1 X128.4038 Y117.2715 E1.01546 F12000 ; pattern
G1 X107.1906 Y96.0583 E1.01546 F12000 ; pattern
G0 X107.7663 Y96.0583 F27000
G1 X128.9795 Y117.2715 E1.01546 F12000 ; pattern
G1 X107.7663 Y138.4847 E1.01546 F12000 ; pattern
SET_PRESSURE_ADVANCE ADVANCE=0.035 ; pattern 8/17
G1 E-0.5 F2700 ; retract
G0 Z1.2 F3600
G0 X110.2163 Y96.0583 F27000
G0 Z1 F3600
G1 E0.5 F2700 ; unretract
G1 X131.4295 Y117.2715 E1.01546 F12000 ; pattern
G1 X110.2163 Y138.4847 E1.01546 F12000 ; pattern
G0 X110.792 Y138.4847 F27000
G1 X132.0052 Y117.2715 E1.01546 F12000 ; pattern
G1 X110.792 Y96.0583 E1.01546 F12000 ; pattern
G0 X111.3677 Y96.0583 F27000
G1 X132.5809 Y117.2715 E1.01546 F12000 ; pattern
G1 X111.3677 Y138.4847 E1.01546 F12000 ; pattern
SET_PRESSURE_ADVANCE ADVANCE=0.04 ; pattern 9/17
G1 E-0.5 F2700 ; retract
G0 Z1.2 F3600
G0 X113.8177 Y96.0583 F27000
G0 Z1 F3600
G1 E0.5 F2700 ; unretract
G1 X135.0309 Y117.2715 E1.01546 F12000 ; pattern
G1 X113.8177 Y138.4847 E1.01546 F12000 ; pattern
G0 X114.3934 Y138.4847 F27000
G1 X135.6066 Y117.2715 E1.01546 F12000 ; pattern
G1 X114.3934 Y96.0583 E1.01546 F12000 ; pattern
G0 X114.9691 Y96.0583 F27000
G1 X136.1823 Y117.2715 E1.01546 F12000 ; pattern
G1 X114.9691 Y138.4847 E1.01546 F12000 ; pattern
SET_PRESSURE_ADVANCE ADVANCE=0.045 ; pattern 10/17
G1 E-0.5 F2700 ; retract
G0 Z1.2 F3600
G0 X117.4191 Y96.0583 F27000
G0 Z1 F3600
G1 E0.5 F2700 ; unretract
G1 X138.6323 Y117.2715 E1.01546 F12000 ; pattern
G1 X117.4191 Y138.4847 E1.01546 F12000 ; pattern
G0 X117.9948 Y138.4847 F27000
G1 X139.208 Y117.2715 E1.01546 F12000 ; pattern
G1 X117.9948 Y96.0583 E1.01546 F12000 ; pattern
G0 X118.5705 Y96.0583 F27000
G1 X139.7837 Y117.2715 E1.01546 F12000 ; pattern
G1 X118.5705 Y138.4847 E1.01546 F12000 ; pattern
SET_PRESSURE_ADVANCE ADVANCE=0.05 ; pattern 11/17
G1 E-0.5 F2700 ; retract
G0 Z1.2 F3600
G0 X121.0205 Y96.0583 F27000
G0 Z1 F3600
G1 E0.5 F2700 ; unretract
G1 X142.2337 Y117.2715 E1.01546 F12000 ; pattern
G1 X121.0205 Y138.4847 E1.01546 F12000 ; pattern
G0 X121.5962 Y138.4847 F27000
G1 X142.8094 Y117.2715 E1.01546 F12000 ; pattern
G1 X121.5962 Y96.0583 E1.01546 F12000 ; pattern
G0 X122.1719 Y96.0583 F27000
G1 X143.3851 Y117.2715 E1.01546 F12000 ; pattern
G1 X122.1719 Y138.4847 E1.01546 F12000 ; pattern
SET_PRESSURE_ADVANCE ADVANCE=0.055 ; pattern 12/17
G1 E-0.5 F2700 ; retract
G0 Z1.2 F3600
G0 X124.6219 Y96.0583 F27000
G0 Z1 F3600
G1 E0.5 F2700 ; unretract
G1 X145.8351 Y117.2715 E1.01546 F12000 ; pattern
G1 X124.6219 Y138.4847 E1.01546 F12000 ; pattern
G0 X125.1976 Y138.4847 F27000
G1 X146.4108 Y117.2715 E1.01546 F12000 ; pattern
G1 X125.1976 Y96.0583 E1.01546 F12000 ; pattern
G0 X125.7733 Y96.0583 F27000
G1 X146.9865 Y117.2715 E1.01546 F12000 ; pattern
G1 X125.7733 Y138.4847 E1.01546 F12000 ; pattern
SET_PRESSURE_ADVANCE ADVANCE=0.06 ; pattern 13/17
G1 E-0.5 F2700 ; retract
G0 Z1.2 F3600
G0 X128.2233 Y96.0583 F27000
G0 Z1 F3600
G1 E0.5 F2700 ; unretract
G1 X149.4365 Y117.2715 E1.01546 F12000 ; pattern
G1 X128.2233 Y138.4847 E1.01546 F12000 ; pattern
G0 X128.799 Y138.4847 F27000
G1 X150.0122 Y117.2715 E1.01546 F12000 ; pattern
G1 X128.799 Y96.0583 E1.01546 F12000 ; pattern
G0 X129.3747 Y96.0583 F27000
G1 X150.5879 Y117.2715 E1.01546 F12000 ; pattern
G1 X129.3747 Y138.4847 E1.01546 F12000 ; pattern
SET_PRESSURE_ADVANCE ADVANCE=0.065 ; pattern 14/17
G1 E-0.5 F2700 ; retract
G0 Z1.2 F3600
G0 X131.8247 Y96.0583 F27000
G0 Z1 F3600
G1 E0.5 F2700 ; unretract
G1 X153.0379 Y117.2715 E1.01546 F12000 ; pattern
G1 X131.8247 Y138.4847 E1.01546 F12000 ; pattern
G0 X132.4004 Y138.4847 F27000
G1 X153.6136 Y117.2715 E1.01546 F12000 ; pattern
G1 X132.4004 Y96.0583 E1.01546 F12000 ; pattern
G0 X132.9761 Y96.0583 F27000
G1 X154.1893 Y117.2715 E1.01546 F12000 ; pattern
G1 X132.9761 Y138.4847 E1.01546 F12000 ; pattern
SET_PRESSURE_ADVANCE ADVANCE=0.07 ; pattern 15/17
G1 E-0.5 F2700 ; retract
G0 Z1.2 F3600
G0 X135.4261 Y96.0583 F27000
G0 Z1 F3600
G1 E0.5 F2700 ; unretract
G1 X156.6393 Y117.2715 E1.01546 F12000 ; pattern
G1 X135.4261 Y138.4847 E1.01546 F12000 ; pattern
G0 X136.0018 Y138.4847 F27000
G1 X157.215 Y117.2715 E1.01546 F12000 ; pattern
G1 X136.0018 Y96.0583 E1.01546 F12000 ; pattern
G0 X136.5775 Y96.0583 F27000
G1 X157.7907 Y117.2715 E1.01546 F12000 ; pattern
G1 X136.5775 Y138.4847 E1.01546 F12000 ; pattern
SET_PRESSURE_ADVANCE ADVANCE=0.075 ; pattern 16/17
G1 E-0.5 F2700 ; retract
G0 Z1.2 F3600
G0 X139.0275 Y96.0583 F27000
G0 Z1 F3600
G1 E0.5 F2700 ; unretract
G1 X160.2407 Y117.2715 E1.01546 F12000 ; pattern
G1 X139.0275 Y138.4847 E1.01546 F12000 ; pattern
G0 X139.6032 Y138.4847 F27000
G1 X160.8164 Y117.2715 E1.01546 F12000 ; pattern
G1 X139.6032 Y96.0583 E1.01546 F12000 ; pattern
G0 X140.1789 Y96.0583 F27000
G1 X161.3921 Y117.2715 E1.01546 F12000 ; pattern
G1 X140.1789 Y138.4847 E1.01546 F12000 ; pattern
SET_PRESSURE_ADVANCE ADVANCE=0.08 ; pattern 17/17
G1 E-0.5 F2700 ; retract
G0 Z1.2 F3600
G0 X142.6289 Y96.0583 F27000
G0 Z1 F3600
G1 E0.5 F2700 ; unretract
G1 X163.8421 Y117.2715 E1.01546 F12000 ; pattern
G1 X142.6289 Y138.4847 E1.01546 F12000 ; pattern
G0 X143.2046 Y138.4847 F27000
G1 X164.4178 Y117.2715 E1.01546 F12000 ; pattern
G1 X143.2046 Y96.0583 E1.01546 F12000 ; pattern
G0 X143.7803 Y96.0583 F27000
G1 X164.9935 Y117.2715 E1.01546 F12000 ; pattern
G1 X143.7803 Y138.4847 E1.01546 F12000 ; pattern
SET_PRESSURE_ADVANCE ADVANCE=0 ; back to start value
G1 E-0.5 F2700 ; retract
G0 Z6 F3600
M107 ; part fan off
M82 ; restore absolute extrusion
G92 E0
; <<< print_calibration_tool pattern end
EXCLUDE_OBJECT_END NAME='pa_calibration_test'
; Filament-specific end gcode
PRINT_END ;end script from macro
M73 P100 R0
; objects_info = {"objects":[{"name":"pa_calibration_test","polygon":[[81.175,94.227],[168.825,94.227],[168.825,155.773],[81.175,155.773]]}]}
; filament used [mm] = 683.61
; filament used [cm3] = 1.64
; filament used [g] = 1.71
; filament cost = 0.05
; total filament used [g] = 1.71
; total filament cost = 0.05
; total filament used for wipe tower [g] = 0.00
; estimated printing time (normal mode) = 5m 2s
; estimated first layer printing time (normal mode) = 3m 1s

; prusaslicer_config = begin
; arc_fitting = disabled
; autoemit_temperature_commands = 1
; automatic_extrusion_widths = 1
; automatic_infill_combination = 0
; automatic_infill_combination_max_layer_height = 100%
; avoid_crossing_curled_overhangs = 0
; avoid_crossing_perimeters = 0
; avoid_crossing_perimeters_max_detour = 0
; bed_custom_model = C:\\Users\\Michael\\AppData\\Roaming\\PrusaSlicer\\printer\\printbed-v1-250.stl
; bed_custom_texture = C:\\Users\\Michael\\AppData\\Roaming\\PrusaSlicer\\printer\\bedtexture-v1-250.png
; bed_shape = 0x0,250x0,250x250,0x250
; bed_temperature = 100
; bed_temperature_extruder = 0
; before_layer_gcode = ;[layer_z]\n;TIMELAPSE_TAKE_FRAME
; between_objects_gcode = 
; binary_gcode = 0
; bottom_fill_pattern = monotonic
; bottom_solid_layers = 3
; bottom_solid_min_thickness = 0.5
; bridge_acceleration = 1500
; bridge_angle = 0
; bridge_fan_speed = 25
; bridge_flow_ratio = 1
; bridge_speed = 50
; brim_separation = 0.1
; brim_type = outer_only
; brim_width = 0
; chamber_minimal_temperature = 0
; chamber_temperature = 0
; color_change_gcode = M600\nG1 E0.3 F1500 ; prime after color change
; colorprint_heights = 
; compatible_printers_condition_cummulative = ;"printer_notes!~/.*NO_TEMPLATES.*/ and printer_notes!~/.*PRINTER_VENDOR_TRILAB.*/ and printer_notes!~/.*PRINTER_MODEL_MK4IS.*/ and ! (printer_notes=~/.*PRINTER_VENDOR_PRUSA3D.*/ and num_extruders>1)"
; complete_objects = 0
; cooling = 1
; cooling_perimeter_transition_distance = 0
; cooling_slowdown_logic = uniform_cooling
; cooling_tube_length = 5
; cooling_tube_retraction = 91.5
; custom_parameters_filament = ""
; custom_parameters_print = 
; custom_parameters_printer = 
; default_acceleration = 3000
; default_filament_profile = 
; default_print_profile = 
; deretract_speed = 0
; disable_fan_first_layers = 4
; dont_support_bridges = 0
; draft_shield = disabled
; duplicate_distance = 6
; elefant_foot_compensation = 0.2
; enable_dynamic_fan_speeds = 1
; enable_dynamic_overhang_speeds = 1
; end_filament_gcode = "; Filament-specific end gcode"
; end_gcode = PRINT_END ;end script from macro
; ensure_vertical_shell_thickness = enabled
; external_perimeter_acceleration = 2500
; external_perimeter_extrusion_width = 0
; external_perimeter_speed = 150
; external_perimeters_first = 0
; extra_loading_move = -2
; extra_perimeters = 0
; extra_perimeters_on_overhangs = 0
; extruder_clearance_height = 33
; extruder_clearance_radius = 75
; extruder_colour = ""
; extruder_offset = 0x0
; extrusion_axis = E
; extrusion_multiplier = 1
; extrusion_width = 0
; fan_always_on = 0
; fan_below_layer_time = 30
; filament_abrasive = 0
; filament_colour = #FFFFFF
; filament_cooling_final_speed = 2
; filament_cooling_initial_speed = 3
; filament_cooling_moves = 1
; filament_cost = 27.82
; filament_density = 1.04
; filament_deretract_speed = nil
; filament_diameter = 1.75
; filament_flush_speed = 0
; filament_flush_volume = 0
; filament_infill_max_crossing_speed = 0
; filament_infill_max_speed = 0
; filament_load_time = 0
; filament_loading_speed = 14
; filament_loading_speed_start = 19
; filament_max_volumetric_speed = 22
; filament_minimal_purge_on_wipe_tower = 0
; filament_multitool_ramming = 0
; filament_multitool_ramming_flow = 10
; filament_multitool_ramming_volume = 10
; filament_notes = ""
; filament_purge_multiplier = 100%
; filament_ramming_parameters = "120 100 5.70968 6.03226 7 8.25806 9 9.19355 9.3871 9.77419 10.129 10.3226 10.4516 10.5161| 0.05 5.69677 0.45 6.15484 0.95 8.76774 1.45 9.20323 1.95 9.95806 2.45 10.3871 2.95 10.5677 3.45 7.6 3.95 7.6 4.45 7.6 4.95 7.6"
; filament_retract_before_travel = nil
; filament_retract_before_wipe = nil
; filament_retract_layer_change = nil
; filament_retract_length = nil
; filament_retract_length_toolchange = nil
; filament_retract_lift = nil
; filament_retract_lift_above = nil
; filament_retract_lift_below = nil
; filament_retract_restart_extra = nil
; filament_retract_restart_extra_toolchange = nil
; filament_retract_speed = nil
; filament_seam_gap_distance = nil
; filament_settings_id = "ABS v - TitanX - white - CHT 0.4"
; filament_shrinkage_compensation_xy = 0%
; filament_shrinkage_compensation_z = 0%
; filament_soluble = 0
; filament_spool_weight = 0
; filament_stamping_distance = 0
; filament_stamping_loading_speed = 20
; filament_toolchange_delay = 0
; filament_travel_lift_before_obstacle = nil
; filament_travel_max_lift = nil
; filament_travel_ramping_lift = nil
; filament_travel_slope = nil
; filament_type = ABS
; filament_unload_time = 0
; filament_unloading_speed = 20
; filament_unloading_speed_start = 100
; filament_vendor = Generic
; filament_wipe = nil
; fill_angle = 45
; fill_density = 40%
; fill_pattern = cubic
; first_layer_acceleration = 500
; first_layer_acceleration_over_raft = 0
; first_layer_bed_temperature = 100
; first_layer_extrusion_width = 0
; first_layer_height = 0.2
; first_layer_infill_speed = 100
; first_layer_speed = 45
; first_layer_speed_over_raft = 30
; first_layer_temperature = 260
; full_fan_speed_layer = 0
; fuzzy_skin = none
; fuzzy_skin_point_dist = 0.8
; fuzzy_skin_thickness = 0.3
; gap_fill_enabled = 1
; gap_fill_speed = 120
; gcode_comments = 0
; gcode_flavor = klipper
; gcode_label_objects = firmware
; gcode_resolution = 0.008
; gcode_substitutions = 
; high_current_on_filament_swap = 0
; host_type = prusalink
; idle_temperature = nil
; infill_acceleration = 5000
; infill_anchor = 2
; infill_anchor_max = 12
; infill_every_layers = 1
; infill_extruder = 1
; infill_extrusion_width = 0
; infill_first = 0
; infill_overlap = 15%
; infill_speed = 250
; inherits_cummulative = ;"Generic ABS @Template";
; interface_shells = 0
; interlocking_beam = 0
; interlocking_beam_layer_count = 2
; interlocking_beam_width = 0.8
; interlocking_boundary_avoidance = 2
; interlocking_depth = 2
; interlocking_orientation = 22.5
; ironing = 0
; ironing_flowrate = 15%
; ironing_spacing = 0.1
; ironing_speed = 15
; ironing_type = top
; layer_gcode = ;AFTER_LAYER_CHANGE\n;[layer_z]
; layer_height = 0.2
; machine_limits_usage = time_estimate_only
; machine_max_acceleration_e = 4500,2000
; machine_max_acceleration_extruding = 3000,1500
; machine_max_acceleration_retracting = 3000,1500
; machine_max_acceleration_travel = 1500,1250
; machine_max_acceleration_x = 6500,3000
; machine_max_acceleration_y = 6500,3000
; machine_max_acceleration_z = 2500,1500
; machine_max_feedrate_e = 120,120
; machine_max_feedrate_x = 450,300
; machine_max_feedrate_y = 450,300
; machine_max_feedrate_z = 80,40
; machine_max_jerk_e = 10,10
; machine_max_jerk_x = 10,8
; machine_max_jerk_y = 10,8
; machine_max_jerk_z = 2,2
; machine_max_junction_deviation = 0,0
; machine_min_extruding_rate = 0,0
; machine_min_travel_rate = 0,0
; max_fan_speed = 15
; max_layer_height = 0.3
; max_print_height = 210
; max_print_speed = 300
; max_volumetric_extrusion_rate_slope_negative = 0
; max_volumetric_extrusion_rate_slope_positive = 0
; max_volumetric_speed = 0
; min_bead_width = 85%
; min_fan_speed = 15
; min_feature_size = 25%
; min_layer_height = 0.1
; min_print_speed = 15
; min_skirt_length = 4
; mmu_segmented_region_interlocking_depth = 0
; mmu_segmented_region_max_width = 0
; multimaterial_purging = 140
; notes = 
; nozzle_diameter = 0.4
; nozzle_high_flow = 1
; only_one_perimeter_first_layer = 0
; only_retract_when_crossing_perimeters = 0
; ooze_prevention = 0
; output_filename_format = {input_filename_base}_{nozzle_diameter[0]}n_{layer_height}mm_{printing_filament_types}_{printer_model}_{print_time}.gcode
; over_bridge_speed = 0
; overhang_fan_speed_0 = 15
; overhang_fan_speed_1 = 15
; overhang_fan_speed_2 = 30
; overhang_fan_speed_3 = 60
; overhang_speed_0 = 15
; overhang_speed_1 = 25
; overhang_speed_2 = 50
; overhang_speed_3 = 70%
; overhangs = 1
; parking_pos_retraction = 92
; pause_print_gcode = PAUSE
; perimeter_acceleration = 3000
; perimeter_extruder = 1
; perimeter_extrusion_width = 0
; perimeter_generator = arachne
; perimeter_speed = 200
; perimeters = 3
; physical_printer_settings_id = JokeLedgeVoron
; post_process = 
; prefer_clockwise_movements = 0
; print_settings_id = 0.20mm BALANCED
; printer_model = 
; printer_notes = 
; printer_settings_id = Voron 0.4mm CHT
; printer_technology = FFF
; printer_variant = 
; printer_vendor = 
; raft_contact_distance = 0.15
; raft_expansion = 1.5
; raft_first_layer_density = 90%
; raft_first_layer_expansion = 3
; raft_layers = 0
; remaining_times = 1
; resolution = 0
; retract_before_travel = 1.5
; retract_before_wipe = 80%
; retract_layer_change = 1
; retract_length = 0.5
; retract_length_toolchange = 10
; retract_lift = 0.2
; retract_lift_above = 0
; retract_lift_below = 190
; retract_restart_extra = 0
; retract_restart_extra_toolchange = 0
; retract_speed = 45
; scarf_seam_entire_loop = 0
; scarf_seam_length = 20
; scarf_seam_max_segment_length = 1
; scarf_seam_on_inner_perimeters = 0
; scarf_seam_only_on_smooth = 1
; scarf_seam_placement = nowhere
; scarf_seam_start_height = 0%
; seam_gap_distance = 15%
; seam_position = aligned
; silent_mode = 1
; single_extruder_multi_material = 0
; single_extruder_multi_material_priming = 0
; skirt_distance = 6
; skirt_height = 1
; skirts = 0
; slice_closing_radius = 0.049
; slicing_mode = regular
; slowdown_below_layer_time = 20
; small_perimeter_speed = 150
; solid_infill_acceleration = 5000
; solid_infill_below_area = 0
; solid_infill_every_layers = 0
; solid_infill_extruder = 1
; solid_infill_extrusion_width = 0
; solid_infill_speed = 150
; spiral_vase = 0
; staggered_inner_seams = 0
; standby_temperature_delta = -5
; start_filament_gcode = "; Filament gcode\n;SET_PRESSURE_ADVANCE ADVANCE=0.035"
; start_gcode = M104 S0 ; Stops SuperSlicer from sending temp waits separately\nM140 S0\nM117\nPRINT_START EXTRUDER={first_layer_temperature[initial_extruder]} BED=[first_layer_bed_temperature] CHAMBER=[chamber_temperature] FILAMENT_TYPE=[filament_type] NOZZLE_DIAMETER={nozzle_diameter[0]}\n
; support_material = 0
; support_material_angle = 0
; support_material_auto = 1
; support_material_bottom_contact_distance = 0.2
; support_material_bottom_interface_layers = 0
; support_material_buildplate_only = 0
; support_material_closing_radius = 2
; support_material_contact_distance = 0.2
; support_material_enforce_layers = 0
; support_material_extruder = 0
; support_material_extrusion_width = 0
; support_material_interface_contact_loops = 0
; support_material_interface_extruder = 0
; support_material_interface_layers = 3
; support_material_interface_pattern = auto
; support_material_interface_spacing = 0
; support_material_interface_speed = 50
; support_material_pattern = rectilinear
; support_material_spacing = 2.5
; support_material_speed = 60
; support_material_style = grid
; support_material_synchronize_layers = 0
; support_material_threshold = 0
; support_material_with_sheath = 1
; support_material_xy_spacing = 50%
; support_tree_angle = 40
; support_tree_angle_slow = 25
; support_tree_branch_diameter = 2
; support_tree_branch_diameter_angle = 5
; support_tree_branch_diameter_double_wall = 3
; support_tree_branch_distance = 1
; support_tree_tip_diameter = 0.8
; support_tree_top_rate = 15%
; temperature = 260
; template_custom_gcode = 
; thick_bridges = 0
; thin_walls = 0
; thumbnails = 16x16/QOI, 313x173/QOI, 480x240/QOI, 32x32/PNG, 380x285/PNG
; thumbnails_format = QOI
; toolchange_gcode = 
; toolchange_ordering = optimized
; top_fill_pattern = monotoniclines
; top_infill_extrusion_width = 0
; top_one_perimeter_type = top
; top_solid_infill_acceleration = 2000
; top_solid_infill_speed = 100
; top_solid_layers = 5
; top_solid_min_thickness = 0.7
; travel_acceleration = 7000
; travel_lift_before_obstacle = 0
; travel_max_lift = 1.5
; travel_ramping_lift = 1
; travel_short_distance_acceleration = 250
; travel_slope = 1
; travel_speed = 450
; travel_speed_z = 60
; use_firmware_retraction = 0
; use_relative_e_distances = 0
; use_volumetric_e = 0
; variable_layer_height = 1
; wall_distribution_count = 1
; wall_transition_angle = 10
; wall_transition_filter_deviation = 25%
; wall_transition_length = 100%
; wipe = 0
; wipe_into_infill = 0
; wipe_into_objects = 0
; wipe_tower = 0
; wipe_tower_acceleration = 0
; wipe_tower_bridging = 10
; wipe_tower_brim_width = 2
; wipe_tower_cone_angle = 25
; wipe_tower_extra_flow = 250%
; wipe_tower_extra_spacing = 110%
; wipe_tower_extruder = 0
; wipe_tower_no_sparse_layers = 0
; wipe_tower_width = 60
; wiping_volumes_matrix = 0
; wiping_volumes_use_custom_matrix = 0
; xy_size_compensation = 0
; z_offset = 0
; prusaslicer_config = end

